<?xml version="1.0" encoding="UTF-8"?>
<gpx version="1.1" creator="Just the Route" xmlns="http://www.topografix.com/GPX/1/1">
<trk><name>mlk-drive.gpx</name><trkseg>
<trkpt lat="40.007633" lon="-75.197881"><ele>21.0</ele><time>2026-09-15T12:51:46.000Z</time></trkpt>
<trkpt lat="40.007639" lon="-75.197883"><ele>21.0</ele><time>2026-09-15T12:51:55.000Z</time></trkpt>
<trkpt lat="40.007649" lon="-75.197883"><ele>21.0</ele><time>2026-09-15T12:52:00.000Z</time></trkpt>
<trkpt lat="40.007649" lon="-75.197883"><ele>21.0</ele><time>2026-09-15T12:52:01.000Z</time></trkpt>
<trkpt lat="40.007649" lon="-75.197883"><ele>21.2</ele><time>2026-09-15T12:52:05.000Z</time></trkpt>
<trkpt lat="40.007648" lon="-75.197885"><ele>21.4</ele><time>2026-09-15T12:52:24.000Z</time></trkpt>
<trkpt lat="40.007649" lon="-75.197886"><ele>21.4</ele><time>2026-09-15T12:52:32.000Z</time></trkpt>
<trkpt lat="40.007650" lon="-75.197887"><ele>21.4</ele><time>2026-09-15T12:52:42.000Z</time></trkpt>
<trkpt lat="40.007647" lon="-75.197883"><ele>21.2</ele><time>2026-09-15T12:52:45.000Z</time></trkpt>
<trkpt lat="40.007597" lon="-75.197831"><ele>21.2</ele><time>2026-09-15T12:52:48.000Z</time></trkpt>
<trkpt lat="40.007570" lon="-75.197801"><ele>21.2</ele><time>2026-09-15T12:52:50.000Z</time></trkpt>
<trkpt lat="40.007498" lon="-75.197675"><ele>21.0</ele><time>2026-09-15T12:52:54.000Z</time></trkpt>
<trkpt lat="40.007471" lon="-75.197500"><ele>20.2</ele><time>2026-09-15T12:53:00.000Z</time></trkpt>
<trkpt lat="40.007459" lon="-75.197469"><ele>20.2</ele><time>2026-09-15T12:53:01.000Z</time></trkpt>
<trkpt lat="40.007445" lon="-75.197391"><ele>20.0</ele><time>2026-09-15T12:53:03.000Z</time></trkpt>
<trkpt lat="40.007435" lon="-75.197340"><ele>20.0</ele><time>2026-09-15T12:53:05.000Z</time></trkpt>
<trkpt lat="40.007419" lon="-75.197310"><ele>19.8</ele><time>2026-09-15T12:53:06.000Z</time></trkpt>
<trkpt lat="40.007406" lon="-75.197263"><ele>19.8</ele><time>2026-09-15T12:53:08.000Z</time></trkpt>
<trkpt lat="40.007414" lon="-75.197143"><ele>19.2</ele><time>2026-09-15T12:53:12.000Z</time></trkpt>
<trkpt lat="40.007380" lon="-75.197024"><ele>18.8</ele><time>2026-09-15T12:53:15.000Z</time></trkpt>
<trkpt lat="40.007352" lon="-75.196887"><ele>18.2</ele><time>2026-09-15T12:53:19.000Z</time></trkpt>
<trkpt lat="40.007320" lon="-75.196792"><ele>17.6</ele><time>2026-09-15T12:53:22.000Z</time></trkpt>
<trkpt lat="40.007310" lon="-75.196699"><ele>17.2</ele><time>2026-09-15T12:53:25.000Z</time></trkpt>
<trkpt lat="40.007281" lon="-75.196532"><ele>17.0</ele><time>2026-09-15T12:53:30.000Z</time></trkpt>
<trkpt lat="40.007256" lon="-75.196408"><ele>16.6</ele><time>2026-09-15T12:53:34.000Z</time></trkpt>
<trkpt lat="40.007245" lon="-75.196304"><ele>16.6</ele><time>2026-09-15T12:53:37.000Z</time></trkpt>
<trkpt lat="40.007237" lon="-75.196157"><ele>16.2</ele><time>2026-09-15T12:53:41.000Z</time></trkpt>
<trkpt lat="40.007215" lon="-75.196023"><ele>15.4</ele><time>2026-09-15T12:53:45.000Z</time></trkpt>
<trkpt lat="40.007205" lon="-75.195992"><ele>15.4</ele><time>2026-09-15T12:53:46.000Z</time></trkpt>
<trkpt lat="40.007170" lon="-75.195830"><ele>15.0</ele><time>2026-09-15T12:53:51.000Z</time></trkpt>
<trkpt lat="40.007148" lon="-75.195645"><ele>15.2</ele><time>2026-09-15T12:53:57.000Z</time></trkpt>
<trkpt lat="40.007107" lon="-75.195455"><ele>15.2</ele><time>2026-09-15T12:54:03.000Z</time></trkpt>
<trkpt lat="40.007047" lon="-75.195261"><ele>15.2</ele><time>2026-09-15T12:54:09.000Z</time></trkpt>
<trkpt lat="40.007000" lon="-75.195115"><ele>15.0</ele><time>2026-09-15T12:54:14.000Z</time></trkpt>
<trkpt lat="40.006967" lon="-75.194939"><ele>15.0</ele><time>2026-09-15T12:54:20.000Z</time></trkpt>
<trkpt lat="40.006905" lon="-75.194694"><ele>15.2</ele><time>2026-09-15T12:54:28.000Z</time></trkpt>
<trkpt lat="40.006898" lon="-75.194660"><ele>15.2</ele><time>2026-09-15T12:54:29.000Z</time></trkpt>
<trkpt lat="40.006870" lon="-75.194463"><ele>15.0</ele><time>2026-09-15T12:54:35.000Z</time></trkpt>
<trkpt lat="40.006853" lon="-75.194404"><ele>15.0</ele><time>2026-09-15T12:54:37.000Z</time></trkpt>
<trkpt lat="40.006819" lon="-75.194273"><ele>15.0</ele><time>2026-09-15T12:54:41.000Z</time></trkpt>
<trkpt lat="40.006773" lon="-75.194037"><ele>14.8</ele><time>2026-09-15T12:54:48.000Z</time></trkpt>
<trkpt lat="40.006780" lon="-75.194003"><ele>14.8</ele><time>2026-09-15T12:54:49.000Z</time></trkpt>
<trkpt lat="40.006692" lon="-75.193771"><ele>14.6</ele><time>2026-09-15T12:54:57.000Z</time></trkpt>
<trkpt lat="40.006577" lon="-75.193580"><ele>14.8</ele><time>2026-09-15T12:55:04.000Z</time></trkpt>
<trkpt lat="40.006436" lon="-75.193417"><ele>15.0</ele><time>2026-09-15T12:55:11.000Z</time></trkpt>
<trkpt lat="40.006284" lon="-75.193356"><ele>14.8</ele><time>2026-09-15T12:55:17.000Z</time></trkpt>
<trkpt lat="40.006096" lon="-75.193274"><ele>14.8</ele><time>2026-09-15T12:55:24.000Z</time></trkpt>
<trkpt lat="40.005940" lon="-75.193189"><ele>14.6</ele><time>2026-09-15T12:55:30.000Z</time></trkpt>
<trkpt lat="40.005894" lon="-75.193174"><ele>14.6</ele><time>2026-09-15T12:55:32.000Z</time></trkpt>
<trkpt lat="40.005800" lon="-75.193109"><ele>14.4</ele><time>2026-09-15T12:55:36.000Z</time></trkpt>
<trkpt lat="40.005671" lon="-75.193030"><ele>14.0</ele><time>2026-09-15T12:55:42.000Z</time></trkpt>
<trkpt lat="40.005484" lon="-75.192948"><ele>13.8</ele><time>2026-09-15T12:55:49.000Z</time></trkpt>
<trkpt lat="40.005382" lon="-75.192910"><ele>13.8</ele><time>2026-09-15T12:55:53.000Z</time></trkpt>
<trkpt lat="40.005250" lon="-75.192881"><ele>13.4</ele><time>2026-09-15T12:55:59.000Z</time></trkpt>
<trkpt lat="40.005225" lon="-75.192877"><ele>13.2</ele><time>2026-09-15T12:56:01.000Z</time></trkpt>
<trkpt lat="40.005204" lon="-75.192855"><ele>13.2</ele><time>2026-09-15T12:56:03.000Z</time></trkpt>
<trkpt lat="40.005196" lon="-75.192847"><ele>13.2</ele><time>2026-09-15T12:56:04.000Z</time></trkpt>
<trkpt lat="40.005087" lon="-75.192760"><ele>13.2</ele><time>2026-09-15T12:56:08.000Z</time></trkpt>
<trkpt lat="40.004887" lon="-75.192720"><ele>13.2</ele><time>2026-09-15T12:56:15.000Z</time></trkpt>
<trkpt lat="40.004833" lon="-75.192705"><ele>13.2</ele><time>2026-09-15T12:56:17.000Z</time></trkpt>
<trkpt lat="40.004656" lon="-75.192592"><ele>13.4</ele><time>2026-09-15T12:56:24.000Z</time></trkpt>
<trkpt lat="40.004614" lon="-75.192578"><ele>13.4</ele><time>2026-09-15T12:56:26.000Z</time></trkpt>
<trkpt lat="40.004419" lon="-75.192516"><ele>13.4</ele><time>2026-09-15T12:56:33.000Z</time></trkpt>
<trkpt lat="40.004395" lon="-75.192508"><ele>13.4</ele><time>2026-09-15T12:56:34.000Z</time></trkpt>
<trkpt lat="40.004199" lon="-75.192456"><ele>13.4</ele><time>2026-09-15T12:56:42.000Z</time></trkpt>
<trkpt lat="40.004160" lon="-75.192445"><ele>13.4</ele><time>2026-09-15T12:56:43.000Z</time></trkpt>
<trkpt lat="40.003974" lon="-75.192416"><ele>13.6</ele><time>2026-09-15T12:56:50.000Z</time></trkpt>
<trkpt lat="40.003791" lon="-75.192418"><ele>13.6</ele><time>2026-09-15T12:56:57.000Z</time></trkpt>
<trkpt lat="40.003770" lon="-75.192413"><ele>13.6</ele><time>2026-09-15T12:56:58.000Z</time></trkpt>
<trkpt lat="40.003583" lon="-75.192392"><ele>13.8</ele><time>2026-09-15T12:57:05.000Z</time></trkpt>
<trkpt lat="40.003500" lon="-75.192388"><ele>13.8</ele><time>2026-09-15T12:57:08.000Z</time></trkpt>
<trkpt lat="40.003331" lon="-75.192392"><ele>13.8</ele><time>2026-09-15T12:57:15.000Z</time></trkpt>
<trkpt lat="40.003207" lon="-75.192407"><ele>13.8</ele><time>2026-09-15T12:57:20.000Z</time></trkpt>
<trkpt lat="40.003020" lon="-75.192443"><ele>13.8</ele><time>2026-09-15T12:57:28.000Z</time></trkpt>
<trkpt lat="40.002845" lon="-75.192420"><ele>13.8</ele><time>2026-09-15T12:57:35.000Z</time></trkpt>
<trkpt lat="40.002691" lon="-75.192415"><ele>13.8</ele><time>2026-09-15T12:57:41.000Z</time></trkpt>
<trkpt lat="40.002495" lon="-75.192441"><ele>13.6</ele><time>2026-09-15T12:57:48.000Z</time></trkpt>
<trkpt lat="40.002473" lon="-75.192447"><ele>13.6</ele><time>2026-09-15T12:57:49.000Z</time></trkpt>
<trkpt lat="40.002294" lon="-75.192433"><ele>13.6</ele><time>2026-09-15T12:57:56.000Z</time></trkpt>
<trkpt lat="40.002110" lon="-75.192398"><ele>13.4</ele><time>2026-09-15T12:58:02.000Z</time></trkpt>
<trkpt lat="40.002025" lon="-75.192413"><ele>13.4</ele><time>2026-09-15T12:58:05.000Z</time></trkpt>
<trkpt lat="40.001829" lon="-75.192427"><ele>13.2</ele><time>2026-09-15T12:58:12.000Z</time></trkpt>
<trkpt lat="40.001802" lon="-75.192429"><ele>13.2</ele><time>2026-09-15T12:58:13.000Z</time></trkpt>
<trkpt lat="40.001600" lon="-75.192405"><ele>13.0</ele><time>2026-09-15T12:58:20.000Z</time></trkpt>
<trkpt lat="40.001409" lon="-75.192392"><ele>13.0</ele><time>2026-09-15T12:58:27.000Z</time></trkpt>
<trkpt lat="40.001383" lon="-75.192391"><ele>13.0</ele><time>2026-09-15T12:58:28.000Z</time></trkpt>
<trkpt lat="40.001210" lon="-75.192405"><ele>13.0</ele><time>2026-09-15T12:58:35.000Z</time></trkpt>
<trkpt lat="40.001031" lon="-75.192448"><ele>13.0</ele><time>2026-09-15T12:58:42.000Z</time></trkpt>
<trkpt lat="40.000861" lon="-75.192529"><ele>13.0</ele><time>2026-09-15T12:58:49.000Z</time></trkpt>
<trkpt lat="40.000710" lon="-75.192560"><ele>13.0</ele><time>2026-09-15T12:58:55.000Z</time></trkpt>
<trkpt lat="40.000524" lon="-75.192606"><ele>13.0</ele><time>2026-09-15T12:59:02.000Z</time></trkpt>
<trkpt lat="40.000373" lon="-75.192680"><ele>12.8</ele><time>2026-09-15T12:59:08.000Z</time></trkpt>
<trkpt lat="40.000209" lon="-75.192786"><ele>12.8</ele><time>2026-09-15T12:59:15.000Z</time></trkpt>
<trkpt lat="40.000170" lon="-75.192831"><ele>12.8</ele><time>2026-09-15T12:59:17.000Z</time></trkpt>
<trkpt lat="39.999988" lon="-75.192919"><ele>13.0</ele><time>2026-09-15T12:59:25.000Z</time></trkpt>
<trkpt lat="39.999963" lon="-75.192930"><ele>13.0</ele><time>2026-09-15T12:59:26.000Z</time></trkpt>
<trkpt lat="39.999782" lon="-75.192989"><ele>13.2</ele><time>2026-09-15T12:59:34.000Z</time></trkpt>
<trkpt lat="39.999758" lon="-75.192993"><ele>13.2</ele><time>2026-09-15T12:59:35.000Z</time></trkpt>
<trkpt lat="39.999563" lon="-75.193015"><ele>13.2</ele><time>2026-09-15T12:59:43.000Z</time></trkpt>
<trkpt lat="39.999375" lon="-75.193098"><ele>13.4</ele><time>2026-09-15T12:59:51.000Z</time></trkpt>
<trkpt lat="39.999199" lon="-75.193173"><ele>13.4</ele><time>2026-09-15T12:59:58.000Z</time></trkpt>
<trkpt lat="39.999172" lon="-75.193180"><ele>13.4</ele><time>2026-09-15T12:59:59.000Z</time></trkpt>
<trkpt lat="39.998998" lon="-75.193234"><ele>13.4</ele><time>2026-09-15T13:00:06.000Z</time></trkpt>
<trkpt lat="39.998806" lon="-75.193259"><ele>13.4</ele><time>2026-09-15T13:00:13.000Z</time></trkpt>
<trkpt lat="39.998622" lon="-75.193332"><ele>13.4</ele><time>2026-09-15T13:00:20.000Z</time></trkpt>
<trkpt lat="39.998602" lon="-75.193371"><ele>13.4</ele><time>2026-09-15T13:00:21.000Z</time></trkpt>
<trkpt lat="39.998433" lon="-75.193483"><ele>13.4</ele><time>2026-09-15T13:00:29.000Z</time></trkpt>
<trkpt lat="39.998306" lon="-75.193508"><ele>13.4</ele><time>2026-09-15T13:00:34.000Z</time></trkpt>
<trkpt lat="39.998172" lon="-75.193567"><ele>13.2</ele><time>2026-09-15T13:00:40.000Z</time></trkpt>
<trkpt lat="39.998015" lon="-75.193646"><ele>13.0</ele><time>2026-09-15T13:00:46.000Z</time></trkpt>
<trkpt lat="39.997851" lon="-75.193746"><ele>12.8</ele><time>2026-09-15T13:00:53.000Z</time></trkpt>
<trkpt lat="39.997808" lon="-75.193779"><ele>13.0</ele><time>2026-09-15T13:00:55.000Z</time></trkpt>
<trkpt lat="39.997787" lon="-75.193795"><ele>13.0</ele><time>2026-09-15T13:00:56.000Z</time></trkpt>
<trkpt lat="39.997621" lon="-75.193908"><ele>13.2</ele><time>2026-09-15T13:01:03.000Z</time></trkpt>
<trkpt lat="39.997579" lon="-75.193936"><ele>13.2</ele><time>2026-09-15T13:01:05.000Z</time></trkpt>
<trkpt lat="39.997424" lon="-75.194057"><ele>13.8</ele><time>2026-09-15T13:01:12.000Z</time></trkpt>
<trkpt lat="39.997358" lon="-75.194103"><ele>14.0</ele><time>2026-09-15T13:01:15.000Z</time></trkpt>
<trkpt lat="39.997184" lon="-75.194241"><ele>14.2</ele><time>2026-09-15T13:01:23.000Z</time></trkpt>
<trkpt lat="39.997162" lon="-75.194258"><ele>14.2</ele><time>2026-09-15T13:01:24.000Z</time></trkpt>
<trkpt lat="39.997052" lon="-75.194347"><ele>14.4</ele><time>2026-09-15T13:01:29.000Z</time></trkpt>
<trkpt lat="39.997003" lon="-75.194418"><ele>14.4</ele><time>2026-09-15T13:01:32.000Z</time></trkpt>
<trkpt lat="39.996984" lon="-75.194440"><ele>14.4</ele><time>2026-09-15T13:01:33.000Z</time></trkpt>
<trkpt lat="39.996827" lon="-75.194589"><ele>15.0</ele><time>2026-09-15T13:01:42.000Z</time></trkpt>
<trkpt lat="39.996680" lon="-75.194692"><ele>15.2</ele><time>2026-09-15T13:01:49.000Z</time></trkpt>
<trkpt lat="39.996594" lon="-75.194766"><ele>15.4</ele><time>2026-09-15T13:01:53.000Z</time></trkpt>
<trkpt lat="39.996471" lon="-75.194865"><ele>15.8</ele><time>2026-09-15T13:01:59.000Z</time></trkpt>
<trkpt lat="39.996304" lon="-75.195009"><ele>16.2</ele><time>2026-09-15T13:02:07.000Z</time></trkpt>
<trkpt lat="39.996143" lon="-75.195144"><ele>16.4</ele><time>2026-09-15T13:02:15.000Z</time></trkpt>
<trkpt lat="39.996014" lon="-75.195241"><ele>16.2</ele><time>2026-09-15T13:02:22.000Z</time></trkpt>
<trkpt lat="39.995936" lon="-75.195290"><ele>16.0</ele><time>2026-09-15T13:02:26.000Z</time></trkpt>
<trkpt lat="39.995909" lon="-75.195303"><ele>16.0</ele><time>2026-09-15T13:02:27.000Z</time></trkpt>
<trkpt lat="39.995800" lon="-75.195381"><ele>15.8</ele><time>2026-09-15T13:02:33.000Z</time></trkpt>
<trkpt lat="39.995622" lon="-75.195477"><ele>15.8</ele><time>2026-09-15T13:02:40.000Z</time></trkpt>
<trkpt lat="39.995599" lon="-75.195488"><ele>15.8</ele><time>2026-09-15T13:02:41.000Z</time></trkpt>
<trkpt lat="39.995423" lon="-75.195595"><ele>15.8</ele><time>2026-09-15T13:02:47.000Z</time></trkpt>
<trkpt lat="39.995401" lon="-75.195613"><ele>15.8</ele><time>2026-09-15T13:02:48.000Z</time></trkpt>
<trkpt lat="39.995228" lon="-75.195731"><ele>15.8</ele><time>2026-09-15T13:02:56.000Z</time></trkpt>
<trkpt lat="39.995051" lon="-75.195864"><ele>15.8</ele><time>2026-09-15T13:03:04.000Z</time></trkpt>
<trkpt lat="39.995027" lon="-75.195879"><ele>15.8</ele><time>2026-09-15T13:03:05.000Z</time></trkpt>
<trkpt lat="39.995006" lon="-75.195900"><ele>15.8</ele><time>2026-09-15T13:03:06.000Z</time></trkpt>
<trkpt lat="39.994866" lon="-75.196050"><ele>15.6</ele><time>2026-09-15T13:03:13.000Z</time></trkpt>
<trkpt lat="39.994851" lon="-75.196072"><ele>15.4</ele><time>2026-09-15T13:03:14.000Z</time></trkpt>
<trkpt lat="39.994709" lon="-75.196229"><ele>15.4</ele><time>2026-09-15T13:03:21.000Z</time></trkpt>
<trkpt lat="39.994578" lon="-75.196358"><ele>15.0</ele><time>2026-09-15T13:03:27.000Z</time></trkpt>
<trkpt lat="39.994429" lon="-75.196509"><ele>14.6</ele><time>2026-09-15T13:03:34.000Z</time></trkpt>
<trkpt lat="39.994406" lon="-75.196531"><ele>14.6</ele><time>2026-09-15T13:03:35.000Z</time></trkpt>
<trkpt lat="39.994381" lon="-75.196551"><ele>14.4</ele><time>2026-09-15T13:03:36.000Z</time></trkpt>
<trkpt lat="39.994221" lon="-75.196693"><ele>14.0</ele><time>2026-09-15T13:03:43.000Z</time></trkpt>
<trkpt lat="39.994073" lon="-75.196834"><ele>14.0</ele><time>2026-09-15T13:03:50.000Z</time></trkpt>
<trkpt lat="39.994050" lon="-75.196851"><ele>14.0</ele><time>2026-09-15T13:03:51.000Z</time></trkpt>
<trkpt lat="39.993879" lon="-75.197001"><ele>14.0</ele><time>2026-09-15T13:03:59.000Z</time></trkpt>
<trkpt lat="39.993863" lon="-75.197022"><ele>14.0</ele><time>2026-09-15T13:04:00.000Z</time></trkpt>
<trkpt lat="39.993714" lon="-75.197189"><ele>14.0</ele><time>2026-09-15T13:04:08.000Z</time></trkpt>
<trkpt lat="39.993575" lon="-75.197349"><ele>13.8</ele><time>2026-09-15T13:04:15.000Z</time></trkpt>
<trkpt lat="39.993532" lon="-75.197386"><ele>13.8</ele><time>2026-09-15T13:04:17.000Z</time></trkpt>
<trkpt lat="39.993385" lon="-75.197562"><ele>13.4</ele><time>2026-09-15T13:04:25.000Z</time></trkpt>
<trkpt lat="39.993253" lon="-75.197738"><ele>13.4</ele><time>2026-09-15T13:04:33.000Z</time></trkpt>
<trkpt lat="39.993217" lon="-75.197776"><ele>13.4</ele><time>2026-09-15T13:04:35.000Z</time></trkpt>
<trkpt lat="39.993084" lon="-75.197940"><ele>13.2</ele><time>2026-09-15T13:04:42.000Z</time></trkpt>
<trkpt lat="39.992961" lon="-75.198077"><ele>13.2</ele><time>2026-09-15T13:04:49.000Z</time></trkpt>
<trkpt lat="39.992801" lon="-75.198240"><ele>13.0</ele><time>2026-09-15T13:04:57.000Z</time></trkpt>
<trkpt lat="39.992778" lon="-75.198257"><ele>13.0</ele><time>2026-09-15T13:04:58.000Z</time></trkpt>
<trkpt lat="39.992595" lon="-75.198375"><ele>12.8</ele><time>2026-09-15T13:05:06.000Z</time></trkpt>
<trkpt lat="39.992572" lon="-75.198382"><ele>12.8</ele><time>2026-09-15T13:05:07.000Z</time></trkpt>
<trkpt lat="39.992388" lon="-75.198489"><ele>12.6</ele><time>2026-09-15T13:05:15.000Z</time></trkpt>
<trkpt lat="39.992367" lon="-75.198506"><ele>12.6</ele><time>2026-09-15T13:05:16.000Z</time></trkpt>
<trkpt lat="39.992222" lon="-75.198689"><ele>12.6</ele><time>2026-09-15T13:05:24.000Z</time></trkpt>
<trkpt lat="39.992087" lon="-75.198855"><ele>12.6</ele><time>2026-09-15T13:05:31.000Z</time></trkpt>
<trkpt lat="39.991949" lon="-75.199014"><ele>12.4</ele><time>2026-09-15T13:05:38.000Z</time></trkpt>
<trkpt lat="39.991909" lon="-75.199058"><ele>12.4</ele><time>2026-09-15T13:05:40.000Z</time></trkpt>
<trkpt lat="39.991781" lon="-75.199263"><ele>12.6</ele><time>2026-09-15T13:05:48.000Z</time></trkpt>
<trkpt lat="39.991772" lon="-75.199291"><ele>12.6</ele><time>2026-09-15T13:05:49.000Z</time></trkpt>
<trkpt lat="39.991718" lon="-75.199523"><ele>12.8</ele><time>2026-09-15T13:05:56.000Z</time></trkpt>
<trkpt lat="39.991701" lon="-75.199588"><ele>12.8</ele><time>2026-09-15T13:05:58.000Z</time></trkpt>
<trkpt lat="39.991631" lon="-75.199837"><ele>12.6</ele><time>2026-09-15T13:06:06.000Z</time></trkpt>
<trkpt lat="39.991618" lon="-75.199865"><ele>12.6</ele><time>2026-09-15T13:06:07.000Z</time></trkpt>
<trkpt lat="39.991506" lon="-75.200037"><ele>12.6</ele><time>2026-09-15T13:06:14.000Z</time></trkpt>
<trkpt lat="39.991368" lon="-75.200228"><ele>12.4</ele><time>2026-09-15T13:06:22.000Z</time></trkpt>
<trkpt lat="39.991255" lon="-75.200357"><ele>12.4</ele><time>2026-09-15T13:06:28.000Z</time></trkpt>
<trkpt lat="39.991176" lon="-75.200483"><ele>12.0</ele><time>2026-09-15T13:06:33.000Z</time></trkpt>
<trkpt lat="39.991100" lon="-75.200580"><ele>11.8</ele><time>2026-09-15T13:06:37.000Z</time></trkpt>
<trkpt lat="39.991007" lon="-75.200710"><ele>11.8</ele><time>2026-09-15T13:06:42.000Z</time></trkpt>
<trkpt lat="39.990859" lon="-75.200841"><ele>11.8</ele><time>2026-09-15T13:06:49.000Z</time></trkpt>
<trkpt lat="39.990767" lon="-75.200997"><ele>12.0</ele><time>2026-09-15T13:06:55.000Z</time></trkpt>
<trkpt lat="39.990660" lon="-75.201202"><ele>12.0</ele><time>2026-09-15T13:07:03.000Z</time></trkpt>
<trkpt lat="39.990625" lon="-75.201248"><ele>12.2</ele><time>2026-09-15T13:07:05.000Z</time></trkpt>
<trkpt lat="39.990589" lon="-75.201293"><ele>12.0</ele><time>2026-09-15T13:07:07.000Z</time></trkpt>
<trkpt lat="39.990443" lon="-75.201463"><ele>12.0</ele><time>2026-09-15T13:07:15.000Z</time></trkpt>
<trkpt lat="39.990423" lon="-75.201484"><ele>12.0</ele><time>2026-09-15T13:07:16.000Z</time></trkpt>
<trkpt lat="39.990276" lon="-75.201646"><ele>11.8</ele><time>2026-09-15T13:07:24.000Z</time></trkpt>
<trkpt lat="39.990257" lon="-75.201663"><ele>11.8</ele><time>2026-09-15T13:07:25.000Z</time></trkpt>
<trkpt lat="39.990081" lon="-75.201791"><ele>11.8</ele><time>2026-09-15T13:07:33.000Z</time></trkpt>
<trkpt lat="39.989902" lon="-75.201899"><ele>11.4</ele><time>2026-09-15T13:07:40.000Z</time></trkpt>
<trkpt lat="39.989882" lon="-75.201921"><ele>11.2</ele><time>2026-09-15T13:07:41.000Z</time></trkpt>
<trkpt lat="39.989709" lon="-75.202060"><ele>11.0</ele><time>2026-09-15T13:07:49.000Z</time></trkpt>
<trkpt lat="39.989531" lon="-75.202175"><ele>10.8</ele><time>2026-09-15T13:07:56.000Z</time></trkpt>
<trkpt lat="39.989366" lon="-75.202301"><ele>10.6</ele><time>2026-09-15T13:08:03.000Z</time></trkpt>
<trkpt lat="39.989215" lon="-75.202434"><ele>10.8</ele><time>2026-09-15T13:08:10.000Z</time></trkpt>
<trkpt lat="39.989191" lon="-75.202455"><ele>10.8</ele><time>2026-09-15T13:08:11.000Z</time></trkpt>
<trkpt lat="39.989033" lon="-75.202583"><ele>11.2</ele><time>2026-09-15T13:08:18.000Z</time></trkpt>
<trkpt lat="39.988990" lon="-75.202614"><ele>11.2</ele><time>2026-09-15T13:08:20.000Z</time></trkpt>
<trkpt lat="39.988848" lon="-75.202740"><ele>10.8</ele><time>2026-09-15T13:08:27.000Z</time></trkpt>
<trkpt lat="39.988682" lon="-75.202901"><ele>10.6</ele><time>2026-09-15T13:08:35.000Z</time></trkpt>
<trkpt lat="39.988659" lon="-75.202923"><ele>10.6</ele><time>2026-09-15T13:08:36.000Z</time></trkpt>
<trkpt lat="39.988521" lon="-75.203114"><ele>10.6</ele><time>2026-09-15T13:08:44.000Z</time></trkpt>
<trkpt lat="39.988388" lon="-75.203305"><ele>10.6</ele><time>2026-09-15T13:08:52.000Z</time></trkpt>
<trkpt lat="39.988238" lon="-75.203464"><ele>10.8</ele><time>2026-09-15T13:09:00.000Z</time></trkpt>
<trkpt lat="39.988069" lon="-75.203603"><ele>11.0</ele><time>2026-09-15T13:09:08.000Z</time></trkpt>
<trkpt lat="39.988048" lon="-75.203619"><ele>11.0</ele><time>2026-09-15T13:09:09.000Z</time></trkpt>
<trkpt lat="39.987883" lon="-75.203753"><ele>11.0</ele><time>2026-09-15T13:09:17.000Z</time></trkpt>
<trkpt lat="39.987863" lon="-75.203767"><ele>11.0</ele><time>2026-09-15T13:09:18.000Z</time></trkpt>
<trkpt lat="39.987687" lon="-75.203901"><ele>11.2</ele><time>2026-09-15T13:09:26.000Z</time></trkpt>
<trkpt lat="39.987669" lon="-75.203921"><ele>11.0</ele><time>2026-09-15T13:09:27.000Z</time></trkpt>
<trkpt lat="39.987502" lon="-75.204059"><ele>11.0</ele><time>2026-09-15T13:09:35.000Z</time></trkpt>
<trkpt lat="39.987482" lon="-75.204077"><ele>10.8</ele><time>2026-09-15T13:09:36.000Z</time></trkpt>
<trkpt lat="39.987321" lon="-75.204188"><ele>10.8</ele><time>2026-09-15T13:09:43.000Z</time></trkpt>
<trkpt lat="39.987251" lon="-75.204243"><ele>10.8</ele><time>2026-09-15T13:09:46.000Z</time></trkpt>
<trkpt lat="39.987231" lon="-75.204261"><ele>10.8</ele><time>2026-09-15T13:09:47.000Z</time></trkpt>
<trkpt lat="39.987089" lon="-75.204338"><ele>11.0</ele><time>2026-09-15T13:09:53.000Z</time></trkpt>
<trkpt lat="39.986938" lon="-75.204402"><ele>11.0</ele><time>2026-09-15T13:09:59.000Z</time></trkpt>
<trkpt lat="39.986747" lon="-75.204458"><ele>11.0</ele><time>2026-09-15T13:10:06.000Z</time></trkpt>
<trkpt lat="39.986617" lon="-75.204540"><ele>10.4</ele><time>2026-09-15T13:10:13.000Z</time></trkpt>
<trkpt lat="39.986612" lon="-75.204565"><ele>10.2</ele><time>2026-09-15T13:10:14.000Z</time></trkpt>
<trkpt lat="39.986523" lon="-75.204632"><ele>9.8</ele><time>2026-09-15T13:10:17.000Z</time></trkpt>
<trkpt lat="39.986423" lon="-75.204746"><ele>10.0</ele><time>2026-09-15T13:10:22.000Z</time></trkpt>
<trkpt lat="39.986419" lon="-75.204765"><ele>10.0</ele><time>2026-09-15T13:10:23.000Z</time></trkpt>
<trkpt lat="39.986419" lon="-75.204773"><ele>10.2</ele><time>2026-09-15T13:10:24.000Z</time></trkpt>
<trkpt lat="39.986438" lon="-75.204803"><ele>11.0</ele><time>2026-09-15T13:10:28.000Z</time></trkpt>
<trkpt lat="39.986441" lon="-75.204806"><ele>11.2</ele><time>2026-09-15T13:10:29.000Z</time></trkpt>
<trkpt lat="39.986445" lon="-75.204811"><ele>12.0</ele><time>2026-09-15T13:10:34.000Z</time></trkpt>
<trkpt lat="39.986460" lon="-75.204812"><ele>12.0</ele><time>2026-09-15T13:10:38.000Z</time></trkpt>
<trkpt lat="39.986464" lon="-75.204809"><ele>11.8</ele><time>2026-09-15T13:10:40.000Z</time></trkpt>
<trkpt lat="39.986438" lon="-75.204804"><ele>10.2</ele><time>2026-09-15T13:10:44.000Z</time></trkpt>
<trkpt lat="39.986403" lon="-75.204821"><ele>10.2</ele><time>2026-09-15T13:10:46.000Z</time></trkpt>
<trkpt lat="39.986289" lon="-75.204942"><ele>10.4</ele><time>2026-09-15T13:10:52.000Z</time></trkpt>
<trkpt lat="39.986143" lon="-75.205084"><ele>10.4</ele><time>2026-09-15T13:10:59.000Z</time></trkpt>
<trkpt lat="39.986122" lon="-75.205104"><ele>10.4</ele><time>2026-09-15T13:11:00.000Z</time></trkpt>
<trkpt lat="39.985957" lon="-75.205221"><ele>11.0</ele><time>2026-09-15T13:11:08.000Z</time></trkpt>
<trkpt lat="39.985806" lon="-75.205296"><ele>11.0</ele><time>2026-09-15T13:11:15.000Z</time></trkpt>
<trkpt lat="39.985723" lon="-75.205342"><ele>11.4</ele><time>2026-09-15T13:11:19.000Z</time></trkpt>
<trkpt lat="39.985609" lon="-75.205457"><ele>11.2</ele><time>2026-09-15T13:11:25.000Z</time></trkpt>
<trkpt lat="39.985487" lon="-75.205508"><ele>11.0</ele><time>2026-09-15T13:11:30.000Z</time></trkpt>
<trkpt lat="39.985415" lon="-75.205530"><ele>11.2</ele><time>2026-09-15T13:11:33.000Z</time></trkpt>
<trkpt lat="39.985276" lon="-75.205566"><ele>11.4</ele><time>2026-09-15T13:11:39.000Z</time></trkpt>
<trkpt lat="39.985226" lon="-75.205562"><ele>11.4</ele><time>2026-09-15T13:11:41.000Z</time></trkpt>
<trkpt lat="39.985038" lon="-75.205595"><ele>11.6</ele><time>2026-09-15T13:11:49.000Z</time></trkpt>
<trkpt lat="39.984988" lon="-75.205607"><ele>11.6</ele><time>2026-09-15T13:11:51.000Z</time></trkpt>
<trkpt lat="39.984806" lon="-75.205660"><ele>11.6</ele><time>2026-09-15T13:11:59.000Z</time></trkpt>
<trkpt lat="39.984788" lon="-75.205676"><ele>11.6</ele><time>2026-09-15T13:12:00.000Z</time></trkpt>
<trkpt lat="39.984608" lon="-75.205735"><ele>12.0</ele><time>2026-09-15T13:12:07.000Z</time></trkpt>
<trkpt lat="39.984582" lon="-75.205737"><ele>12.2</ele><time>2026-09-15T13:12:08.000Z</time></trkpt>
<trkpt lat="39.984431" lon="-75.205675"><ele>12.2</ele><time>2026-09-15T13:12:14.000Z</time></trkpt>
<trkpt lat="39.984381" lon="-75.205692"><ele>12.2</ele><time>2026-09-15T13:12:17.000Z</time></trkpt>
<trkpt lat="39.984338" lon="-75.205680"><ele>12.4</ele><time>2026-09-15T13:12:19.000Z</time></trkpt>
<trkpt lat="39.984313" lon="-75.205680"><ele>12.6</ele><time>2026-09-15T13:12:20.000Z</time></trkpt>
<trkpt lat="39.984177" lon="-75.205681"><ele>12.6</ele><time>2026-09-15T13:12:26.000Z</time></trkpt>
<trkpt lat="39.983994" lon="-75.205651"><ele>12.4</ele><time>2026-09-15T13:12:33.000Z</time></trkpt>
<trkpt lat="39.983945" lon="-75.205652"><ele>12.4</ele><time>2026-09-15T13:12:35.000Z</time></trkpt>
<trkpt lat="39.983748" lon="-75.205700"><ele>12.4</ele><time>2026-09-15T13:12:43.000Z</time></trkpt>
<trkpt lat="39.983727" lon="-75.205711"><ele>12.4</ele><time>2026-09-15T13:12:44.000Z</time></trkpt>
<trkpt lat="39.983546" lon="-75.205798"><ele>12.6</ele><time>2026-09-15T13:12:52.000Z</time></trkpt>
<trkpt lat="39.983384" lon="-75.205959"><ele>13.0</ele><time>2026-09-15T13:13:00.000Z</time></trkpt>
<trkpt lat="39.983367" lon="-75.205985"><ele>13.0</ele><time>2026-09-15T13:13:01.000Z</time></trkpt>
<trkpt lat="39.983214" lon="-75.206079"><ele>13.4</ele><time>2026-09-15T13:13:09.000Z</time></trkpt>
<trkpt lat="39.983171" lon="-75.206084"><ele>13.4</ele><time>2026-09-15T13:13:11.000Z</time></trkpt>
<trkpt lat="39.983017" lon="-75.206092"><ele>13.4</ele><time>2026-09-15T13:13:18.000Z</time></trkpt>
<trkpt lat="39.982822" lon="-75.206058"><ele>13.6</ele><time>2026-09-15T13:13:26.000Z</time></trkpt>
<trkpt lat="39.982637" lon="-75.206019"><ele>13.4</ele><time>2026-09-15T13:13:33.000Z</time></trkpt>
<trkpt lat="39.982542" lon="-75.206006"><ele>13.6</ele><time>2026-09-15T13:13:37.000Z</time></trkpt>
<trkpt lat="39.982396" lon="-75.205957"><ele>13.6</ele><time>2026-09-15T13:13:43.000Z</time></trkpt>
<trkpt lat="39.982209" lon="-75.205923"><ele>13.4</ele><time>2026-09-15T13:13:51.000Z</time></trkpt>
<trkpt lat="39.982185" lon="-75.205914"><ele>13.4</ele><time>2026-09-15T13:13:52.000Z</time></trkpt>
<trkpt lat="39.982023" lon="-75.205834"><ele>13.4</ele><time>2026-09-15T13:13:59.000Z</time></trkpt>
<trkpt lat="39.981843" lon="-75.205775"><ele>12.8</ele><time>2026-09-15T13:14:06.000Z</time></trkpt>
<trkpt lat="39.981818" lon="-75.205765"><ele>12.8</ele><time>2026-09-15T13:14:07.000Z</time></trkpt>
<trkpt lat="39.981657" lon="-75.205641"><ele>12.8</ele><time>2026-09-15T13:14:13.000Z</time></trkpt>
<trkpt lat="39.981629" lon="-75.205623"><ele>12.8</ele><time>2026-09-15T13:14:14.000Z</time></trkpt>
<trkpt lat="39.981443" lon="-75.205505"><ele>12.8</ele><time>2026-09-15T13:14:22.000Z</time></trkpt>
<trkpt lat="39.981273" lon="-75.205381"><ele>12.6</ele><time>2026-09-15T13:14:31.000Z</time></trkpt>
<trkpt lat="39.981133" lon="-75.205238"><ele>12.8</ele><time>2026-09-15T13:14:39.000Z</time></trkpt>
<trkpt lat="39.980995" lon="-75.205065"><ele>12.6</ele><time>2026-09-15T13:14:47.000Z</time></trkpt>
<trkpt lat="39.980979" lon="-75.205042"><ele>12.6</ele><time>2026-09-15T13:14:48.000Z</time></trkpt>
<trkpt lat="39.980901" lon="-75.204942"><ele>12.6</ele><time>2026-09-15T13:14:52.000Z</time></trkpt>
<trkpt lat="39.980814" lon="-75.204801"><ele>12.8</ele><time>2026-09-15T13:14:57.000Z</time></trkpt>
<trkpt lat="39.980686" lon="-75.204615"><ele>12.8</ele><time>2026-09-15T13:15:05.000Z</time></trkpt>
<trkpt lat="39.980673" lon="-75.204590"><ele>12.8</ele><time>2026-09-15T13:15:06.000Z</time></trkpt>
<trkpt lat="39.980557" lon="-75.204400"><ele>12.8</ele><time>2026-09-15T13:15:14.000Z</time></trkpt>
<trkpt lat="39.980531" lon="-75.204343"><ele>12.8</ele><time>2026-09-15T13:15:16.000Z</time></trkpt>
<trkpt lat="39.980470" lon="-75.204149"><ele>13.2</ele><time>2026-09-15T13:15:23.000Z</time></trkpt>
<trkpt lat="39.980375" lon="-75.203951"><ele>13.4</ele><time>2026-09-15T13:15:30.000Z</time></trkpt>
<trkpt lat="39.980267" lon="-75.203739"><ele>13.4</ele><time>2026-09-15T13:15:38.000Z</time></trkpt>
<trkpt lat="39.980242" lon="-75.203684"><ele>13.4</ele><time>2026-09-15T13:15:40.000Z</time></trkpt>
<trkpt lat="39.980144" lon="-75.203513"><ele>13.4</ele><time>2026-09-15T13:15:47.000Z</time></trkpt>
<trkpt lat="39.980017" lon="-75.203309"><ele>13.2</ele><time>2026-09-15T13:15:55.000Z</time></trkpt>
<trkpt lat="39.979902" lon="-75.203112"><ele>13.0</ele><time>2026-09-15T13:16:02.000Z</time></trkpt>
<trkpt lat="39.979876" lon="-75.203056"><ele>12.8</ele><time>2026-09-15T13:16:04.000Z</time></trkpt>
<trkpt lat="39.979756" lon="-75.202841"><ele>12.6</ele><time>2026-09-15T13:16:13.000Z</time></trkpt>
<trkpt lat="39.979637" lon="-75.202643"><ele>12.6</ele><time>2026-09-15T13:16:21.000Z</time></trkpt>
<trkpt lat="39.979617" lon="-75.202614"><ele>12.6</ele><time>2026-09-15T13:16:22.000Z</time></trkpt>
<trkpt lat="39.979486" lon="-75.202424"><ele>12.6</ele><time>2026-09-15T13:16:29.000Z</time></trkpt>
<trkpt lat="39.979459" lon="-75.202376"><ele>12.6</ele><time>2026-09-15T13:16:31.000Z</time></trkpt>
<trkpt lat="39.979352" lon="-75.202191"><ele>12.6</ele><time>2026-09-15T13:16:38.000Z</time></trkpt>
<trkpt lat="39.979224" lon="-75.202016"><ele>12.6</ele><time>2026-09-15T13:16:45.000Z</time></trkpt>
<trkpt lat="39.979200" lon="-75.201965"><ele>12.6</ele><time>2026-09-15T13:16:47.000Z</time></trkpt>
<trkpt lat="39.979066" lon="-75.201772"><ele>12.6</ele><time>2026-09-15T13:16:55.000Z</time></trkpt>
<trkpt lat="39.979040" lon="-75.201723"><ele>12.6</ele><time>2026-09-15T13:16:57.000Z</time></trkpt>
<trkpt lat="39.978914" lon="-75.201519"><ele>12.4</ele><time>2026-09-15T13:17:05.000Z</time></trkpt>
<trkpt lat="39.978882" lon="-75.201460"><ele>12.6</ele><time>2026-09-15T13:17:07.000Z</time></trkpt>
<trkpt lat="39.978751" lon="-75.201260"><ele>12.4</ele><time>2026-09-15T13:17:15.000Z</time></trkpt>
<trkpt lat="39.978728" lon="-75.201237"><ele>12.2</ele><time>2026-09-15T13:17:16.000Z</time></trkpt>
<trkpt lat="39.978576" lon="-75.201076"><ele>12.2</ele><time>2026-09-15T13:17:23.000Z</time></trkpt>
<trkpt lat="39.978473" lon="-75.200966"><ele>12.4</ele><time>2026-09-15T13:17:28.000Z</time></trkpt>
<trkpt lat="39.978319" lon="-75.200796"><ele>12.4</ele><time>2026-09-15T13:17:36.000Z</time></trkpt>
<trkpt lat="39.978287" lon="-75.200757"><ele>12.4</ele><time>2026-09-15T13:17:38.000Z</time></trkpt>
<trkpt lat="39.978157" lon="-75.200586"><ele>12.2</ele><time>2026-09-15T13:17:44.000Z</time></trkpt>
<trkpt lat="39.978046" lon="-75.200403"><ele>12.4</ele><time>2026-09-15T13:17:51.000Z</time></trkpt>
<trkpt lat="39.978032" lon="-75.200374"><ele>12.4</ele><time>2026-09-15T13:17:52.000Z</time></trkpt>
<trkpt lat="39.977929" lon="-75.200172"><ele>12.2</ele><time>2026-09-15T13:17:59.000Z</time></trkpt>
<trkpt lat="39.977918" lon="-75.200149"><ele>12.2</ele><time>2026-09-15T13:18:00.000Z</time></trkpt>
<trkpt lat="39.977823" lon="-75.199945"><ele>12.0</ele><time>2026-09-15T13:18:08.000Z</time></trkpt>
<trkpt lat="39.977803" lon="-75.199887"><ele>12.2</ele><time>2026-09-15T13:18:10.000Z</time></trkpt>
<trkpt lat="39.977728" lon="-75.199665"><ele>12.6</ele><time>2026-09-15T13:18:18.000Z</time></trkpt>
<trkpt lat="39.977709" lon="-75.199577"><ele>13.2</ele><time>2026-09-15T13:18:21.000Z</time></trkpt>
<trkpt lat="39.977703" lon="-75.199543"><ele>13.4</ele><time>2026-09-15T13:18:22.000Z</time></trkpt>
<trkpt lat="39.977639" lon="-75.199315"><ele>13.6</ele><time>2026-09-15T13:18:30.000Z</time></trkpt>
<trkpt lat="39.977635" lon="-75.199286"><ele>13.4</ele><time>2026-09-15T13:18:31.000Z</time></trkpt>
<trkpt lat="39.977570" lon="-75.199043"><ele>13.2</ele><time>2026-09-15T13:18:39.000Z</time></trkpt>
<trkpt lat="39.977550" lon="-75.198983"><ele>13.2</ele><time>2026-09-15T13:18:41.000Z</time></trkpt>
<trkpt lat="39.977484" lon="-75.198746"><ele>13.4</ele><time>2026-09-15T13:18:49.000Z</time></trkpt>
<trkpt lat="39.977428" lon="-75.198508"><ele>13.4</ele><time>2026-09-15T13:18:57.000Z</time></trkpt>
<trkpt lat="39.977379" lon="-75.198296"><ele>13.2</ele><time>2026-09-15T13:19:04.000Z</time></trkpt>
<trkpt lat="39.977331" lon="-75.198063"><ele>13.4</ele><time>2026-09-15T13:19:11.000Z</time></trkpt>
<trkpt lat="39.977316" lon="-75.198002"><ele>13.6</ele><time>2026-09-15T13:19:13.000Z</time></trkpt>
<trkpt lat="39.977282" lon="-75.197775"><ele>13.6</ele><time>2026-09-15T13:19:20.000Z</time></trkpt>
<trkpt lat="39.977233" lon="-75.197607"><ele>13.6</ele><time>2026-09-15T13:19:27.000Z</time></trkpt>
<trkpt lat="39.977213" lon="-75.197535"><ele>13.4</ele><time>2026-09-15T13:19:31.000Z</time></trkpt>
<trkpt lat="39.977207" lon="-75.197469"><ele>13.4</ele><time>2026-09-15T13:19:35.000Z</time></trkpt>
<trkpt lat="39.977151" lon="-75.197246"><ele>13.8</ele><time>2026-09-15T13:19:47.000Z</time></trkpt>
<trkpt lat="39.977147" lon="-75.197225"><ele>13.8</ele><time>2026-09-15T13:19:48.000Z</time></trkpt>
<trkpt lat="39.977141" lon="-75.197185"><ele>13.8</ele><time>2026-09-15T13:19:50.000Z</time></trkpt>
<trkpt lat="39.977096" lon="-75.196997"><ele>14.0</ele><time>2026-09-15T13:19:58.000Z</time></trkpt>
<trkpt lat="39.977042" lon="-75.196757"><ele>14.2</ele><time>2026-09-15T13:20:06.000Z</time></trkpt>
<trkpt lat="39.977038" lon="-75.196730"><ele>14.2</ele><time>2026-09-15T13:20:07.000Z</time></trkpt>
<trkpt lat="39.977025" lon="-75.196671"><ele>14.4</ele><time>2026-09-15T13:20:09.000Z</time></trkpt>
<trkpt lat="39.976970" lon="-75.196444"><ele>14.6</ele><time>2026-09-15T13:20:17.000Z</time></trkpt>
<trkpt lat="39.976961" lon="-75.196416"><ele>14.6</ele><time>2026-09-15T13:20:18.000Z</time></trkpt>
<trkpt lat="39.976958" lon="-75.196387"><ele>14.6</ele><time>2026-09-15T13:20:19.000Z</time></trkpt>
<trkpt lat="39.976922" lon="-75.196238"><ele>14.6</ele><time>2026-09-15T13:20:24.000Z</time></trkpt>
<trkpt lat="39.976839" lon="-75.196000"><ele>14.4</ele><time>2026-09-15T13:20:32.000Z</time></trkpt>
<trkpt lat="39.976754" lon="-75.195779"><ele>14.6</ele><time>2026-09-15T13:20:40.000Z</time></trkpt>
<trkpt lat="39.976706" lon="-75.195664"><ele>14.4</ele><time>2026-09-15T13:20:44.000Z</time></trkpt>
<trkpt lat="39.976607" lon="-75.195441"><ele>14.6</ele><time>2026-09-15T13:20:52.000Z</time></trkpt>
<trkpt lat="39.976566" lon="-75.195357"><ele>14.6</ele><time>2026-09-15T13:20:55.000Z</time></trkpt>
<trkpt lat="39.976450" lon="-75.195162"><ele>14.8</ele><time>2026-09-15T13:21:03.000Z</time></trkpt>
<trkpt lat="39.976321" lon="-75.194990"><ele>14.8</ele><time>2026-09-15T13:21:10.000Z</time></trkpt>
<trkpt lat="39.976216" lon="-75.194854"><ele>14.6</ele><time>2026-09-15T13:21:16.000Z</time></trkpt>
<trkpt lat="39.976185" lon="-75.194810"><ele>14.6</ele><time>2026-09-15T13:21:18.000Z</time></trkpt>
<trkpt lat="39.976096" lon="-75.194690"><ele>14.4</ele><time>2026-09-15T13:21:24.000Z</time></trkpt>
<trkpt lat="39.975998" lon="-75.194569"><ele>14.2</ele><time>2026-09-15T13:21:30.000Z</time></trkpt>
<trkpt lat="39.975713" lon="-75.194308"><ele>13.6</ele><time>2026-09-15T13:21:41.000Z</time></trkpt>
<trkpt lat="39.975620" lon="-75.194233"><ele>13.4</ele><time>2026-09-15T13:21:45.000Z</time></trkpt>
<trkpt lat="39.975458" lon="-75.194151"><ele>13.4</ele><time>2026-09-15T13:21:52.000Z</time></trkpt>
<trkpt lat="39.975438" lon="-75.194129"><ele>13.4</ele><time>2026-09-15T13:21:53.000Z</time></trkpt>
<trkpt lat="39.975417" lon="-75.194054"><ele>12.8</ele><time>2026-09-15T13:21:57.000Z</time></trkpt>
<trkpt lat="39.975395" lon="-75.194036"><ele>12.6</ele><time>2026-09-15T13:22:00.000Z</time></trkpt>
<trkpt lat="39.975319" lon="-75.193990"><ele>12.6</ele><time>2026-09-15T13:22:03.000Z</time></trkpt>
<trkpt lat="39.975189" lon="-75.193920"><ele>12.8</ele><time>2026-09-15T13:22:08.000Z</time></trkpt>
<trkpt lat="39.975093" lon="-75.193902"><ele>13.0</ele><time>2026-09-15T13:22:13.000Z</time></trkpt>
<trkpt lat="39.974907" lon="-75.193833"><ele>13.0</ele><time>2026-09-15T13:22:21.000Z</time></trkpt>
<trkpt lat="39.974701" lon="-75.193821"><ele>12.8</ele><time>2026-09-15T13:22:26.000Z</time></trkpt>
<trkpt lat="39.974599" lon="-75.193788"><ele>12.8</ele><time>2026-09-15T13:22:30.000Z</time></trkpt>
<trkpt lat="39.974411" lon="-75.193742"><ele>13.0</ele><time>2026-09-15T13:22:37.000Z</time></trkpt>
<trkpt lat="39.974361" lon="-75.193717"><ele>13.0</ele><time>2026-09-15T13:22:39.000Z</time></trkpt>
<trkpt lat="39.974192" lon="-75.193629"><ele>13.0</ele><time>2026-09-15T13:22:46.000Z</time></trkpt>
<trkpt lat="39.974142" lon="-75.193610"><ele>13.0</ele><time>2026-09-15T13:22:48.000Z</time></trkpt>
<trkpt lat="39.973953" lon="-75.193538"><ele>13.4</ele><time>2026-09-15T13:22:56.000Z</time></trkpt>
<trkpt lat="39.973911" lon="-75.193520"><ele>13.6</ele><time>2026-09-15T13:22:58.000Z</time></trkpt>
<trkpt lat="39.973725" lon="-75.193448"><ele>13.6</ele><time>2026-09-15T13:23:06.000Z</time></trkpt>
<trkpt lat="39.973701" lon="-75.193439"><ele>13.6</ele><time>2026-09-15T13:23:07.000Z</time></trkpt>
<trkpt lat="39.973530" lon="-75.193363"><ele>13.8</ele><time>2026-09-15T13:23:14.000Z</time></trkpt>
<trkpt lat="39.973505" lon="-75.193352"><ele>13.8</ele><time>2026-09-15T13:23:15.000Z</time></trkpt>
<trkpt lat="39.973331" lon="-75.193326"><ele>13.8</ele><time>2026-09-15T13:23:22.000Z</time></trkpt>
<trkpt lat="39.973136" lon="-75.193274"><ele>13.4</ele><time>2026-09-15T13:23:30.000Z</time></trkpt>
<trkpt lat="39.972941" lon="-75.193223"><ele>13.0</ele><time>2026-09-15T13:23:38.000Z</time></trkpt>
<trkpt lat="39.972916" lon="-75.193216"><ele>13.2</ele><time>2026-09-15T13:23:39.000Z</time></trkpt>
<trkpt lat="39.972890" lon="-75.193206"><ele>13.2</ele><time>2026-09-15T13:23:40.000Z</time></trkpt>
<trkpt lat="39.972732" lon="-75.193146"><ele>13.0</ele><time>2026-09-15T13:23:47.000Z</time></trkpt>
<trkpt lat="39.972539" lon="-75.193082"><ele>12.6</ele><time>2026-09-15T13:23:55.000Z</time></trkpt>
<trkpt lat="39.972512" lon="-75.193076"><ele>12.6</ele><time>2026-09-15T13:23:56.000Z</time></trkpt>
<trkpt lat="39.972314" lon="-75.193036"><ele>12.4</ele><time>2026-09-15T13:24:04.000Z</time></trkpt>
<trkpt lat="39.972292" lon="-75.193028"><ele>12.4</ele><time>2026-09-15T13:24:05.000Z</time></trkpt>
<trkpt lat="39.972270" lon="-75.193021"><ele>12.2</ele><time>2026-09-15T13:24:06.000Z</time></trkpt>
<trkpt lat="39.972071" lon="-75.192974"><ele>12.0</ele><time>2026-09-15T13:24:14.000Z</time></trkpt>
<trkpt lat="39.971874" lon="-75.192922"><ele>11.8</ele><time>2026-09-15T13:24:22.000Z</time></trkpt>
<trkpt lat="39.971851" lon="-75.192917"><ele>11.8</ele><time>2026-09-15T13:24:23.000Z</time></trkpt>
<trkpt lat="39.971660" lon="-75.192868"><ele>11.6</ele><time>2026-09-15T13:24:31.000Z</time></trkpt>
<trkpt lat="39.971636" lon="-75.192862"><ele>11.6</ele><time>2026-09-15T13:24:32.000Z</time></trkpt>
<trkpt lat="39.971455" lon="-75.192798"><ele>11.2</ele><time>2026-09-15T13:24:39.000Z</time></trkpt>
<trkpt lat="39.971428" lon="-75.192791"><ele>11.2</ele><time>2026-09-15T13:24:40.000Z</time></trkpt>
<trkpt lat="39.971403" lon="-75.192783"><ele>11.2</ele><time>2026-09-15T13:24:41.000Z</time></trkpt>
<trkpt lat="39.971352" lon="-75.192768"><ele>11.2</ele><time>2026-09-15T13:24:43.000Z</time></trkpt>
<trkpt lat="39.971178" lon="-75.192705"><ele>11.2</ele><time>2026-09-15T13:24:50.000Z</time></trkpt>
<trkpt lat="39.971152" lon="-75.192693"><ele>11.2</ele><time>2026-09-15T13:24:51.000Z</time></trkpt>
<trkpt lat="39.970966" lon="-75.192636"><ele>11.0</ele><time>2026-09-15T13:24:58.000Z</time></trkpt>
<trkpt lat="39.970864" lon="-75.192592"><ele>11.0</ele><time>2026-09-15T13:25:02.000Z</time></trkpt>
<trkpt lat="39.970677" lon="-75.192520"><ele>11.0</ele><time>2026-09-15T13:25:10.000Z</time></trkpt>
<trkpt lat="39.970606" lon="-75.192486"><ele>10.8</ele><time>2026-09-15T13:25:13.000Z</time></trkpt>
<trkpt lat="39.970428" lon="-75.192385"><ele>11.0</ele><time>2026-09-15T13:25:21.000Z</time></trkpt>
<trkpt lat="39.970360" lon="-75.192346"><ele>11.0</ele><time>2026-09-15T13:25:24.000Z</time></trkpt>
<trkpt lat="39.970187" lon="-75.192260"><ele>11.2</ele><time>2026-09-15T13:25:32.000Z</time></trkpt>
<trkpt lat="39.970143" lon="-75.192233"><ele>11.2</ele><time>2026-09-15T13:25:34.000Z</time></trkpt>
<trkpt lat="39.969973" lon="-75.192117"><ele>11.4</ele><time>2026-09-15T13:25:41.000Z</time></trkpt>
<trkpt lat="39.969929" lon="-75.192081"><ele>11.4</ele><time>2026-09-15T13:25:43.000Z</time></trkpt>
<trkpt lat="39.969775" lon="-75.191953"><ele>11.4</ele><time>2026-09-15T13:25:50.000Z</time></trkpt>
<trkpt lat="39.969730" lon="-75.191921"><ele>11.4</ele><time>2026-09-15T13:25:52.000Z</time></trkpt>
<trkpt lat="39.969563" lon="-75.191787"><ele>11.6</ele><time>2026-09-15T13:26:00.000Z</time></trkpt>
<trkpt lat="39.969458" lon="-75.191687"><ele>11.6</ele><time>2026-09-15T13:26:05.000Z</time></trkpt>
<trkpt lat="39.969310" lon="-75.191516"><ele>11.6</ele><time>2026-09-15T13:26:13.000Z</time></trkpt>
<trkpt lat="39.969155" lon="-75.191352"><ele>11.4</ele><time>2026-09-15T13:26:21.000Z</time></trkpt>
<trkpt lat="39.969137" lon="-75.191331"><ele>11.4</ele><time>2026-09-15T13:26:22.000Z</time></trkpt>
<trkpt lat="39.968988" lon="-75.191171"><ele>11.6</ele><time>2026-09-15T13:26:30.000Z</time></trkpt>
<trkpt lat="39.968955" lon="-75.191125"><ele>11.6</ele><time>2026-09-15T13:26:32.000Z</time></trkpt>
<trkpt lat="39.968865" lon="-75.191008"><ele>11.6</ele><time>2026-09-15T13:26:37.000Z</time></trkpt>
<trkpt lat="39.968754" lon="-75.190869"><ele>11.8</ele><time>2026-09-15T13:26:43.000Z</time></trkpt>
<trkpt lat="39.968664" lon="-75.190751"><ele>12.0</ele><time>2026-09-15T13:26:48.000Z</time></trkpt>
<trkpt lat="39.968503" lon="-75.190585"><ele>11.6</ele><time>2026-09-15T13:26:56.000Z</time></trkpt>
<trkpt lat="39.968470" lon="-75.190537"><ele>11.6</ele><time>2026-09-15T13:26:58.000Z</time></trkpt>
<trkpt lat="39.968345" lon="-75.190330"><ele>11.6</ele><time>2026-09-15T13:27:06.000Z</time></trkpt>
<trkpt lat="39.968318" lon="-75.190272"><ele>11.6</ele><time>2026-09-15T13:27:08.000Z</time></trkpt>
<trkpt lat="39.968206" lon="-75.190069"><ele>11.8</ele><time>2026-09-15T13:27:16.000Z</time></trkpt>
<trkpt lat="39.968176" lon="-75.190012"><ele>11.8</ele><time>2026-09-15T13:27:18.000Z</time></trkpt>
<trkpt lat="39.968077" lon="-75.189785"><ele>12.2</ele><time>2026-09-15T13:27:26.000Z</time></trkpt>
<trkpt lat="39.967990" lon="-75.189572"><ele>12.2</ele><time>2026-09-15T13:27:34.000Z</time></trkpt>
<trkpt lat="39.967978" lon="-75.189542"><ele>12.2</ele><time>2026-09-15T13:27:35.000Z</time></trkpt>
<trkpt lat="39.967946" lon="-75.189457"><ele>12.2</ele><time>2026-09-15T13:27:38.000Z</time></trkpt>
<trkpt lat="39.967865" lon="-75.189223"><ele>12.4</ele><time>2026-09-15T13:27:46.000Z</time></trkpt>
<trkpt lat="39.967775" lon="-75.189017"><ele>12.2</ele><time>2026-09-15T13:27:53.000Z</time></trkpt>
<trkpt lat="39.967747" lon="-75.188961"><ele>12.0</ele><time>2026-09-15T13:27:55.000Z</time></trkpt>
<trkpt lat="39.967658" lon="-75.188761"><ele>12.2</ele><time>2026-09-15T13:28:02.000Z</time></trkpt>
<trkpt lat="39.967576" lon="-75.188540"><ele>12.2</ele><time>2026-09-15T13:28:10.000Z</time></trkpt>
<trkpt lat="39.967513" lon="-75.188451"><ele>12.2</ele><time>2026-09-15T13:28:14.000Z</time></trkpt>
<trkpt lat="39.967464" lon="-75.188340"><ele>12.2</ele><time>2026-09-15T13:28:18.000Z</time></trkpt>
<trkpt lat="39.967359" lon="-75.188126"><ele>12.4</ele><time>2026-09-15T13:28:26.000Z</time></trkpt>
<trkpt lat="39.967333" lon="-75.188073"><ele>12.2</ele><time>2026-09-15T13:28:28.000Z</time></trkpt>
<trkpt lat="39.967221" lon="-75.187866"><ele>12.0</ele><time>2026-09-15T13:28:36.000Z</time></trkpt>
<trkpt lat="39.967179" lon="-75.187788"><ele>12.2</ele><time>2026-09-15T13:28:39.000Z</time></trkpt>
<trkpt lat="39.967056" lon="-75.187581"><ele>12.4</ele><time>2026-09-15T13:28:47.000Z</time></trkpt>
<trkpt lat="39.966991" lon="-75.187481"><ele>12.2</ele><time>2026-09-15T13:28:51.000Z</time></trkpt>
<trkpt lat="39.966865" lon="-75.187281"><ele>12.2</ele><time>2026-09-15T13:28:59.000Z</time></trkpt>
<trkpt lat="39.966824" lon="-75.187213"><ele>12.2</ele><time>2026-09-15T13:29:02.000Z</time></trkpt>
<trkpt lat="39.966810" lon="-75.187190"><ele>12.2</ele><time>2026-09-15T13:29:03.000Z</time></trkpt>
<trkpt lat="39.966675" lon="-75.186997"><ele>12.4</ele><time>2026-09-15T13:29:11.000Z</time></trkpt>
<trkpt lat="39.966626" lon="-75.186927"><ele>12.6</ele><time>2026-09-15T13:29:14.000Z</time></trkpt>
<trkpt lat="39.966489" lon="-75.186754"><ele>12.6</ele><time>2026-09-15T13:29:22.000Z</time></trkpt>
<trkpt lat="39.966437" lon="-75.186685"><ele>12.6</ele><time>2026-09-15T13:29:25.000Z</time></trkpt>
<trkpt lat="39.966300" lon="-75.186514"><ele>12.6</ele><time>2026-09-15T13:29:33.000Z</time></trkpt>
<trkpt lat="39.966229" lon="-75.186429"><ele>12.6</ele><time>2026-09-15T13:29:37.000Z</time></trkpt>
<trkpt lat="39.966095" lon="-75.186241"><ele>12.8</ele><time>2026-09-15T13:29:45.000Z</time></trkpt>
<trkpt lat="39.965953" lon="-75.186055"><ele>13.2</ele><time>2026-09-15T13:29:53.000Z</time></trkpt>
<trkpt lat="39.965903" lon="-75.185988"><ele>13.2</ele><time>2026-09-15T13:29:56.000Z</time></trkpt>
<trkpt lat="39.965816" lon="-75.185875"><ele>13.4</ele><time>2026-09-15T13:30:01.000Z</time></trkpt>
<trkpt lat="39.965699" lon="-75.185717"><ele>13.4</ele><time>2026-09-15T13:30:08.000Z</time></trkpt>
<trkpt lat="39.965565" lon="-75.185548"><ele>13.6</ele><time>2026-09-15T13:30:16.000Z</time></trkpt>
<trkpt lat="39.965534" lon="-75.185510"><ele>13.4</ele><time>2026-09-15T13:30:18.000Z</time></trkpt>
<trkpt lat="39.965405" lon="-75.185362"><ele>13.0</ele><time>2026-09-15T13:30:26.000Z</time></trkpt>
<trkpt lat="39.965353" lon="-75.185294"><ele>13.0</ele><time>2026-09-15T13:30:29.000Z</time></trkpt>
<trkpt lat="39.965222" lon="-75.185130"><ele>13.0</ele><time>2026-09-15T13:30:37.000Z</time></trkpt>
<trkpt lat="39.965129" lon="-75.185027"><ele>13.0</ele><time>2026-09-15T13:30:42.000Z</time></trkpt>
<trkpt lat="39.964980" lon="-75.184870"><ele>13.4</ele><time>2026-09-15T13:30:50.000Z</time></trkpt>
<trkpt lat="39.964929" lon="-75.184807"><ele>13.6</ele><time>2026-09-15T13:30:53.000Z</time></trkpt>
<trkpt lat="39.964819" lon="-75.184610"><ele>13.8</ele><time>2026-09-15T13:31:01.000Z</time></trkpt>
<trkpt lat="39.964795" lon="-75.184558"><ele>14.0</ele><time>2026-09-15T13:31:03.000Z</time></trkpt>
<trkpt lat="39.964785" lon="-75.184533"><ele>14.0</ele><time>2026-09-15T13:31:04.000Z</time></trkpt>
<trkpt lat="39.964710" lon="-75.184307"><ele>14.0</ele><time>2026-09-15T13:31:12.000Z</time></trkpt>
<trkpt lat="39.964693" lon="-75.184249"><ele>14.0</ele><time>2026-09-15T13:31:14.000Z</time></trkpt>
<trkpt lat="39.964636" lon="-75.184047"><ele>14.4</ele><time>2026-09-15T13:31:21.000Z</time></trkpt>
<trkpt lat="39.964620" lon="-75.183990"><ele>14.4</ele><time>2026-09-15T13:31:23.000Z</time></trkpt>
<trkpt lat="39.964559" lon="-75.183760"><ele>14.6</ele><time>2026-09-15T13:31:31.000Z</time></trkpt>
<trkpt lat="39.964493" lon="-75.183531"><ele>14.4</ele><time>2026-09-15T13:31:39.000Z</time></trkpt>
<trkpt lat="39.964477" lon="-75.183470"><ele>14.2</ele><time>2026-09-15T13:31:41.000Z</time></trkpt>
<trkpt lat="39.964438" lon="-75.183265"><ele>14.6</ele><time>2026-09-15T13:31:49.000Z</time></trkpt>
<trkpt lat="39.964424" lon="-75.183261"><ele>14.6</ele><time>2026-09-15T13:31:50.000Z</time></trkpt>
<trkpt lat="39.964386" lon="-75.183283"><ele>14.6</ele><time>2026-09-15T13:31:52.000Z</time></trkpt>
<trkpt lat="39.964342" lon="-75.183281"><ele>14.6</ele><time>2026-09-15T13:31:55.000Z</time></trkpt>
<trkpt lat="39.964331" lon="-75.183248"><ele>14.6</ele><time>2026-09-15T13:31:57.000Z</time></trkpt>
<trkpt lat="39.964310" lon="-75.183061"><ele>14.8</ele><time>2026-09-15T13:32:03.000Z</time></trkpt>
<trkpt lat="39.964262" lon="-75.182833"><ele>14.6</ele><time>2026-09-15T13:32:09.000Z</time></trkpt>
<trkpt lat="39.964251" lon="-75.182668"><ele>14.6</ele><time>2026-09-15T13:32:12.000Z</time></trkpt>
<trkpt lat="39.964195" lon="-75.182428"><ele>14.6</ele><time>2026-09-15T13:32:18.000Z</time></trkpt>
<trkpt lat="39.964155" lon="-75.182285"><ele>14.6</ele><time>2026-09-15T13:32:22.000Z</time></trkpt>
<trkpt lat="39.964100" lon="-75.182044"><ele>14.8</ele><time>2026-09-15T13:32:30.000Z</time></trkpt>
<trkpt lat="39.964093" lon="-75.182014"><ele>14.8</ele><time>2026-09-15T13:32:31.000Z</time></trkpt>
</trkseg></trk>
</gpx>
