<?xml version="1.0" encoding="UTF-8"?>
<gpx version="1.1" creator="Just the Route" xmlns="http://www.topografix.com/GPX/1/1">
<trk><name>schuylkill-banks.gpx</name><trkseg>
<trkpt lat="39.952898" lon="-75.179723"><ele>4.8</ele><time>2026-09-17T16:25:58.000Z</time></trkpt>
<trkpt lat="39.952907" lon="-75.179739"><ele>4.8</ele><time>2026-09-17T16:25:59.000Z</time></trkpt>
<trkpt lat="39.952911" lon="-75.179770"><ele>5.2</ele><time>2026-09-17T16:26:01.000Z</time></trkpt>
<trkpt lat="39.952909" lon="-75.179778"><ele>5.6</ele><time>2026-09-17T16:26:04.000Z</time></trkpt>
<trkpt lat="39.952908" lon="-75.179778"><ele>5.8</ele><time>2026-09-17T16:26:06.000Z</time></trkpt>
<trkpt lat="39.952900" lon="-75.179890"><ele>6.2</ele><time>2026-09-17T16:26:12.000Z</time></trkpt>
<trkpt lat="39.952922" lon="-75.180010"><ele>7.0</ele><time>2026-09-17T16:26:16.000Z</time></trkpt>
<trkpt lat="39.952929" lon="-75.180125"><ele>7.2</ele><time>2026-09-17T16:26:20.000Z</time></trkpt>
<trkpt lat="39.952928" lon="-75.180155"><ele>7.2</ele><time>2026-09-17T16:26:21.000Z</time></trkpt>
<trkpt lat="39.952921" lon="-75.180195"><ele>7.2</ele><time>2026-09-17T16:26:23.000Z</time></trkpt>
<trkpt lat="39.952923" lon="-75.180237"><ele>7.2</ele><time>2026-09-17T16:26:25.000Z</time></trkpt>
<trkpt lat="39.952938" lon="-75.180277"><ele>7.4</ele><time>2026-09-17T16:26:27.000Z</time></trkpt>
<trkpt lat="39.952950" lon="-75.180333"><ele>7.6</ele><time>2026-09-17T16:26:30.000Z</time></trkpt>
<trkpt lat="39.952975" lon="-75.180340"><ele>7.8</ele><time>2026-09-17T16:26:32.000Z</time></trkpt>
<trkpt lat="39.952987" lon="-75.180325"><ele>8.0</ele><time>2026-09-17T16:26:33.000Z</time></trkpt>
<trkpt lat="39.952996" lon="-75.180269"><ele>8.0</ele><time>2026-09-17T16:26:35.000Z</time></trkpt>
<trkpt lat="39.953018" lon="-75.180207"><ele>7.8</ele><time>2026-09-17T16:26:39.000Z</time></trkpt>
<trkpt lat="39.953029" lon="-75.180204"><ele>7.8</ele><time>2026-09-17T16:26:40.000Z</time></trkpt>
<trkpt lat="39.953127" lon="-75.180190"><ele>7.0</ele><time>2026-09-17T16:26:47.000Z</time></trkpt>
<trkpt lat="39.953169" lon="-75.180189"><ele>7.0</ele><time>2026-09-17T16:26:50.000Z</time></trkpt>
<trkpt lat="39.953227" lon="-75.180176"><ele>6.6</ele><time>2026-09-17T16:26:54.000Z</time></trkpt>
<trkpt lat="39.953290" lon="-75.180152"><ele>6.4</ele><time>2026-09-17T16:27:00.000Z</time></trkpt>
<trkpt lat="39.953312" lon="-75.180153"><ele>6.2</ele><time>2026-09-17T16:27:02.000Z</time></trkpt>
<trkpt lat="39.953362" lon="-75.180138"><ele>6.0</ele><time>2026-09-17T16:27:07.000Z</time></trkpt>
<trkpt lat="39.953431" lon="-75.180109"><ele>5.8</ele><time>2026-09-17T16:27:12.000Z</time></trkpt>
<trkpt lat="39.953486" lon="-75.180085"><ele>5.4</ele><time>2026-09-17T16:27:16.000Z</time></trkpt>
<trkpt lat="39.953583" lon="-75.180044"><ele>5.0</ele><time>2026-09-17T16:27:23.000Z</time></trkpt>
<trkpt lat="39.953597" lon="-75.180037"><ele>5.0</ele><time>2026-09-17T16:27:24.000Z</time></trkpt>
<trkpt lat="39.953608" lon="-75.180032"><ele>4.8</ele><time>2026-09-17T16:27:25.000Z</time></trkpt>
<trkpt lat="39.953672" lon="-75.180006"><ele>4.4</ele><time>2026-09-17T16:27:31.000Z</time></trkpt>
<trkpt lat="39.953706" lon="-75.179973"><ele>4.4</ele><time>2026-09-17T16:27:37.000Z</time></trkpt>
<trkpt lat="39.953725" lon="-75.179964"><ele>4.6</ele><time>2026-09-17T16:27:39.000Z</time></trkpt>
<trkpt lat="39.953737" lon="-75.179963"><ele>4.6</ele><time>2026-09-17T16:27:40.000Z</time></trkpt>
<trkpt lat="39.953773" lon="-75.179955"><ele>3.8</ele><time>2026-09-17T16:27:46.000Z</time></trkpt>
<trkpt lat="39.953801" lon="-75.179946"><ele>2.6</ele><time>2026-09-17T16:27:50.000Z</time></trkpt>
<trkpt lat="39.953847" lon="-75.179936"><ele>1.2</ele><time>2026-09-17T16:27:56.000Z</time></trkpt>
<trkpt lat="39.953856" lon="-75.179930"><ele>0.8</ele><time>2026-09-17T16:27:57.000Z</time></trkpt>
<trkpt lat="39.953902" lon="-75.179914"><ele>0.2</ele><time>2026-09-17T16:28:00.000Z</time></trkpt>
<trkpt lat="39.953962" lon="-75.179897"><ele>0.2</ele><time>2026-09-17T16:28:03.000Z</time></trkpt>
<trkpt lat="39.954071" lon="-75.179841"><ele>0.6</ele><time>2026-09-17T16:28:08.000Z</time></trkpt>
<trkpt lat="39.954179" lon="-75.179767"><ele>1.2</ele><time>2026-09-17T16:28:15.000Z</time></trkpt>
<trkpt lat="39.954189" lon="-75.179757"><ele>1.4</ele><time>2026-09-17T16:28:16.000Z</time></trkpt>
<trkpt lat="39.954825" lon="-75.179533"><ele>1.0</ele><time>2026-09-17T16:28:32.000Z</time></trkpt>
<trkpt lat="39.954828" lon="-75.179581"><ele>1.2</ele><time>2026-09-17T16:28:36.000Z</time></trkpt>
<trkpt lat="39.954965" lon="-75.179502"><ele>1.4</ele><time>2026-09-17T16:28:45.000Z</time></trkpt>
<trkpt lat="39.955017" lon="-75.179464"><ele>1.6</ele><time>2026-09-17T16:28:48.000Z</time></trkpt>
<trkpt lat="39.955075" lon="-75.179429"><ele>1.6</ele><time>2026-09-17T16:28:51.000Z</time></trkpt>
<trkpt lat="39.955092" lon="-75.179426"><ele>1.6</ele><time>2026-09-17T16:28:52.000Z</time></trkpt>
<trkpt lat="39.955107" lon="-75.179414"><ele>1.6</ele><time>2026-09-17T16:28:53.000Z</time></trkpt>
<trkpt lat="39.955159" lon="-75.179370"><ele>1.4</ele><time>2026-09-17T16:28:57.000Z</time></trkpt>
<trkpt lat="39.955198" lon="-75.179339"><ele>1.2</ele><time>2026-09-17T16:29:01.000Z</time></trkpt>
<trkpt lat="39.955206" lon="-75.179337"><ele>1.2</ele><time>2026-09-17T16:29:02.000Z</time></trkpt>
<trkpt lat="39.955222" lon="-75.179340"><ele>1.2</ele><time>2026-09-17T16:29:03.000Z</time></trkpt>
<trkpt lat="39.955270" lon="-75.179330"><ele>1.2</ele><time>2026-09-17T16:29:06.000Z</time></trkpt>
<trkpt lat="39.955297" lon="-75.179329"><ele>1.2</ele><time>2026-09-17T16:29:07.000Z</time></trkpt>
<trkpt lat="39.955318" lon="-75.179337"><ele>1.4</ele><time>2026-09-17T16:29:08.000Z</time></trkpt>
<trkpt lat="39.955356" lon="-75.179311"><ele>1.2</ele><time>2026-09-17T16:29:10.000Z</time></trkpt>
<trkpt lat="39.955502" lon="-75.179212"><ele>1.4</ele><time>2026-09-17T16:29:17.000Z</time></trkpt>
<trkpt lat="39.955661" lon="-75.179146"><ele>1.6</ele><time>2026-09-17T16:29:24.000Z</time></trkpt>
<trkpt lat="39.955689" lon="-75.179125"><ele>2.4</ele><time>2026-09-17T16:29:26.000Z</time></trkpt>
<trkpt lat="39.955732" lon="-75.179068"><ele>3.0</ele><time>2026-09-17T16:29:32.000Z</time></trkpt>
<trkpt lat="39.955794" lon="-75.178983"><ele>2.6</ele><time>2026-09-17T16:29:38.000Z</time></trkpt>
<trkpt lat="39.955845" lon="-75.178967"><ele>2.6</ele><time>2026-09-17T16:29:40.000Z</time></trkpt>
<trkpt lat="39.955929" lon="-75.178953"><ele>2.8</ele><time>2026-09-17T16:29:43.000Z</time></trkpt>
<trkpt lat="39.956093" lon="-75.178912"><ele>2.2</ele><time>2026-09-17T16:29:49.000Z</time></trkpt>
<trkpt lat="39.956280" lon="-75.178835"><ele>2.4</ele><time>2026-09-17T16:29:55.000Z</time></trkpt>
<trkpt lat="39.956312" lon="-75.178822"><ele>2.4</ele><time>2026-09-17T16:29:56.000Z</time></trkpt>
<trkpt lat="39.956527" lon="-75.178753"><ele>2.8</ele><time>2026-09-17T16:30:02.000Z</time></trkpt>
<trkpt lat="39.956569" lon="-75.178743"><ele>2.8</ele><time>2026-09-17T16:30:03.000Z</time></trkpt>
<trkpt lat="39.956763" lon="-75.178738"><ele>2.8</ele><time>2026-09-17T16:30:07.000Z</time></trkpt>
<trkpt lat="39.956828" lon="-75.178727"><ele>2.8</ele><time>2026-09-17T16:30:09.000Z</time></trkpt>
<trkpt lat="39.956991" lon="-75.178729"><ele>3.2</ele><time>2026-09-17T16:30:15.000Z</time></trkpt>
<trkpt lat="39.957167" lon="-75.178663"><ele>3.0</ele><time>2026-09-17T16:30:22.000Z</time></trkpt>
<trkpt lat="39.957225" lon="-75.178646"><ele>3.0</ele><time>2026-09-17T16:30:24.000Z</time></trkpt>
<trkpt lat="39.957407" lon="-75.178673"><ele>3.4</ele><time>2026-09-17T16:30:31.000Z</time></trkpt>
<trkpt lat="39.957447" lon="-75.178676"><ele>3.4</ele><time>2026-09-17T16:30:34.000Z</time></trkpt>
<trkpt lat="39.957519" lon="-75.178690"><ele>3.6</ele><time>2026-09-17T16:30:37.000Z</time></trkpt>
<trkpt lat="39.957665" lon="-75.178652"><ele>3.6</ele><time>2026-09-17T16:30:42.000Z</time></trkpt>
<trkpt lat="39.957849" lon="-75.178665"><ele>3.6</ele><time>2026-09-17T16:30:49.000Z</time></trkpt>
<trkpt lat="39.958047" lon="-75.178642"><ele>3.4</ele><time>2026-09-17T16:30:57.000Z</time></trkpt>
<trkpt lat="39.958228" lon="-75.178656"><ele>3.0</ele><time>2026-09-17T16:31:05.000Z</time></trkpt>
<trkpt lat="39.958302" lon="-75.178672"><ele>3.0</ele><time>2026-09-17T16:31:08.000Z</time></trkpt>
<trkpt lat="39.958374" lon="-75.178708"><ele>3.0</ele><time>2026-09-17T16:31:11.000Z</time></trkpt>
<trkpt lat="39.958499" lon="-75.178800"><ele>2.8</ele><time>2026-09-17T16:31:17.000Z</time></trkpt>
<trkpt lat="39.958655" lon="-75.178818"><ele>3.0</ele><time>2026-09-17T16:31:23.000Z</time></trkpt>
<trkpt lat="39.958832" lon="-75.178860"><ele>2.8</ele><time>2026-09-17T16:31:30.000Z</time></trkpt>
<trkpt lat="39.958904" lon="-75.178878"><ele>2.8</ele><time>2026-09-17T16:31:33.000Z</time></trkpt>
<trkpt lat="39.959100" lon="-75.178932"><ele>2.8</ele><time>2026-09-17T16:31:41.000Z</time></trkpt>
<trkpt lat="39.959291" lon="-75.179009"><ele>3.2</ele><time>2026-09-17T16:31:49.000Z</time></trkpt>
<trkpt lat="39.959365" lon="-75.179035"><ele>3.2</ele><time>2026-09-17T16:31:52.000Z</time></trkpt>
<trkpt lat="39.959543" lon="-75.179091"><ele>3.4</ele><time>2026-09-17T16:31:59.000Z</time></trkpt>
<trkpt lat="39.959568" lon="-75.179096"><ele>3.4</ele><time>2026-09-17T16:32:00.000Z</time></trkpt>
<trkpt lat="39.959748" lon="-75.179113"><ele>3.0</ele><time>2026-09-17T16:32:07.000Z</time></trkpt>
<trkpt lat="39.959769" lon="-75.179117"><ele>3.0</ele><time>2026-09-17T16:32:08.000Z</time></trkpt>
<trkpt lat="39.959882" lon="-75.179134"><ele>4.0</ele><time>2026-09-17T16:32:16.000Z</time></trkpt>
<trkpt lat="39.959881" lon="-75.179181"><ele>4.2</ele><time>2026-09-17T16:32:18.000Z</time></trkpt>
<trkpt lat="39.959875" lon="-75.179179"><ele>4.4</ele><time>2026-09-17T16:32:19.000Z</time></trkpt>
<trkpt lat="39.959868" lon="-75.179190"><ele>4.4</ele><time>2026-09-17T16:32:21.000Z</time></trkpt>
<trkpt lat="39.959884" lon="-75.179209"><ele>4.2</ele><time>2026-09-17T16:32:23.000Z</time></trkpt>
<trkpt lat="39.959903" lon="-75.179245"><ele>4.2</ele><time>2026-09-17T16:32:25.000Z</time></trkpt>
<trkpt lat="39.959952" lon="-75.179278"><ele>3.6</ele><time>2026-09-17T16:32:27.000Z</time></trkpt>
<trkpt lat="39.960014" lon="-75.179309"><ele>3.4</ele><time>2026-09-17T16:32:29.000Z</time></trkpt>
<trkpt lat="39.960170" lon="-75.179372"><ele>3.4</ele><time>2026-09-17T16:32:34.000Z</time></trkpt>
<trkpt lat="39.960346" lon="-75.179424"><ele>3.4</ele><time>2026-09-17T16:32:39.000Z</time></trkpt>
<trkpt lat="39.960467" lon="-75.179477"><ele>3.6</ele><time>2026-09-17T16:32:43.000Z</time></trkpt>
<trkpt lat="39.960639" lon="-75.179529"><ele>3.6</ele><time>2026-09-17T16:32:48.000Z</time></trkpt>
<trkpt lat="39.960825" lon="-75.179598"><ele>3.4</ele><time>2026-09-17T16:32:55.000Z</time></trkpt>
<trkpt lat="39.960851" lon="-75.179620"><ele>3.4</ele><time>2026-09-17T16:32:56.000Z</time></trkpt>
<trkpt lat="39.961014" lon="-75.179695"><ele>3.6</ele><time>2026-09-17T16:33:03.000Z</time></trkpt>
<trkpt lat="39.961180" lon="-75.179786"><ele>4.0</ele><time>2026-09-17T16:33:10.000Z</time></trkpt>
<trkpt lat="39.961263" lon="-75.179826"><ele>4.6</ele><time>2026-09-17T16:33:14.000Z</time></trkpt>
<trkpt lat="39.961308" lon="-75.179847"><ele>4.6</ele><time>2026-09-17T16:33:16.000Z</time></trkpt>
<trkpt lat="39.961488" lon="-75.179942"><ele>4.6</ele><time>2026-09-17T16:33:24.000Z</time></trkpt>
<trkpt lat="39.961534" lon="-75.179954"><ele>5.0</ele><time>2026-09-17T16:33:26.000Z</time></trkpt>
<trkpt lat="39.961672" lon="-75.180026"><ele>5.4</ele><time>2026-09-17T16:33:33.000Z</time></trkpt>
<trkpt lat="39.961691" lon="-75.180043"><ele>5.6</ele><time>2026-09-17T16:33:34.000Z</time></trkpt>
<trkpt lat="39.961792" lon="-75.180102"><ele>6.6</ele><time>2026-09-17T16:33:39.000Z</time></trkpt>
<trkpt lat="39.961832" lon="-75.180131"><ele>6.8</ele><time>2026-09-17T16:33:41.000Z</time></trkpt>
<trkpt lat="39.961930" lon="-75.180194"><ele>7.8</ele><time>2026-09-17T16:33:46.000Z</time></trkpt>
<trkpt lat="39.961996" lon="-75.180237"><ele>8.4</ele><time>2026-09-17T16:33:49.000Z</time></trkpt>
<trkpt lat="39.962034" lon="-75.180271"><ele>8.8</ele><time>2026-09-17T16:33:51.000Z</time></trkpt>
<trkpt lat="39.962157" lon="-75.180358"><ele>9.6</ele><time>2026-09-17T16:33:57.000Z</time></trkpt>
<trkpt lat="39.962280" lon="-75.180462"><ele>9.8</ele><time>2026-09-17T16:34:03.000Z</time></trkpt>
<trkpt lat="39.962301" lon="-75.180476"><ele>9.8</ele><time>2026-09-17T16:34:04.000Z</time></trkpt>
<trkpt lat="39.962451" lon="-75.180614"><ele>10.0</ele><time>2026-09-17T16:34:12.000Z</time></trkpt>
<trkpt lat="39.962588" lon="-75.180723"><ele>9.8</ele><time>2026-09-17T16:34:19.000Z</time></trkpt>
<trkpt lat="39.962690" lon="-75.180811"><ele>9.6</ele><time>2026-09-17T16:34:24.000Z</time></trkpt>
<trkpt lat="39.962708" lon="-75.180832"><ele>9.6</ele><time>2026-09-17T16:34:25.000Z</time></trkpt>
<trkpt lat="39.962860" lon="-75.180969"><ele>10.0</ele><time>2026-09-17T16:34:32.000Z</time></trkpt>
<trkpt lat="39.962881" lon="-75.180985"><ele>10.0</ele><time>2026-09-17T16:34:33.000Z</time></trkpt>
<trkpt lat="39.963040" lon="-75.181122"><ele>10.0</ele><time>2026-09-17T16:34:41.000Z</time></trkpt>
<trkpt lat="39.963059" lon="-75.181143"><ele>10.0</ele><time>2026-09-17T16:34:42.000Z</time></trkpt>
<trkpt lat="39.963209" lon="-75.181306"><ele>10.0</ele><time>2026-09-17T16:34:50.000Z</time></trkpt>
<trkpt lat="39.963228" lon="-75.181327"><ele>10.0</ele><time>2026-09-17T16:34:51.000Z</time></trkpt>
<trkpt lat="39.963370" lon="-75.181513"><ele>10.4</ele><time>2026-09-17T16:34:59.000Z</time></trkpt>
<trkpt lat="39.963469" lon="-75.181618"><ele>10.4</ele><time>2026-09-17T16:35:04.000Z</time></trkpt>
<trkpt lat="39.963489" lon="-75.181634"><ele>10.6</ele><time>2026-09-17T16:35:05.000Z</time></trkpt>
<trkpt lat="39.963616" lon="-75.181744"><ele>10.6</ele><time>2026-09-17T16:35:12.000Z</time></trkpt>
<trkpt lat="39.963665" lon="-75.181777"><ele>10.6</ele><time>2026-09-17T16:35:16.000Z</time></trkpt>
<trkpt lat="39.963707" lon="-75.181794"><ele>10.8</ele><time>2026-09-17T16:35:19.000Z</time></trkpt>
<trkpt lat="39.963795" lon="-75.181762"><ele>11.0</ele><time>2026-09-17T16:35:27.000Z</time></trkpt>
<trkpt lat="39.963844" lon="-75.181738"><ele>11.2</ele><time>2026-09-17T16:35:29.000Z</time></trkpt>
<trkpt lat="39.963848" lon="-75.181734"><ele>11.6</ele><time>2026-09-17T16:35:34.000Z</time></trkpt>
<trkpt lat="39.963777" lon="-75.181764"><ele>11.6</ele><time>2026-09-17T16:35:41.000Z</time></trkpt>
<trkpt lat="39.963710" lon="-75.181741"><ele>11.4</ele><time>2026-09-17T16:35:48.000Z</time></trkpt>
<trkpt lat="39.963672" lon="-75.181746"><ele>11.4</ele><time>2026-09-17T16:35:51.000Z</time></trkpt>
<trkpt lat="39.963580" lon="-75.181704"><ele>11.0</ele><time>2026-09-17T16:35:58.000Z</time></trkpt>
<trkpt lat="39.963570" lon="-75.181689"><ele>11.0</ele><time>2026-09-17T16:35:59.000Z</time></trkpt>
<trkpt lat="39.963543" lon="-75.181626"><ele>11.2</ele><time>2026-09-17T16:36:02.000Z</time></trkpt>
<trkpt lat="39.963454" lon="-75.181505"><ele>11.4</ele><time>2026-09-17T16:36:08.000Z</time></trkpt>
<trkpt lat="39.963390" lon="-75.181425"><ele>11.2</ele><time>2026-09-17T16:36:12.000Z</time></trkpt>
<trkpt lat="39.963316" lon="-75.181324"><ele>11.2</ele><time>2026-09-17T16:36:17.000Z</time></trkpt>
<trkpt lat="39.963176" lon="-75.181154"><ele>11.2</ele><time>2026-09-17T16:36:25.000Z</time></trkpt>
<trkpt lat="39.963108" lon="-75.181071"><ele>11.2</ele><time>2026-09-17T16:36:29.000Z</time></trkpt>
<trkpt lat="39.962982" lon="-75.180975"><ele>11.8</ele><time>2026-09-17T16:36:35.000Z</time></trkpt>
<trkpt lat="39.962956" lon="-75.180962"><ele>11.8</ele><time>2026-09-17T16:36:36.000Z</time></trkpt>
<trkpt lat="39.962858" lon="-75.180870"><ele>11.8</ele><time>2026-09-17T16:36:41.000Z</time></trkpt>
<trkpt lat="39.962811" lon="-75.180831"><ele>11.8</ele><time>2026-09-17T16:36:43.000Z</time></trkpt>
<trkpt lat="39.962638" lon="-75.180750"><ele>11.6</ele><time>2026-09-17T16:36:50.000Z</time></trkpt>
<trkpt lat="39.962617" lon="-75.180740"><ele>11.4</ele><time>2026-09-17T16:36:51.000Z</time></trkpt>
<trkpt lat="39.962470" lon="-75.180587"><ele>11.0</ele><time>2026-09-17T16:36:59.000Z</time></trkpt>
<trkpt lat="39.962330" lon="-75.180404"><ele>11.0</ele><time>2026-09-17T16:37:07.000Z</time></trkpt>
<trkpt lat="39.962264" lon="-75.180360"><ele>11.0</ele><time>2026-09-17T16:37:10.000Z</time></trkpt>
<trkpt lat="39.962149" lon="-75.180258"><ele>11.0</ele><time>2026-09-17T16:37:16.000Z</time></trkpt>
<trkpt lat="39.962113" lon="-75.180232"><ele>10.8</ele><time>2026-09-17T16:37:18.000Z</time></trkpt>
<trkpt lat="39.962087" lon="-75.180217"><ele>10.8</ele><time>2026-09-17T16:37:19.000Z</time></trkpt>
<trkpt lat="39.961969" lon="-75.180152"><ele>9.8</ele><time>2026-09-17T16:37:24.000Z</time></trkpt>
<trkpt lat="39.961899" lon="-75.180108"><ele>9.8</ele><time>2026-09-17T16:37:27.000Z</time></trkpt>
<trkpt lat="39.961857" lon="-75.180085"><ele>9.6</ele><time>2026-09-17T16:37:29.000Z</time></trkpt>
<trkpt lat="39.961785" lon="-75.180037"><ele>8.6</ele><time>2026-09-17T16:37:32.000Z</time></trkpt>
<trkpt lat="39.961661" lon="-75.179945"><ele>8.0</ele><time>2026-09-17T16:37:38.000Z</time></trkpt>
<trkpt lat="39.961610" lon="-75.179914"><ele>7.6</ele><time>2026-09-17T16:37:40.000Z</time></trkpt>
<trkpt lat="39.961434" lon="-75.179819"><ele>6.4</ele><time>2026-09-17T16:37:47.000Z</time></trkpt>
<trkpt lat="39.961256" lon="-75.179704"><ele>6.2</ele><time>2026-09-17T16:37:55.000Z</time></trkpt>
<trkpt lat="39.961115" lon="-75.179618"><ele>6.0</ele><time>2026-09-17T16:38:02.000Z</time></trkpt>
<trkpt lat="39.960944" lon="-75.179546"><ele>5.4</ele><time>2026-09-17T16:38:09.000Z</time></trkpt>
<trkpt lat="39.960839" lon="-75.179510"><ele>4.8</ele><time>2026-09-17T16:38:13.000Z</time></trkpt>
<trkpt lat="39.960645" lon="-75.179436"><ele>4.6</ele><time>2026-09-17T16:38:21.000Z</time></trkpt>
<trkpt lat="39.960600" lon="-75.179416"><ele>4.4</ele><time>2026-09-17T16:38:23.000Z</time></trkpt>
<trkpt lat="39.960424" lon="-75.179338"><ele>4.6</ele><time>2026-09-17T16:38:30.000Z</time></trkpt>
<trkpt lat="39.960362" lon="-75.179302"><ele>4.4</ele><time>2026-09-17T16:38:33.000Z</time></trkpt>
<trkpt lat="39.960193" lon="-75.179207"><ele>4.2</ele><time>2026-09-17T16:38:40.000Z</time></trkpt>
<trkpt lat="39.960155" lon="-75.179181"><ele>4.0</ele><time>2026-09-17T16:38:42.000Z</time></trkpt>
<trkpt lat="39.960108" lon="-75.179121"><ele>4.6</ele><time>2026-09-17T16:38:47.000Z</time></trkpt>
<trkpt lat="39.959910" lon="-75.179075"><ele>4.8</ele><time>2026-09-17T16:38:55.000Z</time></trkpt>
<trkpt lat="39.959785" lon="-75.179059"><ele>4.0</ele><time>2026-09-17T16:39:00.000Z</time></trkpt>
<trkpt lat="39.959587" lon="-75.179022"><ele>3.6</ele><time>2026-09-17T16:39:07.000Z</time></trkpt>
<trkpt lat="39.959497" lon="-75.178991"><ele>3.8</ele><time>2026-09-17T16:39:10.000Z</time></trkpt>
<trkpt lat="39.959316" lon="-75.178947"><ele>4.0</ele><time>2026-09-17T16:39:16.000Z</time></trkpt>
<trkpt lat="39.959202" lon="-75.178900"><ele>3.8</ele><time>2026-09-17T16:39:21.000Z</time></trkpt>
<trkpt lat="39.959015" lon="-75.178831"><ele>3.6</ele><time>2026-09-17T16:39:29.000Z</time></trkpt>
<trkpt lat="39.958967" lon="-75.178811"><ele>3.8</ele><time>2026-09-17T16:39:31.000Z</time></trkpt>
<trkpt lat="39.958924" lon="-75.178785"><ele>3.8</ele><time>2026-09-17T16:39:33.000Z</time></trkpt>
<trkpt lat="39.958782" lon="-75.178695"><ele>3.6</ele><time>2026-09-17T16:39:41.000Z</time></trkpt>
<trkpt lat="39.958601" lon="-75.178616"><ele>3.6</ele><time>2026-09-17T16:39:48.000Z</time></trkpt>
<trkpt lat="39.958539" lon="-75.178598"><ele>3.6</ele><time>2026-09-17T16:39:51.000Z</time></trkpt>
<trkpt lat="39.958446" lon="-75.178557"><ele>3.8</ele><time>2026-09-17T16:39:57.000Z</time></trkpt>
<trkpt lat="39.958248" lon="-75.178523"><ele>4.0</ele><time>2026-09-17T16:40:05.000Z</time></trkpt>
<trkpt lat="39.958176" lon="-75.178515"><ele>4.2</ele><time>2026-09-17T16:40:08.000Z</time></trkpt>
<trkpt lat="39.958150" lon="-75.178515"><ele>4.2</ele><time>2026-09-17T16:40:09.000Z</time></trkpt>
<trkpt lat="39.957995" lon="-75.178518"><ele>4.6</ele><time>2026-09-17T16:40:15.000Z</time></trkpt>
<trkpt lat="39.957815" lon="-75.178509"><ele>5.2</ele><time>2026-09-17T16:40:22.000Z</time></trkpt>
<trkpt lat="39.957761" lon="-75.178511"><ele>5.2</ele><time>2026-09-17T16:40:24.000Z</time></trkpt>
<trkpt lat="39.957666" lon="-75.178511"><ele>5.4</ele><time>2026-09-17T16:40:28.000Z</time></trkpt>
<trkpt lat="39.957553" lon="-75.178519"><ele>5.4</ele><time>2026-09-17T16:40:33.000Z</time></trkpt>
<trkpt lat="39.957351" lon="-75.178535"><ele>5.0</ele><time>2026-09-17T16:40:40.000Z</time></trkpt>
<trkpt lat="39.957298" lon="-75.178523"><ele>5.0</ele><time>2026-09-17T16:40:42.000Z</time></trkpt>
<trkpt lat="39.957109" lon="-75.178514"><ele>5.0</ele><time>2026-09-17T16:40:49.000Z</time></trkpt>
<trkpt lat="39.957058" lon="-75.178529"><ele>5.0</ele><time>2026-09-17T16:40:51.000Z</time></trkpt>
<trkpt lat="39.956912" lon="-75.178603"><ele>5.2</ele><time>2026-09-17T16:40:58.000Z</time></trkpt>
<trkpt lat="39.956774" lon="-75.178762"><ele>5.0</ele><time>2026-09-17T16:41:04.000Z</time></trkpt>
<trkpt lat="39.956706" lon="-75.178771"><ele>4.8</ele><time>2026-09-17T16:41:07.000Z</time></trkpt>
<trkpt lat="39.956515" lon="-75.178749"><ele>4.8</ele><time>2026-09-17T16:41:15.000Z</time></trkpt>
<trkpt lat="39.956458" lon="-75.178810"><ele>5.0</ele><time>2026-09-17T16:41:19.000Z</time></trkpt>
<trkpt lat="39.956437" lon="-75.178835"><ele>4.8</ele><time>2026-09-17T16:41:20.000Z</time></trkpt>
<trkpt lat="39.956243" lon="-75.178880"><ele>4.8</ele><time>2026-09-17T16:41:26.000Z</time></trkpt>
<trkpt lat="39.956110" lon="-75.178901"><ele>5.0</ele><time>2026-09-17T16:41:33.000Z</time></trkpt>
<trkpt lat="39.956082" lon="-75.178969"><ele>5.4</ele><time>2026-09-17T16:41:37.000Z</time></trkpt>
<trkpt lat="39.955968" lon="-75.179152"><ele>5.4</ele><time>2026-09-17T16:41:43.000Z</time></trkpt>
<trkpt lat="39.955908" lon="-75.179251"><ele>5.2</ele><time>2026-09-17T16:41:47.000Z</time></trkpt>
<trkpt lat="39.955765" lon="-75.179296"><ele>5.0</ele><time>2026-09-17T16:41:53.000Z</time></trkpt>
<trkpt lat="39.955592" lon="-75.179301"><ele>4.8</ele><time>2026-09-17T16:42:00.000Z</time></trkpt>
<trkpt lat="39.955412" lon="-75.179445"><ele>5.4</ele><time>2026-09-17T16:42:06.000Z</time></trkpt>
<trkpt lat="39.955295" lon="-75.179483"><ele>5.4</ele><time>2026-09-17T16:42:11.000Z</time></trkpt>
<trkpt lat="39.955202" lon="-75.179548"><ele>5.2</ele><time>2026-09-17T16:42:15.000Z</time></trkpt>
<trkpt lat="39.955171" lon="-75.179552"><ele>5.2</ele><time>2026-09-17T16:42:16.000Z</time></trkpt>
<trkpt lat="39.954996" lon="-75.179644"><ele>5.0</ele><time>2026-09-17T16:42:21.000Z</time></trkpt>
<trkpt lat="39.954808" lon="-75.179701"><ele>5.0</ele><time>2026-09-17T16:42:26.000Z</time></trkpt>
<trkpt lat="39.954739" lon="-75.179647"><ele>5.2</ele><time>2026-09-17T16:42:28.000Z</time></trkpt>
<trkpt lat="39.954579" lon="-75.179592"><ele>5.0</ele><time>2026-09-17T16:42:36.000Z</time></trkpt>
<trkpt lat="39.954413" lon="-75.179569"><ele>5.6</ele><time>2026-09-17T16:42:42.000Z</time></trkpt>
<trkpt lat="39.954180" lon="-75.179597"><ele>6.2</ele><time>2026-09-17T16:42:48.000Z</time></trkpt>
<trkpt lat="39.954153" lon="-75.179657"><ele>6.2</ele><time>2026-09-17T16:42:52.000Z</time></trkpt>
<trkpt lat="39.954141" lon="-75.179667"><ele>6.2</ele><time>2026-09-17T16:42:53.000Z</time></trkpt>
<trkpt lat="39.954080" lon="-75.179734"><ele>6.0</ele><time>2026-09-17T16:42:56.000Z</time></trkpt>
<trkpt lat="39.954064" lon="-75.179751"><ele>5.8</ele><time>2026-09-17T16:42:57.000Z</time></trkpt>
<trkpt lat="39.953934" lon="-75.179853"><ele>5.2</ele><time>2026-09-17T16:43:02.000Z</time></trkpt>
<trkpt lat="39.953847" lon="-75.179904"><ele>4.2</ele><time>2026-09-17T16:43:05.000Z</time></trkpt>
<trkpt lat="39.953698" lon="-75.179996"><ele>4.0</ele><time>2026-09-17T16:43:10.000Z</time></trkpt>
<trkpt lat="39.953521" lon="-75.180088"><ele>3.6</ele><time>2026-09-17T16:43:18.000Z</time></trkpt>
<trkpt lat="39.953475" lon="-75.180094"><ele>3.8</ele><time>2026-09-17T16:43:20.000Z</time></trkpt>
<trkpt lat="39.953339" lon="-75.180131"><ele>4.0</ele><time>2026-09-17T16:43:27.000Z</time></trkpt>
<trkpt lat="39.953169" lon="-75.180213"><ele>4.6</ele><time>2026-09-17T16:43:35.000Z</time></trkpt>
<trkpt lat="39.953128" lon="-75.180239"><ele>4.8</ele><time>2026-09-17T16:43:37.000Z</time></trkpt>
<trkpt lat="39.953024" lon="-75.180289"><ele>5.2</ele><time>2026-09-17T16:43:41.000Z</time></trkpt>
<trkpt lat="39.952970" lon="-75.180349"><ele>5.6</ele><time>2026-09-17T16:43:44.000Z</time></trkpt>
<trkpt lat="39.952815" lon="-75.180474"><ele>5.6</ele><time>2026-09-17T16:43:52.000Z</time></trkpt>
<trkpt lat="39.952753" lon="-75.180441"><ele>6.2</ele><time>2026-09-17T16:43:55.000Z</time></trkpt>
<trkpt lat="39.952702" lon="-75.180412"><ele>6.2</ele><time>2026-09-17T16:43:58.000Z</time></trkpt>
<trkpt lat="39.952614" lon="-75.180405"><ele>6.4</ele><time>2026-09-17T16:44:03.000Z</time></trkpt>
<trkpt lat="39.952417" lon="-75.180461"><ele>6.8</ele><time>2026-09-17T16:44:12.000Z</time></trkpt>
<trkpt lat="39.952375" lon="-75.180479"><ele>6.8</ele><time>2026-09-17T16:44:14.000Z</time></trkpt>
<trkpt lat="39.952312" lon="-75.180506"><ele>7.0</ele><time>2026-09-17T16:44:16.000Z</time></trkpt>
<trkpt lat="39.952124" lon="-75.180611"><ele>7.0</ele><time>2026-09-17T16:44:23.000Z</time></trkpt>
<trkpt lat="39.952105" lon="-75.180627"><ele>7.0</ele><time>2026-09-17T16:44:24.000Z</time></trkpt>
<trkpt lat="39.951948" lon="-75.180757"><ele>6.8</ele><time>2026-09-17T16:44:32.000Z</time></trkpt>
<trkpt lat="39.951903" lon="-75.180796"><ele>6.6</ele><time>2026-09-17T16:44:35.000Z</time></trkpt>
<trkpt lat="39.951728" lon="-75.180894"><ele>5.4</ele><time>2026-09-17T16:44:43.000Z</time></trkpt>
<trkpt lat="39.951684" lon="-75.180909"><ele>5.4</ele><time>2026-09-17T16:44:45.000Z</time></trkpt>
<trkpt lat="39.951543" lon="-75.180926"><ele>5.8</ele><time>2026-09-17T16:44:51.000Z</time></trkpt>
<trkpt lat="39.951368" lon="-75.180989"><ele>6.4</ele><time>2026-09-17T16:44:58.000Z</time></trkpt>
<trkpt lat="39.951360" lon="-75.180997"><ele>6.4</ele><time>2026-09-17T16:44:59.000Z</time></trkpt>
<trkpt lat="39.951333" lon="-75.181013"><ele>6.6</ele><time>2026-09-17T16:45:01.000Z</time></trkpt>
<trkpt lat="39.951253" lon="-75.181039"><ele>6.8</ele><time>2026-09-17T16:45:05.000Z</time></trkpt>
<trkpt lat="39.951081" lon="-75.181102"><ele>7.0</ele><time>2026-09-17T16:45:13.000Z</time></trkpt>
<trkpt lat="39.950937" lon="-75.181159"><ele>7.2</ele><time>2026-09-17T16:45:19.000Z</time></trkpt>
<trkpt lat="39.950802" lon="-75.181243"><ele>7.0</ele><time>2026-09-17T16:45:24.000Z</time></trkpt>
<trkpt lat="39.950639" lon="-75.181372"><ele>7.0</ele><time>2026-09-17T16:45:31.000Z</time></trkpt>
<trkpt lat="39.950618" lon="-75.181387"><ele>6.8</ele><time>2026-09-17T16:45:32.000Z</time></trkpt>
<trkpt lat="39.950478" lon="-75.181540"><ele>6.8</ele><time>2026-09-17T16:45:39.000Z</time></trkpt>
<trkpt lat="39.950422" lon="-75.181595"><ele>7.0</ele><time>2026-09-17T16:45:42.000Z</time></trkpt>
<trkpt lat="39.950384" lon="-75.181638"><ele>7.2</ele><time>2026-09-17T16:45:44.000Z</time></trkpt>
<trkpt lat="39.950323" lon="-75.181763"><ele>7.6</ele><time>2026-09-17T16:45:49.000Z</time></trkpt>
<trkpt lat="39.950220" lon="-75.181815"><ele>7.6</ele><time>2026-09-17T16:45:54.000Z</time></trkpt>
<trkpt lat="39.950037" lon="-75.181925"><ele>7.2</ele><time>2026-09-17T16:46:01.000Z</time></trkpt>
<trkpt lat="39.949990" lon="-75.181974"><ele>7.2</ele><time>2026-09-17T16:46:03.000Z</time></trkpt>
<trkpt lat="39.949948" lon="-75.182082"><ele>7.2</ele><time>2026-09-17T16:46:09.000Z</time></trkpt>
<trkpt lat="39.949908" lon="-75.182230"><ele>7.0</ele><time>2026-09-17T16:46:18.000Z</time></trkpt>
<trkpt lat="39.949866" lon="-75.182336"><ele>7.4</ele><time>2026-09-17T16:46:23.000Z</time></trkpt>
<trkpt lat="39.949844" lon="-75.182382"><ele>7.4</ele><time>2026-09-17T16:46:25.000Z</time></trkpt>
<trkpt lat="39.949757" lon="-75.182547"><ele>6.8</ele><time>2026-09-17T16:46:33.000Z</time></trkpt>
<trkpt lat="39.949636" lon="-75.182709"><ele>7.0</ele><time>2026-09-17T16:46:42.000Z</time></trkpt>
<trkpt lat="39.949598" lon="-75.182750"><ele>7.0</ele><time>2026-09-17T16:46:44.000Z</time></trkpt>
<trkpt lat="39.949461" lon="-75.182903"><ele>7.0</ele><time>2026-09-17T16:46:52.000Z</time></trkpt>
<trkpt lat="39.949422" lon="-75.182942"><ele>6.4</ele><time>2026-09-17T16:46:54.000Z</time></trkpt>
<trkpt lat="39.949403" lon="-75.182964"><ele>6.2</ele><time>2026-09-17T16:46:55.000Z</time></trkpt>
<trkpt lat="39.949325" lon="-75.183080"><ele>5.8</ele><time>2026-09-17T16:47:00.000Z</time></trkpt>
<trkpt lat="39.949272" lon="-75.183139"><ele>6.2</ele><time>2026-09-17T16:47:03.000Z</time></trkpt>
<trkpt lat="39.949122" lon="-75.183288"><ele>6.6</ele><time>2026-09-17T16:47:11.000Z</time></trkpt>
<trkpt lat="39.949080" lon="-75.183325"><ele>6.4</ele><time>2026-09-17T16:47:13.000Z</time></trkpt>
<trkpt lat="39.949001" lon="-75.183404"><ele>6.8</ele><time>2026-09-17T16:47:17.000Z</time></trkpt>
<trkpt lat="39.948900" lon="-75.183535"><ele>6.6</ele><time>2026-09-17T16:47:23.000Z</time></trkpt>
<trkpt lat="39.948768" lon="-75.183713"><ele>6.0</ele><time>2026-09-17T16:47:31.000Z</time></trkpt>
<trkpt lat="39.948718" lon="-75.183778"><ele>6.4</ele><time>2026-09-17T16:47:34.000Z</time></trkpt>
<trkpt lat="39.948671" lon="-75.183843"><ele>7.4</ele><time>2026-09-17T16:47:37.000Z</time></trkpt>
<trkpt lat="39.948574" lon="-75.183982"><ele>7.4</ele><time>2026-09-17T16:47:43.000Z</time></trkpt>
<trkpt lat="39.948527" lon="-75.184046"><ele>6.6</ele><time>2026-09-17T16:47:46.000Z</time></trkpt>
<trkpt lat="39.948512" lon="-75.184066"><ele>6.4</ele><time>2026-09-17T16:47:47.000Z</time></trkpt>
<trkpt lat="39.948402" lon="-75.184222"><ele>5.6</ele><time>2026-09-17T16:47:54.000Z</time></trkpt>
<trkpt lat="39.948336" lon="-75.184311"><ele>6.6</ele><time>2026-09-17T16:47:58.000Z</time></trkpt>
<trkpt lat="39.948185" lon="-75.184476"><ele>7.0</ele><time>2026-09-17T16:48:06.000Z</time></trkpt>
<trkpt lat="39.948120" lon="-75.184572"><ele>7.0</ele><time>2026-09-17T16:48:10.000Z</time></trkpt>
<trkpt lat="39.948002" lon="-75.184765"><ele>7.0</ele><time>2026-09-17T16:48:18.000Z</time></trkpt>
<trkpt lat="39.947904" lon="-75.184904"><ele>7.0</ele><time>2026-09-17T16:48:24.000Z</time></trkpt>
<trkpt lat="39.947760" lon="-75.185083"><ele>7.0</ele><time>2026-09-17T16:48:32.000Z</time></trkpt>
<trkpt lat="39.947724" lon="-75.185130"><ele>7.2</ele><time>2026-09-17T16:48:34.000Z</time></trkpt>
<trkpt lat="39.947676" lon="-75.185198"><ele>7.4</ele><time>2026-09-17T16:48:37.000Z</time></trkpt>
<trkpt lat="39.947548" lon="-75.185365"><ele>7.8</ele><time>2026-09-17T16:48:45.000Z</time></trkpt>
<trkpt lat="39.947424" lon="-75.185573"><ele>8.0</ele><time>2026-09-17T16:48:54.000Z</time></trkpt>
<trkpt lat="39.947340" lon="-75.185715"><ele>8.4</ele><time>2026-09-17T16:49:00.000Z</time></trkpt>
<trkpt lat="39.947313" lon="-75.185761"><ele>8.6</ele><time>2026-09-17T16:49:02.000Z</time></trkpt>
<trkpt lat="39.947299" lon="-75.185783"><ele>8.6</ele><time>2026-09-17T16:49:03.000Z</time></trkpt>
<trkpt lat="39.947167" lon="-75.185970"><ele>8.4</ele><time>2026-09-17T16:49:11.000Z</time></trkpt>
<trkpt lat="39.947148" lon="-75.185993"><ele>8.0</ele><time>2026-09-17T16:49:12.000Z</time></trkpt>
<trkpt lat="39.947045" lon="-75.186124"><ele>7.4</ele><time>2026-09-17T16:49:18.000Z</time></trkpt>
<trkpt lat="39.946984" lon="-75.186180"><ele>7.4</ele><time>2026-09-17T16:49:21.000Z</time></trkpt>
<trkpt lat="39.946850" lon="-75.186344"><ele>8.0</ele><time>2026-09-17T16:49:29.000Z</time></trkpt>
<trkpt lat="39.946818" lon="-75.186378"><ele>7.8</ele><time>2026-09-17T16:49:31.000Z</time></trkpt>
<trkpt lat="39.946701" lon="-75.186498"><ele>7.8</ele><time>2026-09-17T16:49:38.000Z</time></trkpt>
<trkpt lat="39.946687" lon="-75.186519"><ele>8.0</ele><time>2026-09-17T16:49:39.000Z</time></trkpt>
<trkpt lat="39.946622" lon="-75.186673"><ele>8.0</ele><time>2026-09-17T16:49:44.000Z</time></trkpt>
<trkpt lat="39.946545" lon="-75.186716"><ele>7.8</ele><time>2026-09-17T16:49:49.000Z</time></trkpt>
<trkpt lat="39.946423" lon="-75.186778"><ele>7.2</ele><time>2026-09-17T16:49:55.000Z</time></trkpt>
<trkpt lat="39.946242" lon="-75.186790"><ele>7.6</ele><time>2026-09-17T16:50:02.000Z</time></trkpt>
<trkpt lat="39.946225" lon="-75.186807"><ele>7.6</ele><time>2026-09-17T16:50:03.000Z</time></trkpt>
<trkpt lat="39.946176" lon="-75.186855"><ele>7.4</ele><time>2026-09-17T16:50:06.000Z</time></trkpt>
<trkpt lat="39.946028" lon="-75.187017"><ele>7.6</ele><time>2026-09-17T16:50:14.000Z</time></trkpt>
<trkpt lat="39.946008" lon="-75.187039"><ele>7.6</ele><time>2026-09-17T16:50:15.000Z</time></trkpt>
<trkpt lat="39.945830" lon="-75.187148"><ele>7.0</ele><time>2026-09-17T16:50:23.000Z</time></trkpt>
<trkpt lat="39.945770" lon="-75.187158"><ele>7.2</ele><time>2026-09-17T16:50:25.000Z</time></trkpt>
<trkpt lat="39.945612" lon="-75.187302"><ele>6.6</ele><time>2026-09-17T16:50:33.000Z</time></trkpt>
<trkpt lat="39.945595" lon="-75.187325"><ele>6.6</ele><time>2026-09-17T16:50:34.000Z</time></trkpt>
<trkpt lat="39.945486" lon="-75.187533"><ele>7.0</ele><time>2026-09-17T16:50:41.000Z</time></trkpt>
<trkpt lat="39.945452" lon="-75.187626"><ele>7.0</ele><time>2026-09-17T16:50:44.000Z</time></trkpt>
<trkpt lat="39.945341" lon="-75.187823"><ele>6.6</ele><time>2026-09-17T16:50:51.000Z</time></trkpt>
<trkpt lat="39.945332" lon="-75.187856"><ele>6.4</ele><time>2026-09-17T16:50:52.000Z</time></trkpt>
<trkpt lat="39.945257" lon="-75.188021"><ele>6.8</ele><time>2026-09-17T16:50:59.000Z</time></trkpt>
<trkpt lat="39.945118" lon="-75.188200"><ele>7.0</ele><time>2026-09-17T16:51:08.000Z</time></trkpt>
<trkpt lat="39.945090" lon="-75.188240"><ele>7.0</ele><time>2026-09-17T16:51:10.000Z</time></trkpt>
<trkpt lat="39.944956" lon="-75.188399"><ele>6.6</ele><time>2026-09-17T16:51:18.000Z</time></trkpt>
<trkpt lat="39.944925" lon="-75.188435"><ele>6.6</ele><time>2026-09-17T16:51:20.000Z</time></trkpt>
<trkpt lat="39.944771" lon="-75.188603"><ele>7.0</ele><time>2026-09-17T16:51:29.000Z</time></trkpt>
<trkpt lat="39.944752" lon="-75.188620"><ele>7.2</ele><time>2026-09-17T16:51:30.000Z</time></trkpt>
<trkpt lat="39.944609" lon="-75.188774"><ele>7.0</ele><time>2026-09-17T16:51:38.000Z</time></trkpt>
<trkpt lat="39.944556" lon="-75.188831"><ele>6.8</ele><time>2026-09-17T16:51:41.000Z</time></trkpt>
<trkpt lat="39.944451" lon="-75.188973"><ele>6.6</ele><time>2026-09-17T16:51:48.000Z</time></trkpt>
<trkpt lat="39.944320" lon="-75.189148"><ele>7.0</ele><time>2026-09-17T16:51:56.000Z</time></trkpt>
<trkpt lat="39.944286" lon="-75.189193"><ele>7.0</ele><time>2026-09-17T16:51:58.000Z</time></trkpt>
<trkpt lat="39.944147" lon="-75.189366"><ele>7.0</ele><time>2026-09-17T16:52:06.000Z</time></trkpt>
<trkpt lat="39.944095" lon="-75.189428"><ele>7.2</ele><time>2026-09-17T16:52:09.000Z</time></trkpt>
<trkpt lat="39.943960" lon="-75.189594"><ele>7.4</ele><time>2026-09-17T16:52:17.000Z</time></trkpt>
<trkpt lat="39.943830" lon="-75.189773"><ele>7.0</ele><time>2026-09-17T16:52:25.000Z</time></trkpt>
<trkpt lat="39.943790" lon="-75.189816"><ele>7.0</ele><time>2026-09-17T16:52:27.000Z</time></trkpt>
<trkpt lat="39.943662" lon="-75.189962"><ele>7.2</ele><time>2026-09-17T16:52:34.000Z</time></trkpt>
<trkpt lat="39.943507" lon="-75.190125"><ele>7.0</ele><time>2026-09-17T16:52:42.000Z</time></trkpt>
<trkpt lat="39.943489" lon="-75.190144"><ele>7.0</ele><time>2026-09-17T16:52:43.000Z</time></trkpt>
<trkpt lat="39.943394" lon="-75.190262"><ele>6.6</ele><time>2026-09-17T16:52:50.000Z</time></trkpt>
<trkpt lat="39.943389" lon="-75.190288"><ele>6.4</ele><time>2026-09-17T16:52:56.000Z</time></trkpt>
<trkpt lat="39.943354" lon="-75.190298"><ele>6.6</ele><time>2026-09-17T16:53:01.000Z</time></trkpt>
<trkpt lat="39.943333" lon="-75.190422"><ele>7.2</ele><time>2026-09-17T16:53:08.000Z</time></trkpt>
<trkpt lat="39.943334" lon="-75.190463"><ele>7.4</ele><time>2026-09-17T16:53:10.000Z</time></trkpt>
<trkpt lat="39.943305" lon="-75.190629"><ele>7.2</ele><time>2026-09-17T16:53:19.000Z</time></trkpt>
<trkpt lat="39.943283" lon="-75.190673"><ele>8.6</ele><time>2026-09-17T16:53:21.000Z</time></trkpt>
<trkpt lat="39.943188" lon="-75.190822"><ele>9.6</ele><time>2026-09-17T16:53:28.000Z</time></trkpt>
<trkpt lat="39.943047" lon="-75.190972"><ele>9.4</ele><time>2026-09-17T16:53:35.000Z</time></trkpt>
<trkpt lat="39.943000" lon="-75.191025"><ele>9.0</ele><time>2026-09-17T16:53:38.000Z</time></trkpt>
<trkpt lat="39.942898" lon="-75.191085"><ele>9.2</ele><time>2026-09-17T16:53:44.000Z</time></trkpt>
<trkpt lat="39.942738" lon="-75.191221"><ele>9.2</ele><time>2026-09-17T16:53:51.000Z</time></trkpt>
<trkpt lat="39.942699" lon="-75.191256"><ele>9.0</ele><time>2026-09-17T16:53:53.000Z</time></trkpt>
<trkpt lat="39.942546" lon="-75.191411"><ele>9.6</ele><time>2026-09-17T16:54:01.000Z</time></trkpt>
<trkpt lat="39.942512" lon="-75.191452"><ele>9.8</ele><time>2026-09-17T16:54:03.000Z</time></trkpt>
<trkpt lat="39.942376" lon="-75.191622"><ele>9.6</ele><time>2026-09-17T16:54:11.000Z</time></trkpt>
<trkpt lat="39.942326" lon="-75.191691"><ele>9.8</ele><time>2026-09-17T16:54:14.000Z</time></trkpt>
<trkpt lat="39.942197" lon="-75.191887"><ele>10.2</ele><time>2026-09-17T16:54:22.000Z</time></trkpt>
<trkpt lat="39.942173" lon="-75.191939"><ele>10.2</ele><time>2026-09-17T16:54:24.000Z</time></trkpt>
<trkpt lat="39.942122" lon="-75.192042"><ele>10.8</ele><time>2026-09-17T16:54:28.000Z</time></trkpt>
<trkpt lat="39.942050" lon="-75.192229"><ele>11.0</ele><time>2026-09-17T16:54:35.000Z</time></trkpt>
<trkpt lat="39.941960" lon="-75.192437"><ele>11.2</ele><time>2026-09-17T16:54:43.000Z</time></trkpt>
<trkpt lat="39.941927" lon="-75.192542"><ele>10.8</ele><time>2026-09-17T16:54:47.000Z</time></trkpt>
<trkpt lat="39.941902" lon="-75.192734"><ele>11.0</ele><time>2026-09-17T16:54:55.000Z</time></trkpt>
<trkpt lat="39.941851" lon="-75.192849"><ele>11.4</ele><time>2026-09-17T16:55:00.000Z</time></trkpt>
<trkpt lat="39.941788" lon="-75.193098"><ele>11.4</ele><time>2026-09-17T16:55:09.000Z</time></trkpt>
<trkpt lat="39.941783" lon="-75.193123"><ele>11.4</ele><time>2026-09-17T16:55:10.000Z</time></trkpt>
<trkpt lat="39.941739" lon="-75.193350"><ele>11.8</ele><time>2026-09-17T16:55:18.000Z</time></trkpt>
<trkpt lat="39.941682" lon="-75.193577"><ele>12.2</ele><time>2026-09-17T16:55:26.000Z</time></trkpt>
<trkpt lat="39.941674" lon="-75.193604"><ele>12.2</ele><time>2026-09-17T16:55:27.000Z</time></trkpt>
<trkpt lat="39.941639" lon="-75.193761"><ele>12.0</ele><time>2026-09-17T16:55:33.000Z</time></trkpt>
<trkpt lat="39.941646" lon="-75.193784"><ele>12.0</ele><time>2026-09-17T16:55:34.000Z</time></trkpt>
<trkpt lat="39.941607" lon="-75.193891"><ele>12.2</ele><time>2026-09-17T16:55:39.000Z</time></trkpt>
<trkpt lat="39.941516" lon="-75.194096"><ele>11.8</ele><time>2026-09-17T16:55:47.000Z</time></trkpt>
<trkpt lat="39.941435" lon="-75.194307"><ele>11.6</ele><time>2026-09-17T16:55:55.000Z</time></trkpt>
<trkpt lat="39.941424" lon="-75.194331"><ele>11.6</ele><time>2026-09-17T16:55:56.000Z</time></trkpt>
<trkpt lat="39.941353" lon="-75.194490"><ele>10.8</ele><time>2026-09-17T16:56:02.000Z</time></trkpt>
<trkpt lat="39.941344" lon="-75.194594"><ele>11.0</ele><time>2026-09-17T16:56:06.000Z</time></trkpt>
<trkpt lat="39.941343" lon="-75.194780"><ele>10.8</ele><time>2026-09-17T16:56:13.000Z</time></trkpt>
<trkpt lat="39.941367" lon="-75.195023"><ele>10.2</ele><time>2026-09-17T16:56:20.000Z</time></trkpt>
<trkpt lat="39.941378" lon="-75.195087"><ele>9.6</ele><time>2026-09-17T16:56:22.000Z</time></trkpt>
<trkpt lat="39.941395" lon="-75.195180"><ele>9.4</ele><time>2026-09-17T16:56:25.000Z</time></trkpt>
<trkpt lat="39.941450" lon="-75.195367"><ele>8.6</ele><time>2026-09-17T16:56:31.000Z</time></trkpt>
<trkpt lat="39.941474" lon="-75.195429"><ele>8.2</ele><time>2026-09-17T16:56:33.000Z</time></trkpt>
<trkpt lat="39.941542" lon="-75.195605"><ele>7.4</ele><time>2026-09-17T16:56:39.000Z</time></trkpt>
<trkpt lat="39.941592" lon="-75.195753"><ele>7.0</ele><time>2026-09-17T16:56:44.000Z</time></trkpt>
<trkpt lat="39.941641" lon="-75.196001"><ele>6.6</ele><time>2026-09-17T16:56:52.000Z</time></trkpt>
<trkpt lat="39.941646" lon="-75.196096"><ele>6.2</ele><time>2026-09-17T16:56:55.000Z</time></trkpt>
<trkpt lat="39.941682" lon="-75.196349"><ele>5.4</ele><time>2026-09-17T16:57:03.000Z</time></trkpt>
<trkpt lat="39.941693" lon="-75.196411"><ele>5.4</ele><time>2026-09-17T16:57:05.000Z</time></trkpt>
<trkpt lat="39.941703" lon="-75.196648"><ele>5.4</ele><time>2026-09-17T16:57:13.000Z</time></trkpt>
<trkpt lat="39.941698" lon="-75.196678"><ele>5.4</ele><time>2026-09-17T16:57:14.000Z</time></trkpt>
<trkpt lat="39.941659" lon="-75.196750"><ele>5.2</ele><time>2026-09-17T16:57:17.000Z</time></trkpt>
<trkpt lat="39.941618" lon="-75.196782"><ele>5.2</ele><time>2026-09-17T16:57:19.000Z</time></trkpt>
<trkpt lat="39.941448" lon="-75.196894"><ele>5.4</ele><time>2026-09-17T16:57:27.000Z</time></trkpt>
<trkpt lat="39.941407" lon="-75.196927"><ele>5.4</ele><time>2026-09-17T16:57:29.000Z</time></trkpt>
<trkpt lat="39.941324" lon="-75.197076"><ele>5.6</ele><time>2026-09-17T16:57:35.000Z</time></trkpt>
<trkpt lat="39.941315" lon="-75.197289"><ele>6.0</ele><time>2026-09-17T16:57:42.000Z</time></trkpt>
<trkpt lat="39.941342" lon="-75.197405"><ele>5.6</ele><time>2026-09-17T16:57:46.000Z</time></trkpt>
<trkpt lat="39.941354" lon="-75.197428"><ele>5.6</ele><time>2026-09-17T16:57:47.000Z</time></trkpt>
<trkpt lat="39.941375" lon="-75.197492"><ele>5.8</ele><time>2026-09-17T16:57:49.000Z</time></trkpt>
<trkpt lat="39.941393" lon="-75.197591"><ele>6.0</ele><time>2026-09-17T16:57:52.000Z</time></trkpt>
<trkpt lat="39.941403" lon="-75.197623"><ele>6.0</ele><time>2026-09-17T16:57:53.000Z</time></trkpt>
<trkpt lat="39.941490" lon="-75.197842"><ele>6.0</ele><time>2026-09-17T16:57:59.000Z</time></trkpt>
<trkpt lat="39.941625" lon="-75.198000"><ele>6.4</ele><time>2026-09-17T16:58:07.000Z</time></trkpt>
<trkpt lat="39.941677" lon="-75.198059"><ele>6.2</ele><time>2026-09-17T16:58:10.000Z</time></trkpt>
<trkpt lat="39.941741" lon="-75.198102"><ele>6.4</ele><time>2026-09-17T16:58:13.000Z</time></trkpt>
<trkpt lat="39.941807" lon="-75.198096"><ele>6.2</ele><time>2026-09-17T16:58:16.000Z</time></trkpt>
<trkpt lat="39.941865" lon="-75.198115"><ele>5.8</ele><time>2026-09-17T16:58:19.000Z</time></trkpt>
<trkpt lat="39.941884" lon="-75.198140"><ele>5.8</ele><time>2026-09-17T16:58:20.000Z</time></trkpt>
<trkpt lat="39.942005" lon="-75.198317"><ele>5.8</ele><time>2026-09-17T16:58:28.000Z</time></trkpt>
<trkpt lat="39.942156" lon="-75.198471"><ele>5.8</ele><time>2026-09-17T16:58:36.000Z</time></trkpt>
<trkpt lat="39.942333" lon="-75.198572"><ele>6.0</ele><time>2026-09-17T16:58:44.000Z</time></trkpt>
<trkpt lat="39.942497" lon="-75.198701"><ele>5.8</ele><time>2026-09-17T16:58:52.000Z</time></trkpt>
<trkpt lat="39.942629" lon="-75.198866"><ele>5.8</ele><time>2026-09-17T16:59:00.000Z</time></trkpt>
<trkpt lat="39.942743" lon="-75.199061"><ele>5.4</ele><time>2026-09-17T16:59:08.000Z</time></trkpt>
<trkpt lat="39.942804" lon="-75.199199"><ele>5.6</ele><time>2026-09-17T16:59:13.000Z</time></trkpt>
<trkpt lat="39.942866" lon="-75.199442"><ele>5.4</ele><time>2026-09-17T16:59:21.000Z</time></trkpt>
<trkpt lat="39.942876" lon="-75.199504"><ele>5.4</ele><time>2026-09-17T16:59:23.000Z</time></trkpt>
<trkpt lat="39.942903" lon="-75.199757"><ele>5.2</ele><time>2026-09-17T16:59:31.000Z</time></trkpt>
<trkpt lat="39.942909" lon="-75.199789"><ele>5.2</ele><time>2026-09-17T16:59:32.000Z</time></trkpt>
<trkpt lat="39.942971" lon="-75.200029"><ele>4.6</ele><time>2026-09-17T16:59:40.000Z</time></trkpt>
<trkpt lat="39.942981" lon="-75.200060"><ele>4.6</ele><time>2026-09-17T16:59:41.000Z</time></trkpt>
<trkpt lat="39.943083" lon="-75.200288"><ele>4.6</ele><time>2026-09-17T16:59:49.000Z</time></trkpt>
<trkpt lat="39.943108" lon="-75.200345"><ele>4.6</ele><time>2026-09-17T16:59:51.000Z</time></trkpt>
<trkpt lat="39.943172" lon="-75.200480"><ele>4.2</ele><time>2026-09-17T16:59:56.000Z</time></trkpt>
<trkpt lat="39.943214" lon="-75.200602"><ele>4.0</ele><time>2026-09-17T17:00:00.000Z</time></trkpt>
<trkpt lat="39.943245" lon="-75.200855"><ele>3.2</ele><time>2026-09-17T17:00:08.000Z</time></trkpt>
<trkpt lat="39.943246" lon="-75.200945"><ele>3.2</ele><time>2026-09-17T17:00:11.000Z</time></trkpt>
<trkpt lat="39.943219" lon="-75.201130"><ele>2.8</ele><time>2026-09-17T17:00:17.000Z</time></trkpt>
<trkpt lat="39.943180" lon="-75.201340"><ele>2.8</ele><time>2026-09-17T17:00:24.000Z</time></trkpt>
<trkpt lat="39.943132" lon="-75.201573"><ele>2.8</ele><time>2026-09-17T17:00:32.000Z</time></trkpt>
<trkpt lat="39.943096" lon="-75.201747"><ele>2.4</ele><time>2026-09-17T17:00:38.000Z</time></trkpt>
<trkpt lat="39.943049" lon="-75.201921"><ele>2.6</ele><time>2026-09-17T17:00:44.000Z</time></trkpt>
<trkpt lat="39.943043" lon="-75.201948"><ele>2.8</ele><time>2026-09-17T17:00:45.000Z</time></trkpt>
<trkpt lat="39.942990" lon="-75.202182"><ele>2.8</ele><time>2026-09-17T17:00:53.000Z</time></trkpt>
<trkpt lat="39.942981" lon="-75.202209"><ele>3.2</ele><time>2026-09-17T17:00:54.000Z</time></trkpt>
<trkpt lat="39.942906" lon="-75.202446"><ele>2.8</ele><time>2026-09-17T17:01:03.000Z</time></trkpt>
<trkpt lat="39.942898" lon="-75.202474"><ele>2.8</ele><time>2026-09-17T17:01:04.000Z</time></trkpt>
<trkpt lat="39.942829" lon="-75.202690"><ele>2.8</ele><time>2026-09-17T17:01:12.000Z</time></trkpt>
<trkpt lat="39.942740" lon="-75.202896"><ele>3.0</ele><time>2026-09-17T17:01:20.000Z</time></trkpt>
<trkpt lat="39.942723" lon="-75.202918"><ele>3.0</ele><time>2026-09-17T17:01:21.000Z</time></trkpt>
<trkpt lat="39.942649" lon="-75.203021"><ele>3.6</ele><time>2026-09-17T17:01:26.000Z</time></trkpt>
<trkpt lat="39.942539" lon="-75.203145"><ele>4.0</ele><time>2026-09-17T17:01:33.000Z</time></trkpt>
<trkpt lat="39.942420" lon="-75.203272"><ele>4.2</ele><time>2026-09-17T17:01:40.000Z</time></trkpt>
<trkpt lat="39.942341" lon="-75.203341"><ele>4.2</ele><time>2026-09-17T17:01:44.000Z</time></trkpt>
<trkpt lat="39.942206" lon="-75.203433"><ele>4.6</ele><time>2026-09-17T17:01:51.000Z</time></trkpt>
<trkpt lat="39.942124" lon="-75.203468"><ele>5.2</ele><time>2026-09-17T17:01:55.000Z</time></trkpt>
<trkpt lat="39.941966" lon="-75.203531"><ele>5.8</ele><time>2026-09-17T17:02:02.000Z</time></trkpt>
<trkpt lat="39.941779" lon="-75.203586"><ele>5.4</ele><time>2026-09-17T17:02:12.000Z</time></trkpt>
<trkpt lat="39.941765" lon="-75.203590"><ele>5.4</ele><time>2026-09-17T17:02:13.000Z</time></trkpt>
<trkpt lat="39.941676" lon="-75.203631"><ele>5.6</ele><time>2026-09-17T17:02:21.000Z</time></trkpt>
<trkpt lat="39.941690" lon="-75.203601"><ele>5.8</ele><time>2026-09-17T17:02:25.000Z</time></trkpt>
<trkpt lat="39.941840" lon="-75.203551"><ele>5.8</ele><time>2026-09-17T17:02:36.000Z</time></trkpt>
<trkpt lat="39.942019" lon="-75.203505"><ele>5.6</ele><time>2026-09-17T17:02:47.000Z</time></trkpt>
<trkpt lat="39.942144" lon="-75.203464"><ele>5.6</ele><time>2026-09-17T17:02:53.000Z</time></trkpt>
<trkpt lat="39.942164" lon="-75.203457"><ele>5.4</ele><time>2026-09-17T17:02:54.000Z</time></trkpt>
<trkpt lat="39.942335" lon="-75.203394"><ele>4.6</ele><time>2026-09-17T17:03:02.000Z</time></trkpt>
<trkpt lat="39.942472" lon="-75.203292"><ele>4.2</ele><time>2026-09-17T17:03:09.000Z</time></trkpt>
<trkpt lat="39.942489" lon="-75.203276"><ele>4.0</ele><time>2026-09-17T17:03:10.000Z</time></trkpt>
<trkpt lat="39.942651" lon="-75.203120"><ele>4.0</ele><time>2026-09-17T17:03:17.000Z</time></trkpt>
<trkpt lat="39.942693" lon="-75.203073"><ele>4.0</ele><time>2026-09-17T17:03:19.000Z</time></trkpt>
<trkpt lat="39.942798" lon="-75.202915"><ele>4.0</ele><time>2026-09-17T17:03:26.000Z</time></trkpt>
<trkpt lat="39.942826" lon="-75.202862"><ele>4.0</ele><time>2026-09-17T17:03:28.000Z</time></trkpt>
<trkpt lat="39.942901" lon="-75.202613"><ele>3.8</ele><time>2026-09-17T17:03:36.000Z</time></trkpt>
<trkpt lat="39.942907" lon="-75.202586"><ele>3.8</ele><time>2026-09-17T17:03:37.000Z</time></trkpt>
<trkpt lat="39.942958" lon="-75.202434"><ele>3.8</ele><time>2026-09-17T17:03:44.000Z</time></trkpt>
<trkpt lat="39.943001" lon="-75.202277"><ele>3.8</ele><time>2026-09-17T17:03:52.000Z</time></trkpt>
<trkpt lat="39.943074" lon="-75.202075"><ele>3.8</ele><time>2026-09-17T17:04:00.000Z</time></trkpt>
<trkpt lat="39.943126" lon="-75.201880"><ele>3.8</ele><time>2026-09-17T17:04:07.000Z</time></trkpt>
<trkpt lat="39.943156" lon="-75.201645"><ele>3.8</ele><time>2026-09-17T17:04:15.000Z</time></trkpt>
<trkpt lat="39.943167" lon="-75.201592"><ele>3.8</ele><time>2026-09-17T17:04:17.000Z</time></trkpt>
<trkpt lat="39.943202" lon="-75.201395"><ele>3.8</ele><time>2026-09-17T17:04:24.000Z</time></trkpt>
<trkpt lat="39.943240" lon="-75.201182"><ele>3.6</ele><time>2026-09-17T17:04:32.000Z</time></trkpt>
<trkpt lat="39.943274" lon="-75.200958"><ele>3.6</ele><time>2026-09-17T17:04:40.000Z</time></trkpt>
<trkpt lat="39.943268" lon="-75.200709"><ele>3.8</ele><time>2026-09-17T17:04:48.000Z</time></trkpt>
<trkpt lat="39.943264" lon="-75.200677"><ele>3.8</ele><time>2026-09-17T17:04:49.000Z</time></trkpt>
<trkpt lat="39.943200" lon="-75.200435"><ele>4.0</ele><time>2026-09-17T17:04:56.000Z</time></trkpt>
<trkpt lat="39.943185" lon="-75.200376"><ele>4.0</ele><time>2026-09-17T17:04:58.000Z</time></trkpt>
<trkpt lat="39.943112" lon="-75.200188"><ele>4.2</ele><time>2026-09-17T17:05:05.000Z</time></trkpt>
<trkpt lat="39.943025" lon="-75.199954"><ele>4.4</ele><time>2026-09-17T17:05:14.000Z</time></trkpt>
<trkpt lat="39.942978" lon="-75.199767"><ele>5.0</ele><time>2026-09-17T17:05:21.000Z</time></trkpt>
<trkpt lat="39.942943" lon="-75.199564"><ele>5.0</ele><time>2026-09-17T17:05:28.000Z</time></trkpt>
<trkpt lat="39.942934" lon="-75.199505"><ele>5.0</ele><time>2026-09-17T17:05:30.000Z</time></trkpt>
<trkpt lat="39.942923" lon="-75.199445"><ele>5.2</ele><time>2026-09-17T17:05:32.000Z</time></trkpt>
<trkpt lat="39.942896" lon="-75.199306"><ele>5.4</ele><time>2026-09-17T17:05:37.000Z</time></trkpt>
<trkpt lat="39.942881" lon="-75.199249"><ele>5.4</ele><time>2026-09-17T17:05:39.000Z</time></trkpt>
<trkpt lat="39.942803" lon="-75.199028"><ele>6.2</ele><time>2026-09-17T17:05:47.000Z</time></trkpt>
<trkpt lat="39.942791" lon="-75.199000"><ele>6.2</ele><time>2026-09-17T17:05:48.000Z</time></trkpt>
<trkpt lat="39.942667" lon="-75.198793"><ele>6.2</ele><time>2026-09-17T17:05:56.000Z</time></trkpt>
<trkpt lat="39.942631" lon="-75.198749"><ele>6.2</ele><time>2026-09-17T17:05:58.000Z</time></trkpt>
<trkpt lat="39.942491" lon="-75.198593"><ele>5.8</ele><time>2026-09-17T17:06:05.000Z</time></trkpt>
<trkpt lat="39.942444" lon="-75.198559"><ele>5.6</ele><time>2026-09-17T17:06:07.000Z</time></trkpt>
<trkpt lat="39.942353" lon="-75.198501"><ele>5.2</ele><time>2026-09-17T17:06:11.000Z</time></trkpt>
<trkpt lat="39.942166" lon="-75.198402"><ele>5.2</ele><time>2026-09-17T17:06:19.000Z</time></trkpt>
<trkpt lat="39.942024" lon="-75.198245"><ele>5.2</ele><time>2026-09-17T17:06:27.000Z</time></trkpt>
<trkpt lat="39.942010" lon="-75.198220"><ele>5.4</ele><time>2026-09-17T17:06:28.000Z</time></trkpt>
<trkpt lat="39.941871" lon="-75.198082"><ele>5.4</ele><time>2026-09-17T17:06:35.000Z</time></trkpt>
<trkpt lat="39.941729" lon="-75.197988"><ele>5.6</ele><time>2026-09-17T17:06:42.000Z</time></trkpt>
<trkpt lat="39.941597" lon="-75.197817"><ele>5.6</ele><time>2026-09-17T17:06:50.000Z</time></trkpt>
<trkpt lat="39.941564" lon="-75.197772"><ele>5.4</ele><time>2026-09-17T17:06:52.000Z</time></trkpt>
<trkpt lat="39.941503" lon="-75.197675"><ele>5.2</ele><time>2026-09-17T17:06:56.000Z</time></trkpt>
<trkpt lat="39.941445" lon="-75.197544"><ele>5.0</ele><time>2026-09-17T17:07:01.000Z</time></trkpt>
<trkpt lat="39.941381" lon="-75.197369"><ele>5.0</ele><time>2026-09-17T17:07:08.000Z</time></trkpt>
<trkpt lat="39.941343" lon="-75.197168"><ele>5.0</ele><time>2026-09-17T17:07:15.000Z</time></trkpt>
<trkpt lat="39.941375" lon="-75.196982"><ele>5.0</ele><time>2026-09-17T17:07:22.000Z</time></trkpt>
<trkpt lat="39.941393" lon="-75.196941"><ele>4.8</ele><time>2026-09-17T17:07:24.000Z</time></trkpt>
<trkpt lat="39.941495" lon="-75.196845"><ele>4.8</ele><time>2026-09-17T17:07:30.000Z</time></trkpt>
<trkpt lat="39.941674" lon="-75.196724"><ele>4.6</ele><time>2026-09-17T17:07:39.000Z</time></trkpt>
<trkpt lat="39.941692" lon="-75.196703"><ele>4.6</ele><time>2026-09-17T17:07:40.000Z</time></trkpt>
<trkpt lat="39.941733" lon="-75.196554"><ele>4.6</ele><time>2026-09-17T17:07:45.000Z</time></trkpt>
<trkpt lat="39.941708" lon="-75.196297"><ele>4.6</ele><time>2026-09-17T17:07:53.000Z</time></trkpt>
<trkpt lat="39.941705" lon="-75.196265"><ele>4.4</ele><time>2026-09-17T17:07:54.000Z</time></trkpt>
<trkpt lat="39.941687" lon="-75.196009"><ele>4.8</ele><time>2026-09-17T17:08:02.000Z</time></trkpt>
<trkpt lat="39.941680" lon="-75.195977"><ele>4.8</ele><time>2026-09-17T17:08:03.000Z</time></trkpt>
<trkpt lat="39.941616" lon="-75.195762"><ele>5.6</ele><time>2026-09-17T17:08:11.000Z</time></trkpt>
<trkpt lat="39.941583" lon="-75.195631"><ele>6.2</ele><time>2026-09-17T17:08:16.000Z</time></trkpt>
<trkpt lat="39.941536" lon="-75.195506"><ele>6.6</ele><time>2026-09-17T17:08:21.000Z</time></trkpt>
<trkpt lat="39.941473" lon="-75.195353"><ele>7.4</ele><time>2026-09-17T17:08:27.000Z</time></trkpt>
<trkpt lat="39.941441" lon="-75.195248"><ele>7.8</ele><time>2026-09-17T17:08:31.000Z</time></trkpt>
<trkpt lat="39.941433" lon="-75.195222"><ele>8.0</ele><time>2026-09-17T17:08:32.000Z</time></trkpt>
<trkpt lat="39.941392" lon="-75.195038"><ele>8.6</ele><time>2026-09-17T17:08:39.000Z</time></trkpt>
<trkpt lat="39.941349" lon="-75.194791"><ele>9.4</ele><time>2026-09-17T17:08:49.000Z</time></trkpt>
<trkpt lat="39.941372" lon="-75.194718"><ele>9.6</ele><time>2026-09-17T17:08:51.000Z</time></trkpt>
<trkpt lat="39.941423" lon="-75.194510"><ele>10.4</ele><time>2026-09-17T17:08:58.000Z</time></trkpt>
<trkpt lat="39.941432" lon="-75.194455"><ele>10.6</ele><time>2026-09-17T17:09:00.000Z</time></trkpt>
<trkpt lat="39.941504" lon="-75.194346"><ele>11.0</ele><time>2026-09-17T17:09:06.000Z</time></trkpt>
<trkpt lat="39.941598" lon="-75.194174"><ele>11.0</ele><time>2026-09-17T17:09:14.000Z</time></trkpt>
<trkpt lat="39.941669" lon="-75.193951"><ele>10.8</ele><time>2026-09-17T17:09:23.000Z</time></trkpt>
<trkpt lat="39.941673" lon="-75.193889"><ele>10.6</ele><time>2026-09-17T17:09:25.000Z</time></trkpt>
<trkpt lat="39.941673" lon="-75.193815"><ele>10.6</ele><time>2026-09-17T17:09:28.000Z</time></trkpt>
<trkpt lat="39.941684" lon="-75.193799"><ele>10.6</ele><time>2026-09-17T17:09:29.000Z</time></trkpt>
<trkpt lat="39.941709" lon="-75.193725"><ele>10.6</ele><time>2026-09-17T17:09:32.000Z</time></trkpt>
<trkpt lat="39.941752" lon="-75.193512"><ele>10.4</ele><time>2026-09-17T17:09:39.000Z</time></trkpt>
<trkpt lat="39.941791" lon="-75.193255"><ele>10.2</ele><time>2026-09-17T17:09:47.000Z</time></trkpt>
<trkpt lat="39.941799" lon="-75.193193"><ele>10.0</ele><time>2026-09-17T17:09:49.000Z</time></trkpt>
<trkpt lat="39.941843" lon="-75.192947"><ele>10.0</ele><time>2026-09-17T17:09:57.000Z</time></trkpt>
<trkpt lat="39.941865" lon="-75.192856"><ele>9.8</ele><time>2026-09-17T17:10:00.000Z</time></trkpt>
<trkpt lat="39.941888" lon="-75.192685"><ele>9.6</ele><time>2026-09-17T17:10:06.000Z</time></trkpt>
<trkpt lat="39.941896" lon="-75.192661"><ele>9.6</ele><time>2026-09-17T17:10:07.000Z</time></trkpt>
<trkpt lat="39.941964" lon="-75.192506"><ele>9.6</ele><time>2026-09-17T17:10:13.000Z</time></trkpt>
<trkpt lat="39.942056" lon="-75.192291"><ele>9.6</ele><time>2026-09-17T17:10:21.000Z</time></trkpt>
<trkpt lat="39.942157" lon="-75.192077"><ele>9.0</ele><time>2026-09-17T17:10:29.000Z</time></trkpt>
<trkpt lat="39.942171" lon="-75.192053"><ele>9.0</ele><time>2026-09-17T17:10:30.000Z</time></trkpt>
<trkpt lat="39.942282" lon="-75.191852"><ele>8.6</ele><time>2026-09-17T17:10:38.000Z</time></trkpt>
<trkpt lat="39.942313" lon="-75.191801"><ele>8.6</ele><time>2026-09-17T17:10:40.000Z</time></trkpt>
<trkpt lat="39.942345" lon="-75.191752"><ele>8.4</ele><time>2026-09-17T17:10:42.000Z</time></trkpt>
<trkpt lat="39.942488" lon="-75.191572"><ele>7.8</ele><time>2026-09-17T17:10:50.000Z</time></trkpt>
<trkpt lat="39.942523" lon="-75.191528"><ele>7.8</ele><time>2026-09-17T17:10:52.000Z</time></trkpt>
<trkpt lat="39.942642" lon="-75.191372"><ele>7.4</ele><time>2026-09-17T17:10:59.000Z</time></trkpt>
<trkpt lat="39.942743" lon="-75.191292"><ele>7.2</ele><time>2026-09-17T17:11:04.000Z</time></trkpt>
<trkpt lat="39.942894" lon="-75.191160"><ele>6.8</ele><time>2026-09-17T17:11:12.000Z</time></trkpt>
<trkpt lat="39.942946" lon="-75.191108"><ele>6.8</ele><time>2026-09-17T17:11:15.000Z</time></trkpt>
<trkpt lat="39.942977" lon="-75.191080"><ele>6.8</ele><time>2026-09-17T17:11:17.000Z</time></trkpt>
<trkpt lat="39.943010" lon="-75.191069"><ele>6.8</ele><time>2026-09-17T17:11:20.000Z</time></trkpt>
<trkpt lat="39.943084" lon="-75.190991"><ele>6.6</ele><time>2026-09-17T17:11:24.000Z</time></trkpt>
<trkpt lat="39.943204" lon="-75.190842"><ele>6.4</ele><time>2026-09-17T17:11:30.000Z</time></trkpt>
<trkpt lat="39.943285" lon="-75.190704"><ele>6.2</ele><time>2026-09-17T17:11:35.000Z</time></trkpt>
<trkpt lat="39.943349" lon="-75.190505"><ele>5.4</ele><time>2026-09-17T17:11:41.000Z</time></trkpt>
<trkpt lat="39.943356" lon="-75.190471"><ele>5.4</ele><time>2026-09-17T17:11:42.000Z</time></trkpt>
<trkpt lat="39.943438" lon="-75.190277"><ele>4.6</ele><time>2026-09-17T17:11:49.000Z</time></trkpt>
<trkpt lat="39.943585" lon="-75.190119"><ele>4.4</ele><time>2026-09-17T17:11:57.000Z</time></trkpt>
<trkpt lat="39.943622" lon="-75.190078"><ele>4.4</ele><time>2026-09-17T17:11:59.000Z</time></trkpt>
<trkpt lat="39.943637" lon="-75.190055"><ele>4.4</ele><time>2026-09-17T17:12:00.000Z</time></trkpt>
<trkpt lat="39.943762" lon="-75.189915"><ele>4.8</ele><time>2026-09-17T17:12:07.000Z</time></trkpt>
<trkpt lat="39.943827" lon="-75.189844"><ele>4.8</ele><time>2026-09-17T17:12:11.000Z</time></trkpt>
<trkpt lat="39.943893" lon="-75.189767"><ele>4.8</ele><time>2026-09-17T17:12:15.000Z</time></trkpt>
<trkpt lat="39.943964" lon="-75.189702"><ele>5.0</ele><time>2026-09-17T17:12:19.000Z</time></trkpt>
<trkpt lat="39.944108" lon="-75.189525"><ele>5.0</ele><time>2026-09-17T17:12:28.000Z</time></trkpt>
<trkpt lat="39.944241" lon="-75.189356"><ele>5.2</ele><time>2026-09-17T17:12:36.000Z</time></trkpt>
<trkpt lat="39.944324" lon="-75.189253"><ele>5.2</ele><time>2026-09-17T17:12:41.000Z</time></trkpt>
<trkpt lat="39.944459" lon="-75.189075"><ele>5.0</ele><time>2026-09-17T17:12:49.000Z</time></trkpt>
<trkpt lat="39.944521" lon="-75.188986"><ele>4.8</ele><time>2026-09-17T17:12:53.000Z</time></trkpt>
<trkpt lat="39.944669" lon="-75.188846"><ele>4.6</ele><time>2026-09-17T17:13:01.000Z</time></trkpt>
<trkpt lat="39.944685" lon="-75.188828"><ele>4.6</ele><time>2026-09-17T17:13:02.000Z</time></trkpt>
<trkpt lat="39.944832" lon="-75.188673"><ele>4.8</ele><time>2026-09-17T17:13:10.000Z</time></trkpt>
<trkpt lat="39.944908" lon="-75.188595"><ele>4.8</ele><time>2026-09-17T17:13:14.000Z</time></trkpt>
<trkpt lat="39.945062" lon="-75.188442"><ele>4.6</ele><time>2026-09-17T17:13:22.000Z</time></trkpt>
<trkpt lat="39.945191" lon="-75.188274"><ele>4.6</ele><time>2026-09-17T17:13:29.000Z</time></trkpt>
<trkpt lat="39.945220" lon="-75.188231"><ele>4.8</ele><time>2026-09-17T17:13:31.000Z</time></trkpt>
<trkpt lat="39.945340" lon="-75.188051"><ele>4.6</ele><time>2026-09-17T17:13:38.000Z</time></trkpt>
<trkpt lat="39.945412" lon="-75.187959"><ele>4.8</ele><time>2026-09-17T17:13:42.000Z</time></trkpt>
<trkpt lat="39.945518" lon="-75.187762"><ele>4.6</ele><time>2026-09-17T17:13:50.000Z</time></trkpt>
<trkpt lat="39.945588" lon="-75.187547"><ele>4.6</ele><time>2026-09-17T17:13:57.000Z</time></trkpt>
<trkpt lat="39.945715" lon="-75.187371"><ele>4.6</ele><time>2026-09-17T17:14:05.000Z</time></trkpt>
<trkpt lat="39.945846" lon="-75.187216"><ele>4.4</ele><time>2026-09-17T17:14:12.000Z</time></trkpt>
<trkpt lat="39.945983" lon="-75.187021"><ele>4.4</ele><time>2026-09-17T17:14:20.000Z</time></trkpt>
<trkpt lat="39.946126" lon="-75.186846"><ele>4.6</ele><time>2026-09-17T17:14:28.000Z</time></trkpt>
<trkpt lat="39.946146" lon="-75.186828"><ele>4.6</ele><time>2026-09-17T17:14:29.000Z</time></trkpt>
<trkpt lat="39.946286" lon="-75.186782"><ele>4.8</ele><time>2026-09-17T17:14:35.000Z</time></trkpt>
<trkpt lat="39.946474" lon="-75.186764"><ele>5.0</ele><time>2026-09-17T17:14:43.000Z</time></trkpt>
<trkpt lat="39.946521" lon="-75.186743"><ele>5.0</ele><time>2026-09-17T17:14:45.000Z</time></trkpt>
<trkpt lat="39.946640" lon="-75.186649"><ele>5.0</ele><time>2026-09-17T17:14:52.000Z</time></trkpt>
<trkpt lat="39.946679" lon="-75.186608"><ele>5.2</ele><time>2026-09-17T17:14:55.000Z</time></trkpt>
<trkpt lat="39.946732" lon="-75.186578"><ele>5.2</ele><time>2026-09-17T17:14:57.000Z</time></trkpt>
<trkpt lat="39.946868" lon="-75.186469"><ele>5.2</ele><time>2026-09-17T17:15:03.000Z</time></trkpt>
<trkpt lat="39.947021" lon="-75.186325"><ele>5.0</ele><time>2026-09-17T17:15:11.000Z</time></trkpt>
<trkpt lat="39.947136" lon="-75.186128"><ele>5.0</ele><time>2026-09-17T17:15:18.000Z</time></trkpt>
<trkpt lat="39.947202" lon="-75.186025"><ele>5.0</ele><time>2026-09-17T17:15:22.000Z</time></trkpt>
<trkpt lat="39.947307" lon="-75.185882"><ele>5.6</ele><time>2026-09-17T17:15:28.000Z</time></trkpt>
<trkpt lat="39.947355" lon="-75.185808"><ele>5.8</ele><time>2026-09-17T17:15:31.000Z</time></trkpt>
<trkpt lat="39.947463" lon="-75.185585"><ele>5.6</ele><time>2026-09-17T17:15:39.000Z</time></trkpt>
<trkpt lat="39.947490" lon="-75.185531"><ele>5.4</ele><time>2026-09-17T17:15:41.000Z</time></trkpt>
<trkpt lat="39.947607" lon="-75.185348"><ele>5.2</ele><time>2026-09-17T17:15:49.000Z</time></trkpt>
<trkpt lat="39.947623" lon="-75.185329"><ele>5.2</ele><time>2026-09-17T17:15:50.000Z</time></trkpt>
<trkpt lat="39.947749" lon="-75.185161"><ele>5.2</ele><time>2026-09-17T17:15:58.000Z</time></trkpt>
<trkpt lat="39.947766" lon="-75.185141"><ele>5.2</ele><time>2026-09-17T17:15:59.000Z</time></trkpt>
<trkpt lat="39.947887" lon="-75.184964"><ele>5.2</ele><time>2026-09-17T17:16:07.000Z</time></trkpt>
<trkpt lat="39.948013" lon="-75.184788"><ele>5.2</ele><time>2026-09-17T17:16:15.000Z</time></trkpt>
<trkpt lat="39.948060" lon="-75.184725"><ele>5.2</ele><time>2026-09-17T17:16:18.000Z</time></trkpt>
<trkpt lat="39.948163" lon="-75.184562"><ele>5.6</ele><time>2026-09-17T17:16:25.000Z</time></trkpt>
<trkpt lat="39.948193" lon="-75.184523"><ele>5.6</ele><time>2026-09-17T17:16:27.000Z</time></trkpt>
<trkpt lat="39.948342" lon="-75.184349"><ele>5.8</ele><time>2026-09-17T17:16:36.000Z</time></trkpt>
<trkpt lat="39.948471" lon="-75.184180"><ele>6.0</ele><time>2026-09-17T17:16:44.000Z</time></trkpt>
<trkpt lat="39.948609" lon="-75.184006"><ele>6.0</ele><time>2026-09-17T17:16:52.000Z</time></trkpt>
<trkpt lat="39.948658" lon="-75.183945"><ele>6.0</ele><time>2026-09-17T17:16:55.000Z</time></trkpt>
<trkpt lat="39.948794" lon="-75.183779"><ele>6.0</ele><time>2026-09-17T17:17:03.000Z</time></trkpt>
<trkpt lat="39.948871" lon="-75.183662"><ele>6.2</ele><time>2026-09-17T17:17:08.000Z</time></trkpt>
<trkpt lat="39.949013" lon="-75.183495"><ele>6.0</ele><time>2026-09-17T17:17:16.000Z</time></trkpt>
<trkpt lat="39.949033" lon="-75.183476"><ele>6.0</ele><time>2026-09-17T17:17:17.000Z</time></trkpt>
<trkpt lat="39.949166" lon="-75.183341"><ele>5.8</ele><time>2026-09-17T17:17:24.000Z</time></trkpt>
<trkpt lat="39.949311" lon="-75.183183"><ele>5.6</ele><time>2026-09-17T17:17:32.000Z</time></trkpt>
<trkpt lat="39.949348" lon="-75.183140"><ele>5.6</ele><time>2026-09-17T17:17:34.000Z</time></trkpt>
<trkpt lat="39.949492" lon="-75.182981"><ele>5.6</ele><time>2026-09-17T17:17:42.000Z</time></trkpt>
<trkpt lat="39.949634" lon="-75.182817"><ele>5.6</ele><time>2026-09-17T17:17:50.000Z</time></trkpt>
<trkpt lat="39.949779" lon="-75.182624"><ele>5.4</ele><time>2026-09-17T17:17:58.000Z</time></trkpt>
<trkpt lat="39.949812" lon="-75.182568"><ele>5.4</ele><time>2026-09-17T17:18:00.000Z</time></trkpt>
<trkpt lat="39.949924" lon="-75.182360"><ele>6.2</ele><time>2026-09-17T17:18:07.000Z</time></trkpt>
<trkpt lat="39.949939" lon="-75.182329"><ele>6.4</ele><time>2026-09-17T17:18:08.000Z</time></trkpt>
<trkpt lat="39.949987" lon="-75.182177"><ele>6.6</ele><time>2026-09-17T17:18:13.000Z</time></trkpt>
<trkpt lat="39.950009" lon="-75.182086"><ele>6.4</ele><time>2026-09-17T17:18:16.000Z</time></trkpt>
<trkpt lat="39.950109" lon="-75.181922"><ele>6.8</ele><time>2026-09-17T17:18:23.000Z</time></trkpt>
<trkpt lat="39.950242" lon="-75.181758"><ele>7.2</ele><time>2026-09-17T17:18:31.000Z</time></trkpt>
<trkpt lat="39.950250" lon="-75.181730"><ele>7.2</ele><time>2026-09-17T17:18:32.000Z</time></trkpt>
<trkpt lat="39.950322" lon="-75.181635"><ele>7.0</ele><time>2026-09-17T17:18:37.000Z</time></trkpt>
<trkpt lat="39.950343" lon="-75.181630"><ele>7.0</ele><time>2026-09-17T17:18:38.000Z</time></trkpt>
<trkpt lat="39.950508" lon="-75.181530"><ele>7.4</ele><time>2026-09-17T17:18:46.000Z</time></trkpt>
<trkpt lat="39.950527" lon="-75.181514"><ele>7.4</ele><time>2026-09-17T17:18:47.000Z</time></trkpt>
<trkpt lat="39.950665" lon="-75.181429"><ele>6.4</ele><time>2026-09-17T17:18:54.000Z</time></trkpt>
<trkpt lat="39.950838" lon="-75.181318"><ele>6.6</ele><time>2026-09-17T17:19:02.000Z</time></trkpt>
<trkpt lat="39.950901" lon="-75.181284"><ele>6.4</ele><time>2026-09-17T17:19:05.000Z</time></trkpt>
<trkpt lat="39.951076" lon="-75.181178"><ele>6.2</ele><time>2026-09-17T17:19:13.000Z</time></trkpt>
<trkpt lat="39.951249" lon="-75.181114"><ele>5.8</ele><time>2026-09-17T17:19:20.000Z</time></trkpt>
<trkpt lat="39.951332" lon="-75.181114"><ele>5.8</ele><time>2026-09-17T17:19:23.000Z</time></trkpt>
<trkpt lat="39.951337" lon="-75.181110"><ele>5.8</ele><time>2026-09-17T17:19:25.000Z</time></trkpt>
<trkpt lat="39.951334" lon="-75.181099"><ele>5.8</ele><time>2026-09-17T17:19:26.000Z</time></trkpt>
<trkpt lat="39.951344" lon="-75.181091"><ele>6.0</ele><time>2026-09-17T17:19:27.000Z</time></trkpt>
<trkpt lat="39.951410" lon="-75.181060"><ele>6.0</ele><time>2026-09-17T17:19:30.000Z</time></trkpt>
<trkpt lat="39.951580" lon="-75.181022"><ele>5.8</ele><time>2026-09-17T17:19:36.000Z</time></trkpt>
<trkpt lat="39.951651" lon="-75.180995"><ele>5.6</ele><time>2026-09-17T17:19:39.000Z</time></trkpt>
<trkpt lat="39.951750" lon="-75.180946"><ele>5.0</ele><time>2026-09-17T17:19:43.000Z</time></trkpt>
<trkpt lat="39.951926" lon="-75.180840"><ele>4.8</ele><time>2026-09-17T17:19:50.000Z</time></trkpt>
<trkpt lat="39.951997" lon="-75.180812"><ele>5.0</ele><time>2026-09-17T17:19:53.000Z</time></trkpt>
<trkpt lat="39.952163" lon="-75.180669"><ele>5.2</ele><time>2026-09-17T17:20:01.000Z</time></trkpt>
<trkpt lat="39.952204" lon="-75.180640"><ele>5.4</ele><time>2026-09-17T17:20:03.000Z</time></trkpt>
<trkpt lat="39.952358" lon="-75.180556"><ele>5.6</ele><time>2026-09-17T17:20:10.000Z</time></trkpt>
<trkpt lat="39.952543" lon="-75.180500"><ele>5.4</ele><time>2026-09-17T17:20:18.000Z</time></trkpt>
<trkpt lat="39.952694" lon="-75.180444"><ele>5.4</ele><time>2026-09-17T17:20:25.000Z</time></trkpt>
<trkpt lat="39.952820" lon="-75.180414"><ele>5.0</ele><time>2026-09-17T17:20:31.000Z</time></trkpt>
<trkpt lat="39.952890" lon="-75.180401"><ele>5.4</ele><time>2026-09-17T17:20:38.000Z</time></trkpt>
<trkpt lat="39.952936" lon="-75.180383"><ele>5.4</ele><time>2026-09-17T17:20:40.000Z</time></trkpt>
<trkpt lat="39.952973" lon="-75.180328"><ele>5.2</ele><time>2026-09-17T17:20:42.000Z</time></trkpt>
<trkpt lat="39.952985" lon="-75.180260"><ele>5.2</ele><time>2026-09-17T17:20:45.000Z</time></trkpt>
<trkpt lat="39.952981" lon="-75.180248"><ele>5.4</ele><time>2026-09-17T17:20:46.000Z</time></trkpt>
<trkpt lat="39.952989" lon="-75.180214"><ele>5.8</ele><time>2026-09-17T17:20:51.000Z</time></trkpt>
</trkseg></trk>
</gpx>
