<?xml version='1.0' encoding='UTF-8'?>
<gpx xmlns="http://www.topografix.com/GPX/1/1" xmlns:xsi="http://www.w3.org/2001/XMLSchema-instance" creator="Garmin Connect" version="1.1" xsi:schemaLocation="http://www.topografix.com/GPX/1/1 http://www.topografix.com/GPX/11.xsd">
  <metadata>
    <link href="connect.garmin.com">
      <text>Garmin Connect</text>
    </link>
    <time>2026-10-07T15:54:47.000Z</time>
  </metadata>
  <trk>
    <name>Philadelphia Running</name>
    <type>running</type>
    <trkseg>
      <trkpt lat="39.964639" lon="-75.179651">
        <ele>16.0</ele>
        </trkpt>
      <trkpt lat="39.964619" lon="-75.179678">
        <ele>17.0</ele>
        </trkpt>
      <trkpt lat="39.964587" lon="-75.179728">
        <ele>17.2</ele>
        </trkpt>
      <trkpt lat="39.964519" lon="-75.179831">
        <ele>16.8</ele>
        </trkpt>
      <trkpt lat="39.964485" lon="-75.179886">
        <ele>17.2</ele>
        </trkpt>
      <trkpt lat="39.964415" lon="-75.179949">
        <ele>17.4</ele>
        </trkpt>
      <trkpt lat="39.964352" lon="-75.179990">
        <ele>17.6</ele>
        </trkpt>
      <trkpt lat="39.964317" lon="-75.180031">
        <ele>17.6</ele>
        </trkpt>
      <trkpt lat="39.964231" lon="-75.180150">
        <ele>17.2</ele>
        </trkpt>
      <trkpt lat="39.964186" lon="-75.180253">
        <ele>17.2</ele>
        </trkpt>
      <trkpt lat="39.964142" lon="-75.180390">
        <ele>17.0</ele>
        </trkpt>
      <trkpt lat="39.964124" lon="-75.180417">
        <ele>17.0</ele>
        </trkpt>
      <trkpt lat="39.964068" lon="-75.180382">
        <ele>16.8</ele>
        </trkpt>
      <trkpt lat="39.963990" lon="-75.180503">
        <ele>17.2</ele>
        </trkpt>
      <trkpt lat="39.963972" lon="-75.180569">
        <ele>17.0</ele>
        </trkpt>
      <trkpt lat="39.963970" lon="-75.180601">
        <ele>17.0</ele>
        </trkpt>
      <trkpt lat="39.963963" lon="-75.180701">
        <ele>17.0</ele>
        </trkpt>
      <trkpt lat="39.963944" lon="-75.180835">
        <ele>15.8</ele>
        </trkpt>
      <trkpt lat="39.963930" lon="-75.180859">
        <ele>15.6</ele>
        </trkpt>
      <trkpt lat="39.963922" lon="-75.180887">
        <ele>15.4</ele>
        </trkpt>
      <trkpt lat="39.963915" lon="-75.180941">
        <ele>15.2</ele>
        </trkpt>
      <trkpt lat="39.963903" lon="-75.181039">
        <ele>15.0</ele>
        </trkpt>
      <trkpt lat="39.963902" lon="-75.181116">
        <ele>14.6</ele>
        </trkpt>
      <trkpt lat="39.963921" lon="-75.181359">
        <ele>14.2</ele>
        </trkpt>
      <trkpt lat="39.963919" lon="-75.181536">
        <ele>13.8</ele>
        </trkpt>
      <trkpt lat="39.963945" lon="-75.181603">
        <ele>13.8</ele>
        </trkpt>
      <trkpt lat="39.963953" lon="-75.181631">
        <ele>13.6</ele>
        </trkpt>
      <trkpt lat="39.964003" lon="-75.181810">
        <ele>13.4</ele>
        </trkpt>
      <trkpt lat="39.964056" lon="-75.182041">
        <ele>13.6</ele>
        </trkpt>
      <trkpt lat="39.964080" lon="-75.182132">
        <ele>13.6</ele>
        </trkpt>
      <trkpt lat="39.964147" lon="-75.182378">
        <ele>13.2</ele>
        </trkpt>
      <trkpt lat="39.964166" lon="-75.182428">
        <ele>13.0</ele>
        </trkpt>
      <trkpt lat="39.964232" lon="-75.182643">
        <ele>12.4</ele>
        </trkpt>
      <trkpt lat="39.964241" lon="-75.182671">
        <ele>12.4</ele>
        </trkpt>
      <trkpt lat="39.964308" lon="-75.182909">
        <ele>12.2</ele>
        </trkpt>
      <trkpt lat="39.964316" lon="-75.182938">
        <ele>12.0</ele>
        </trkpt>
      <trkpt lat="39.964335" lon="-75.183175">
        <ele>12.6</ele>
        </trkpt>
      <trkpt lat="39.964398" lon="-75.183335">
        <ele>12.2</ele>
        </trkpt>
      <trkpt lat="39.964458" lon="-75.183504">
        <ele>11.8</ele>
        </trkpt>
      <trkpt lat="39.964485" lon="-75.183593">
        <ele>11.4</ele>
        </trkpt>
      <trkpt lat="39.964543" lon="-75.183787">
        <ele>11.0</ele>
        </trkpt>
      <trkpt lat="39.964590" lon="-75.184019">
        <ele>11.0</ele>
        </trkpt>
      <trkpt lat="39.964617" lon="-75.184123">
        <ele>10.8</ele>
        </trkpt>
      <trkpt lat="39.964698" lon="-75.184348">
        <ele>10.4</ele>
        </trkpt>
      <trkpt lat="39.964756" lon="-75.184499">
        <ele>10.2</ele>
        </trkpt>
      <trkpt lat="39.964851" lon="-75.184699">
        <ele>10.0</ele>
        </trkpt>
      <trkpt lat="39.964937" lon="-75.184830">
        <ele>9.6</ele>
        </trkpt>
      <trkpt lat="39.965088" lon="-75.185002">
        <ele>9.4</ele>
        </trkpt>
      <trkpt lat="39.965110" lon="-75.185023">
        <ele>9.4</ele>
        </trkpt>
      <trkpt lat="39.965165" lon="-75.185088">
        <ele>9.4</ele>
        </trkpt>
      <trkpt lat="39.965280" lon="-75.185223">
        <ele>9.0</ele>
        </trkpt>
      <trkpt lat="39.965335" lon="-75.185295">
        <ele>8.8</ele>
        </trkpt>
      <trkpt lat="39.965480" lon="-75.185482">
        <ele>8.6</ele>
        </trkpt>
      <trkpt lat="39.965495" lon="-75.185503">
        <ele>8.6</ele>
        </trkpt>
      <trkpt lat="39.965517" lon="-75.185531">
        <ele>8.6</ele>
        </trkpt>
      <trkpt lat="39.965555" lon="-75.185582">
        <ele>8.6</ele>
        </trkpt>
      <trkpt lat="39.965677" lon="-75.185740">
        <ele>8.4</ele>
        </trkpt>
      <trkpt lat="39.965695" lon="-75.185762">
        <ele>8.4</ele>
        </trkpt>
      <trkpt lat="39.965842" lon="-75.185937">
        <ele>8.2</ele>
        </trkpt>
      <trkpt lat="39.965880" lon="-75.185982">
        <ele>8.0</ele>
        </trkpt>
      <trkpt lat="39.966000" lon="-75.186138">
        <ele>8.0</ele>
        </trkpt>
      <trkpt lat="39.966143" lon="-75.186325">
        <ele>7.6</ele>
        </trkpt>
      <trkpt lat="39.966217" lon="-75.186420">
        <ele>7.6</ele>
        </trkpt>
      <trkpt lat="39.966363" lon="-75.186602">
        <ele>7.6</ele>
        </trkpt>
      <trkpt lat="39.966396" lon="-75.186647">
        <ele>7.6</ele>
        </trkpt>
      <trkpt lat="39.966524" lon="-75.186825">
        <ele>7.8</ele>
        </trkpt>
      <trkpt lat="39.966563" lon="-75.186875">
        <ele>7.8</ele>
        </trkpt>
      <trkpt lat="39.966703" lon="-75.187055">
        <ele>7.8</ele>
        </trkpt>
      <trkpt lat="39.966769" lon="-75.187152">
        <ele>7.6</ele>
        </trkpt>
      <trkpt lat="39.966898" lon="-75.187345">
        <ele>7.8</ele>
        </trkpt>
      <trkpt lat="39.966947" lon="-75.187415">
        <ele>7.8</ele>
        </trkpt>
      <trkpt lat="39.967068" lon="-75.187609">
        <ele>7.8</ele>
        </trkpt>
      <trkpt lat="39.967184" lon="-75.187811">
        <ele>7.6</ele>
        </trkpt>
      <trkpt lat="39.967238" lon="-75.187919">
        <ele>7.8</ele>
        </trkpt>
      <trkpt lat="39.967342" lon="-75.188124">
        <ele>7.6</ele>
        </trkpt>
      <trkpt lat="39.967397" lon="-75.188229">
        <ele>7.8</ele>
        </trkpt>
      <trkpt lat="39.967496" lon="-75.188454">
        <ele>8.0</ele>
        </trkpt>
      <trkpt lat="39.967558" lon="-75.188557">
        <ele>8.2</ele>
        </trkpt>
      <trkpt lat="39.967574" lon="-75.188581">
        <ele>8.4</ele>
        </trkpt>
      <trkpt lat="39.967607" lon="-75.188699">
        <ele>8.6</ele>
        </trkpt>
      <trkpt lat="39.967625" lon="-75.188761">
        <ele>8.6</ele>
        </trkpt>
      <trkpt lat="39.967721" lon="-75.188997">
        <ele>8.0</ele>
        </trkpt>
      <trkpt lat="39.967768" lon="-75.189108">
        <ele>8.0</ele>
        </trkpt>
      <trkpt lat="39.967859" lon="-75.189304">
        <ele>8.4</ele>
        </trkpt>
      <trkpt lat="39.967949" lon="-75.189535">
        <ele>8.2</ele>
        </trkpt>
      <trkpt lat="39.967960" lon="-75.189566">
        <ele>8.2</ele>
        </trkpt>
      <trkpt lat="39.968058" lon="-75.189797">
        <ele>8.4</ele>
        </trkpt>
      <trkpt lat="39.968086" lon="-75.189873">
        <ele>8.4</ele>
        </trkpt>
      <trkpt lat="39.968183" lon="-75.190057">
        <ele>9.0</ele>
        </trkpt>
      <trkpt lat="39.968294" lon="-75.190265">
        <ele>8.8</ele>
        </trkpt>
      <trkpt lat="39.968359" lon="-75.190370">
        <ele>8.8</ele>
        </trkpt>
      <trkpt lat="39.968485" lon="-75.190572">
        <ele>8.6</ele>
        </trkpt>
      <trkpt lat="39.968576" lon="-75.190676">
        <ele>8.6</ele>
        </trkpt>
      <trkpt lat="39.968711" lon="-75.190825">
        <ele>8.6</ele>
        </trkpt>
      <trkpt lat="39.968832" lon="-75.191000">
        <ele>8.4</ele>
        </trkpt>
      <trkpt lat="39.968901" lon="-75.191096">
        <ele>8.2</ele>
        </trkpt>
      <trkpt lat="39.969028" lon="-75.191265">
        <ele>8.6</ele>
        </trkpt>
      <trkpt lat="39.969083" lon="-75.191327">
        <ele>8.6</ele>
        </trkpt>
      <trkpt lat="39.969230" lon="-75.191482">
        <ele>8.6</ele>
        </trkpt>
      <trkpt lat="39.969270" lon="-75.191524">
        <ele>8.6</ele>
        </trkpt>
      <trkpt lat="39.969420" lon="-75.191679">
        <ele>8.6</ele>
        </trkpt>
      <trkpt lat="39.969521" lon="-75.191762">
        <ele>8.4</ele>
        </trkpt>
      <trkpt lat="39.969681" lon="-75.191905">
        <ele>8.4</ele>
        </trkpt>
      <trkpt lat="39.969810" lon="-75.192001">
        <ele>8.4</ele>
        </trkpt>
      <trkpt lat="39.969959" lon="-75.192119">
        <ele>8.4</ele>
        </trkpt>
      <trkpt lat="39.970042" lon="-75.192178">
        <ele>8.6</ele>
        </trkpt>
      <trkpt lat="39.970128" lon="-75.192223">
        <ele>8.4</ele>
        </trkpt>
      <trkpt lat="39.970215" lon="-75.192281">
        <ele>8.4</ele>
        </trkpt>
      <trkpt lat="39.970391" lon="-75.192392">
        <ele>8.2</ele>
        </trkpt>
      <trkpt lat="39.970567" lon="-75.192506">
        <ele>8.0</ele>
        </trkpt>
      <trkpt lat="39.970613" lon="-75.192528">
        <ele>7.8</ele>
        </trkpt>
      <trkpt lat="39.970791" lon="-75.192612">
        <ele>7.8</ele>
        </trkpt>
      <trkpt lat="39.970835" lon="-75.192631">
        <ele>7.8</ele>
        </trkpt>
      <trkpt lat="39.971019" lon="-75.192705">
        <ele>7.8</ele>
        </trkpt>
      <trkpt lat="39.971201" lon="-75.192776">
        <ele>8.2</ele>
        </trkpt>
      <trkpt lat="39.971316" lon="-75.192808">
        <ele>8.2</ele>
        </trkpt>
      <trkpt lat="39.971507" lon="-75.192857">
        <ele>8.0</ele>
        </trkpt>
      <trkpt lat="39.971531" lon="-75.192864">
        <ele>8.0</ele>
        </trkpt>
      <trkpt lat="39.971576" lon="-75.192878">
        <ele>8.2</ele>
        </trkpt>
      <trkpt lat="39.971743" lon="-75.192927">
        <ele>8.2</ele>
        </trkpt>
      <trkpt lat="39.971943" lon="-75.192970">
        <ele>8.6</ele>
        </trkpt>
      <trkpt lat="39.972119" lon="-75.193028">
        <ele>8.6</ele>
        </trkpt>
      <trkpt lat="39.972143" lon="-75.193038">
        <ele>8.8</ele>
        </trkpt>
      <trkpt lat="39.972167" lon="-75.193047">
        <ele>8.8</ele>
        </trkpt>
      <trkpt lat="39.972330" lon="-75.193073">
        <ele>8.8</ele>
        </trkpt>
      <trkpt lat="39.972518" lon="-75.193111">
        <ele>9.0</ele>
        </trkpt>
      <trkpt lat="39.972709" lon="-75.193148">
        <ele>9.0</ele>
        </trkpt>
      <trkpt lat="39.972841" lon="-75.193225">
        <ele>9.0</ele>
        </trkpt>
      <trkpt lat="39.973027" lon="-75.193282">
        <ele>9.4</ele>
        </trkpt>
      <trkpt lat="39.973073" lon="-75.193298">
        <ele>9.4</ele>
        </trkpt>
      <trkpt lat="39.973258" lon="-75.193368">
        <ele>9.4</ele>
        </trkpt>
      <trkpt lat="39.973443" lon="-75.193441">
        <ele>9.8</ele>
        </trkpt>
      <trkpt lat="39.973633" lon="-75.193501">
        <ele>9.4</ele>
        </trkpt>
      <trkpt lat="39.973725" lon="-75.193535">
        <ele>9.2</ele>
        </trkpt>
      <trkpt lat="39.973904" lon="-75.193608">
        <ele>8.8</ele>
        </trkpt>
      <trkpt lat="39.973975" lon="-75.193641">
        <ele>8.8</ele>
        </trkpt>
      <trkpt lat="39.974163" lon="-75.193730">
        <ele>8.6</ele>
        </trkpt>
      <trkpt lat="39.974234" lon="-75.193764">
        <ele>8.6</ele>
        </trkpt>
      <trkpt lat="39.974395" lon="-75.193822">
        <ele>8.4</ele>
        </trkpt>
      <trkpt lat="39.974536" lon="-75.193882">
        <ele>8.2</ele>
        </trkpt>
      <trkpt lat="39.974726" lon="-75.193962">
        <ele>8.2</ele>
        </trkpt>
      <trkpt lat="39.974799" lon="-75.193999">
        <ele>8.4</ele>
        </trkpt>
      <trkpt lat="39.974976" lon="-75.194080">
        <ele>8.6</ele>
        </trkpt>
      <trkpt lat="39.975080" lon="-75.194124">
        <ele>8.6</ele>
        </trkpt>
      <trkpt lat="39.975102" lon="-75.194101">
        <ele>8.4</ele>
        </trkpt>
      <trkpt lat="39.975127" lon="-75.194077">
        <ele>8.4</ele>
        </trkpt>
      <trkpt lat="39.975202" lon="-75.194069">
        <ele>8.4</ele>
        </trkpt>
      <trkpt lat="39.975205" lon="-75.194076">
        <ele>8.4</ele>
        </trkpt>
      <trkpt lat="39.975214" lon="-75.194084">
        <ele>8.4</ele>
        </trkpt>
      <trkpt lat="39.975310" lon="-75.194127">
        <ele>8.6</ele>
        </trkpt>
      <trkpt lat="39.975339" lon="-75.194149">
        <ele>9.0</ele>
        </trkpt>
      <trkpt lat="39.975384" lon="-75.194198">
        <ele>9.2</ele>
        </trkpt>
      <trkpt lat="39.975464" lon="-75.194254">
        <ele>9.4</ele>
        </trkpt>
      <trkpt lat="39.975657" lon="-75.194371">
        <ele>9.8</ele>
        </trkpt>
      <trkpt lat="39.975701" lon="-75.194404">
        <ele>9.6</ele>
        </trkpt>
      <trkpt lat="39.975834" lon="-75.194560">
        <ele>9.8</ele>
        </trkpt>
      <trkpt lat="39.975987" lon="-75.194700">
        <ele>10.0</ele>
        </trkpt>
      <trkpt lat="39.976053" lon="-75.194754">
        <ele>10.0</ele>
        </trkpt>
      <trkpt lat="39.976200" lon="-75.194895">
        <ele>10.0</ele>
        </trkpt>
      <trkpt lat="39.976287" lon="-75.195002">
        <ele>10.0</ele>
        </trkpt>
      <trkpt lat="39.976416" lon="-75.195201">
        <ele>10.2</ele>
        </trkpt>
      <trkpt lat="39.976430" lon="-75.195224">
        <ele>10.2</ele>
        </trkpt>
      <trkpt lat="39.976551" lon="-75.195421">
        <ele>10.2</ele>
        </trkpt>
      <trkpt lat="39.976605" lon="-75.195527">
        <ele>10.0</ele>
        </trkpt>
      <trkpt lat="39.976712" lon="-75.195739">
        <ele>9.8</ele>
        </trkpt>
      <trkpt lat="39.976743" lon="-75.195824">
        <ele>10.0</ele>
        </trkpt>
      <trkpt lat="39.976816" lon="-75.196016">
        <ele>10.2</ele>
        </trkpt>
      <trkpt lat="39.976885" lon="-75.196234">
        <ele>10.4</ele>
        </trkpt>
      <trkpt lat="39.976894" lon="-75.196263">
        <ele>10.4</ele>
        </trkpt>
      <trkpt lat="39.976953" lon="-75.196498">
        <ele>10.0</ele>
        </trkpt>
      <trkpt lat="39.976964" lon="-75.196559">
        <ele>9.8</ele>
        </trkpt>
      <trkpt lat="39.977024" lon="-75.196790">
        <ele>10.0</ele>
        </trkpt>
      <trkpt lat="39.977054" lon="-75.196909">
        <ele>9.8</ele>
        </trkpt>
      <trkpt lat="39.977100" lon="-75.197141">
        <ele>10.0</ele>
        </trkpt>
      <trkpt lat="39.977107" lon="-75.197171">
        <ele>10.2</ele>
        </trkpt>
      <trkpt lat="39.977135" lon="-75.197311">
        <ele>10.2</ele>
        </trkpt>
      <trkpt lat="39.977189" lon="-75.197491">
        <ele>10.2</ele>
        </trkpt>
      <trkpt lat="39.977249" lon="-75.197720">
        <ele>10.4</ele>
        </trkpt>
      <trkpt lat="39.977263" lon="-75.197779">
        <ele>10.6</ele>
        </trkpt>
      <trkpt lat="39.977305" lon="-75.198008">
        <ele>10.2</ele>
        </trkpt>
      <trkpt lat="39.977329" lon="-75.198104">
        <ele>10.2</ele>
        </trkpt>
      <trkpt lat="39.977382" lon="-75.198338">
        <ele>10.2</ele>
        </trkpt>
      <trkpt lat="39.977393" lon="-75.198396">
        <ele>10.2</ele>
        </trkpt>
      <trkpt lat="39.977447" lon="-75.198630">
        <ele>10.6</ele>
        </trkpt>
      <trkpt lat="39.977450" lon="-75.198658">
        <ele>10.6</ele>
        </trkpt>
      <trkpt lat="39.977500" lon="-75.198905">
        <ele>10.6</ele>
        </trkpt>
      <trkpt lat="39.977528" lon="-75.199032">
        <ele>10.4</ele>
        </trkpt>
      <trkpt lat="39.977582" lon="-75.199212">
        <ele>10.4</ele>
        </trkpt>
      <trkpt lat="39.977636" lon="-75.199451">
        <ele>10.4</ele>
        </trkpt>
      <trkpt lat="39.977650" lon="-75.199516">
        <ele>10.4</ele>
        </trkpt>
      <trkpt lat="39.977705" lon="-75.199751">
        <ele>10.2</ele>
        </trkpt>
      <trkpt lat="39.977777" lon="-75.199984">
        <ele>10.2</ele>
        </trkpt>
      <trkpt lat="39.977804" lon="-75.200039">
        <ele>10.2</ele>
        </trkpt>
      <trkpt lat="39.977899" lon="-75.200242">
        <ele>10.2</ele>
        </trkpt>
      <trkpt lat="39.977920" lon="-75.200297">
        <ele>10.2</ele>
        </trkpt>
      <trkpt lat="39.978016" lon="-75.200467">
        <ele>10.4</ele>
        </trkpt>
      <trkpt lat="39.978137" lon="-75.200648">
        <ele>10.6</ele>
        </trkpt>
      <trkpt lat="39.978275" lon="-75.200825">
        <ele>10.6</ele>
        </trkpt>
      <trkpt lat="39.978296" lon="-75.200843">
        <ele>10.6</ele>
        </trkpt>
      <trkpt lat="39.978438" lon="-75.201024">
        <ele>10.6</ele>
        </trkpt>
      <trkpt lat="39.978596" lon="-75.201176">
        <ele>10.4</ele>
        </trkpt>
      <trkpt lat="39.978632" lon="-75.201220">
        <ele>10.4</ele>
        </trkpt>
      <trkpt lat="39.978748" lon="-75.201363">
        <ele>10.4</ele>
        </trkpt>
      <trkpt lat="39.978865" lon="-75.201556">
        <ele>11.0</ele>
        </trkpt>
      <trkpt lat="39.978973" lon="-75.201741">
        <ele>10.8</ele>
        </trkpt>
      <trkpt lat="39.979061" lon="-75.201900">
        <ele>11.0</ele>
        </trkpt>
      <trkpt lat="39.979165" lon="-75.202105">
        <ele>10.8</ele>
        </trkpt>
      <trkpt lat="39.979289" lon="-75.202257">
        <ele>11.0</ele>
        </trkpt>
      <trkpt lat="39.979393" lon="-75.202429">
        <ele>11.0</ele>
        </trkpt>
      <trkpt lat="39.979483" lon="-75.202610">
        <ele>11.0</ele>
        </trkpt>
      <trkpt lat="39.979569" lon="-75.202782">
        <ele>11.2</ele>
        </trkpt>
      <trkpt lat="39.979594" lon="-75.202863">
        <ele>11.2</ele>
        </trkpt>
      <trkpt lat="39.979618" lon="-75.202911">
        <ele>11.2</ele>
        </trkpt>
      <trkpt lat="39.979726" lon="-75.203085">
        <ele>10.8</ele>
        </trkpt>
      <trkpt lat="39.979866" lon="-75.203258">
        <ele>10.8</ele>
        </trkpt>
      <trkpt lat="39.979896" lon="-75.203311">
        <ele>10.8</ele>
        </trkpt>
      <trkpt lat="39.980024" lon="-75.203500">
        <ele>10.4</ele>
        </trkpt>
      <trkpt lat="39.980136" lon="-75.203707">
        <ele>10.4</ele>
        </trkpt>
      <trkpt lat="39.980165" lon="-75.203754">
        <ele>10.2</ele>
        </trkpt>
      <trkpt lat="39.980212" lon="-75.203828">
        <ele>10.4</ele>
        </trkpt>
      <trkpt lat="39.980267" lon="-75.203921">
        <ele>10.2</ele>
        </trkpt>
      <trkpt lat="39.980337" lon="-75.204059">
        <ele>10.2</ele>
        </trkpt>
      <trkpt lat="39.980422" lon="-75.204229">
        <ele>10.2</ele>
        </trkpt>
      <trkpt lat="39.980490" lon="-75.204467">
        <ele>10.2</ele>
        </trkpt>
      <trkpt lat="39.980501" lon="-75.204489">
        <ele>10.2</ele>
        </trkpt>
      <trkpt lat="39.980609" lon="-75.204692">
        <ele>10.2</ele>
        </trkpt>
      <trkpt lat="39.980626" lon="-75.204716">
        <ele>10.2</ele>
        </trkpt>
      <trkpt lat="39.980751" lon="-75.204877">
        <ele>10.0</ele>
        </trkpt>
      <trkpt lat="39.980816" lon="-75.204972">
        <ele>10.0</ele>
        </trkpt>
      <trkpt lat="39.980858" lon="-75.205018">
        <ele>10.0</ele>
        </trkpt>
      <trkpt lat="39.981000" lon="-75.205168">
        <ele>10.0</ele>
        </trkpt>
      <trkpt lat="39.981025" lon="-75.205212">
        <ele>10.0</ele>
        </trkpt>
      <trkpt lat="39.981170" lon="-75.205381">
        <ele>9.8</ele>
        </trkpt>
      <trkpt lat="39.981187" lon="-75.205399">
        <ele>9.6</ele>
        </trkpt>
      <trkpt lat="39.981344" lon="-75.205534">
        <ele>9.6</ele>
        </trkpt>
      <trkpt lat="39.981381" lon="-75.205572">
        <ele>9.6</ele>
        </trkpt>
      <trkpt lat="39.981558" lon="-75.205689">
        <ele>9.6</ele>
        </trkpt>
      <trkpt lat="39.981586" lon="-75.205704">
        <ele>9.6</ele>
        </trkpt>
      <trkpt lat="39.981758" lon="-75.205819">
        <ele>9.8</ele>
        </trkpt>
      <trkpt lat="39.981798" lon="-75.205844">
        <ele>9.8</ele>
        </trkpt>
      <trkpt lat="39.981954" lon="-75.205925">
        <ele>10.0</ele>
        </trkpt>
      <trkpt lat="39.982015" lon="-75.205978">
        <ele>10.2</ele>
        </trkpt>
      <trkpt lat="39.982103" lon="-75.206013">
        <ele>10.2</ele>
        </trkpt>
      <trkpt lat="39.982257" lon="-75.206067">
        <ele>10.4</ele>
        </trkpt>
      <trkpt lat="39.982443" lon="-75.206143">
        <ele>10.4</ele>
        </trkpt>
      <trkpt lat="39.982585" lon="-75.206182">
        <ele>10.4</ele>
        </trkpt>
      <trkpt lat="39.982736" lon="-75.206221">
        <ele>10.6</ele>
        </trkpt>
      <trkpt lat="39.982888" lon="-75.206258">
        <ele>10.8</ele>
        </trkpt>
      <trkpt lat="39.983078" lon="-75.206239">
        <ele>10.8</ele>
        </trkpt>
      <trkpt lat="39.983254" lon="-75.206234">
        <ele>10.4</ele>
        </trkpt>
      <trkpt lat="39.983416" lon="-75.206145">
        <ele>10.2</ele>
        </trkpt>
      <trkpt lat="39.983591" lon="-75.206013">
        <ele>10.0</ele>
        </trkpt>
      <trkpt lat="39.983637" lon="-75.205991">
        <ele>9.8</ele>
        </trkpt>
      <trkpt lat="39.983827" lon="-75.205892">
        <ele>9.6</ele>
        </trkpt>
      <trkpt lat="39.983874" lon="-75.205875">
        <ele>9.4</ele>
        </trkpt>
      <trkpt lat="39.983899" lon="-75.205867">
        <ele>9.4</ele>
        </trkpt>
      <trkpt lat="39.983985" lon="-75.205835">
        <ele>9.4</ele>
        </trkpt>
      <trkpt lat="39.984171" lon="-75.205862">
        <ele>9.4</ele>
        </trkpt>
      <trkpt lat="39.984371" lon="-75.205899">
        <ele>10.0</ele>
        </trkpt>
      <trkpt lat="39.984570" lon="-75.205877">
        <ele>10.0</ele>
        </trkpt>
      <trkpt lat="39.984758" lon="-75.205834">
        <ele>10.0</ele>
        </trkpt>
      <trkpt lat="39.984783" lon="-75.205829">
        <ele>10.0</ele>
        </trkpt>
      <trkpt lat="39.984973" lon="-75.205751">
        <ele>10.0</ele>
        </trkpt>
      <trkpt lat="39.984997" lon="-75.205743">
        <ele>10.0</ele>
        </trkpt>
      <trkpt lat="39.985161" lon="-75.205725">
        <ele>10.2</ele>
        </trkpt>
      <trkpt lat="39.985345" lon="-75.205691">
        <ele>10.0</ele>
        </trkpt>
      <trkpt lat="39.985372" lon="-75.205687">
        <ele>10.0</ele>
        </trkpt>
      <trkpt lat="39.985443" lon="-75.205662">
        <ele>10.0</ele>
        </trkpt>
      <trkpt lat="39.985577" lon="-75.205600">
        <ele>9.8</ele>
        </trkpt>
      <trkpt lat="39.985706" lon="-75.205530">
        <ele>9.6</ele>
        </trkpt>
      <trkpt lat="39.985768" lon="-75.205501">
        <ele>9.6</ele>
        </trkpt>
      <trkpt lat="39.985946" lon="-75.205394">
        <ele>9.6</ele>
        </trkpt>
      <trkpt lat="39.985982" lon="-75.205368">
        <ele>9.6</ele>
        </trkpt>
      <trkpt lat="39.986126" lon="-75.205281">
        <ele>9.4</ele>
        </trkpt>
      <trkpt lat="39.986269" lon="-75.205141">
        <ele>9.2</ele>
        </trkpt>
      <trkpt lat="39.986418" lon="-75.204996">
        <ele>9.2</ele>
        </trkpt>
      <trkpt lat="39.986431" lon="-75.204984">
        <ele>9.2</ele>
        </trkpt>
      <trkpt lat="39.986446" lon="-75.204982">
        <ele>9.2</ele>
        </trkpt>
      <trkpt lat="39.986474" lon="-75.204972">
        <ele>9.2</ele>
        </trkpt>
      <trkpt lat="39.986671" lon="-75.204856">
        <ele>8.8</ele>
        </trkpt>
      <trkpt lat="39.986682" lon="-75.204815">
        <ele>8.8</ele>
        </trkpt>
      <trkpt lat="39.986698" lon="-75.204767">
        <ele>9.0</ele>
        </trkpt>
      <trkpt lat="39.986714" lon="-75.204755">
        <ele>9.0</ele>
        </trkpt>
      <trkpt lat="39.986829" lon="-75.204671">
        <ele>9.8</ele>
        </trkpt>
      <trkpt lat="39.986992" lon="-75.204551">
        <ele>10.0</ele>
        </trkpt>
      <trkpt lat="39.987125" lon="-75.204452">
        <ele>10.0</ele>
        </trkpt>
      <trkpt lat="39.987252" lon="-75.204379">
        <ele>10.0</ele>
        </trkpt>
      <trkpt lat="39.987426" lon="-75.204282">
        <ele>10.0</ele>
        </trkpt>
      <trkpt lat="39.987576" lon="-75.204131">
        <ele>9.8</ele>
        </trkpt>
      <trkpt lat="39.987594" lon="-75.204111">
        <ele>9.8</ele>
        </trkpt>
      <trkpt lat="39.987643" lon="-75.204077">
        <ele>10.0</ele>
        </trkpt>
      <trkpt lat="39.987789" lon="-75.203975">
        <ele>10.0</ele>
        </trkpt>
      <trkpt lat="39.987933" lon="-75.203870">
        <ele>10.0</ele>
        </trkpt>
      <trkpt lat="39.988091" lon="-75.203732">
        <ele>10.0</ele>
        </trkpt>
      <trkpt lat="39.988245" lon="-75.203631">
        <ele>10.2</ele>
        </trkpt>
      <trkpt lat="39.988417" lon="-75.203511">
        <ele>9.8</ele>
        </trkpt>
      <trkpt lat="39.988440" lon="-75.203484">
        <ele>9.8</ele>
        </trkpt>
      <trkpt lat="39.988559" lon="-75.203295">
        <ele>9.4</ele>
        </trkpt>
      <trkpt lat="39.988573" lon="-75.203275">
        <ele>9.4</ele>
        </trkpt>
      <trkpt lat="39.988626" lon="-75.203204">
        <ele>9.4</ele>
        </trkpt>
      <trkpt lat="39.988763" lon="-75.203031">
        <ele>9.4</ele>
        </trkpt>
      <trkpt lat="39.988780" lon="-75.203010">
        <ele>9.2</ele>
        </trkpt>
      <trkpt lat="39.988930" lon="-75.202867">
        <ele>9.2</ele>
        </trkpt>
      <trkpt lat="39.988949" lon="-75.202845">
        <ele>9.2</ele>
        </trkpt>
      <trkpt lat="39.989097" lon="-75.202697">
        <ele>9.2</ele>
        </trkpt>
      <trkpt lat="39.989249" lon="-75.202533">
        <ele>9.0</ele>
        </trkpt>
      <trkpt lat="39.989282" lon="-75.202492">
        <ele>9.0</ele>
        </trkpt>
      <trkpt lat="39.989441" lon="-75.202339">
        <ele>9.0</ele>
        </trkpt>
      <trkpt lat="39.989460" lon="-75.202326">
        <ele>9.0</ele>
        </trkpt>
      <trkpt lat="39.989636" lon="-75.202210">
        <ele>9.0</ele>
        </trkpt>
      <trkpt lat="39.989784" lon="-75.202127">
        <ele>9.2</ele>
        </trkpt>
      <trkpt lat="39.989942" lon="-75.202029">
        <ele>9.6</ele>
        </trkpt>
      <trkpt lat="39.989981" lon="-75.202005">
        <ele>9.6</ele>
        </trkpt>
      <trkpt lat="39.990030" lon="-75.201977">
        <ele>9.8</ele>
        </trkpt>
      <trkpt lat="39.990105" lon="-75.201917">
        <ele>10.0</ele>
        </trkpt>
      <trkpt lat="39.990274" lon="-75.201819">
        <ele>10.4</ele>
        </trkpt>
      <trkpt lat="39.990294" lon="-75.201799">
        <ele>10.4</ele>
        </trkpt>
      <trkpt lat="39.990311" lon="-75.201784">
        <ele>10.4</ele>
        </trkpt>
      <trkpt lat="39.990416" lon="-75.201677">
        <ele>10.6</ele>
        </trkpt>
      <trkpt lat="39.990543" lon="-75.201494">
        <ele>10.8</ele>
        </trkpt>
      <trkpt lat="39.990671" lon="-75.201344">
        <ele>10.8</ele>
        </trkpt>
      <trkpt lat="39.990685" lon="-75.201324">
        <ele>10.8</ele>
        </trkpt>
      <trkpt lat="39.990803" lon="-75.201138">
        <ele>10.6</ele>
        </trkpt>
      <trkpt lat="39.990814" lon="-75.201099">
        <ele>10.6</ele>
        </trkpt>
      <trkpt lat="39.990917" lon="-75.200902">
        <ele>10.8</ele>
        </trkpt>
      <trkpt lat="39.990940" lon="-75.200888">
        <ele>10.8</ele>
        </trkpt>
      <trkpt lat="39.991090" lon="-75.200744">
        <ele>10.6</ele>
        </trkpt>
      <trkpt lat="39.991107" lon="-75.200723">
        <ele>10.6</ele>
        </trkpt>
      <trkpt lat="39.991219" lon="-75.200538">
        <ele>10.8</ele>
        </trkpt>
      <trkpt lat="39.991236" lon="-75.200516">
        <ele>10.8</ele>
        </trkpt>
      <trkpt lat="39.991327" lon="-75.200385">
        <ele>10.6</ele>
        </trkpt>
      <trkpt lat="39.991438" lon="-75.200225">
        <ele>10.6</ele>
        </trkpt>
      <trkpt lat="39.991557" lon="-75.200033">
        <ele>11.0</ele>
        </trkpt>
      <trkpt lat="39.991585" lon="-75.199987">
        <ele>11.0</ele>
        </trkpt>
      <trkpt lat="39.991698" lon="-75.199798">
        <ele>11.0</ele>
        </trkpt>
      <trkpt lat="39.991726" lon="-75.199744">
        <ele>11.0</ele>
        </trkpt>
      <trkpt lat="39.991778" lon="-75.199587">
        <ele>11.0</ele>
        </trkpt>
      <trkpt lat="39.991834" lon="-75.199344">
        <ele>11.0</ele>
        </trkpt>
      <trkpt lat="39.991845" lon="-75.199318">
        <ele>10.8</ele>
        </trkpt>
      <trkpt lat="39.991974" lon="-75.199135">
        <ele>10.4</ele>
        </trkpt>
      <trkpt lat="39.991996" lon="-75.199105">
        <ele>10.4</ele>
        </trkpt>
      <trkpt lat="39.992109" lon="-75.198957">
        <ele>10.6</ele>
        </trkpt>
      <trkpt lat="39.992127" lon="-75.198929">
        <ele>10.6</ele>
        </trkpt>
      <trkpt lat="39.992271" lon="-75.198767">
        <ele>10.4</ele>
        </trkpt>
      <trkpt lat="39.992411" lon="-75.198616">
        <ele>10.4</ele>
        </trkpt>
      <trkpt lat="39.992470" lon="-75.198556">
        <ele>10.4</ele>
        </trkpt>
      <trkpt lat="39.992634" lon="-75.198505">
        <ele>10.6</ele>
        </trkpt>
      <trkpt lat="39.992834" lon="-75.198387">
        <ele>10.6</ele>
        </trkpt>
      <trkpt lat="39.992855" lon="-75.198369">
        <ele>10.6</ele>
        </trkpt>
      <trkpt lat="39.992955" lon="-75.198234">
        <ele>10.8</ele>
        </trkpt>
      <trkpt lat="39.993092" lon="-75.198069">
        <ele>11.0</ele>
        </trkpt>
      <trkpt lat="39.993225" lon="-75.197935">
        <ele>11.0</ele>
        </trkpt>
      <trkpt lat="39.993290" lon="-75.197887">
        <ele>11.0</ele>
        </trkpt>
      <trkpt lat="39.993341" lon="-75.197824">
        <ele>11.2</ele>
        </trkpt>
      <trkpt lat="39.993354" lon="-75.197800">
        <ele>11.2</ele>
        </trkpt>
      <trkpt lat="39.993402" lon="-75.197734">
        <ele>11.2</ele>
        </trkpt>
      <trkpt lat="39.993476" lon="-75.197648">
        <ele>11.2</ele>
        </trkpt>
      <trkpt lat="39.993490" lon="-75.197629">
        <ele>11.2</ele>
        </trkpt>
      <trkpt lat="39.993608" lon="-75.197491">
        <ele>11.2</ele>
        </trkpt>
      <trkpt lat="39.993670" lon="-75.197423">
        <ele>11.4</ele>
        </trkpt>
      <trkpt lat="39.993705" lon="-75.197383">
        <ele>11.4</ele>
        </trkpt>
      <trkpt lat="39.993838" lon="-75.197231">
        <ele>12.0</ele>
        </trkpt>
      <trkpt lat="39.993997" lon="-75.197090">
        <ele>12.0</ele>
        </trkpt>
      <trkpt lat="39.994036" lon="-75.197060">
        <ele>12.0</ele>
        </trkpt>
      <trkpt lat="39.994164" lon="-75.196898">
        <ele>11.8</ele>
        </trkpt>
      <trkpt lat="39.994199" lon="-75.196851">
        <ele>11.8</ele>
        </trkpt>
      <trkpt lat="39.994331" lon="-75.196707">
        <ele>11.8</ele>
        </trkpt>
      <trkpt lat="39.994351" lon="-75.196695">
        <ele>11.8</ele>
        </trkpt>
      <trkpt lat="39.994478" lon="-75.196615">
        <ele>12.4</ele>
        </trkpt>
      <trkpt lat="39.994516" lon="-75.196580">
        <ele>12.4</ele>
        </trkpt>
      <trkpt lat="39.994670" lon="-75.196400">
        <ele>13.2</ele>
        </trkpt>
      <trkpt lat="39.994690" lon="-75.196379">
        <ele>13.2</ele>
        </trkpt>
      <trkpt lat="39.994823" lon="-75.196263">
        <ele>13.4</ele>
        </trkpt>
      <trkpt lat="39.994879" lon="-75.196210">
        <ele>13.4</ele>
        </trkpt>
      <trkpt lat="39.994969" lon="-75.196131">
        <ele>13.6</ele>
        </trkpt>
      <trkpt lat="39.995090" lon="-75.196037">
        <ele>13.8</ele>
        </trkpt>
      <trkpt lat="39.995158" lon="-75.196001">
        <ele>14.0</ele>
        </trkpt>
      <trkpt lat="39.995273" lon="-75.195893">
        <ele>13.8</ele>
        </trkpt>
      <trkpt lat="39.995355" lon="-75.195848">
        <ele>13.8</ele>
        </trkpt>
      <trkpt lat="39.995447" lon="-75.195776">
        <ele>14.0</ele>
        </trkpt>
      <trkpt lat="39.995492" lon="-75.195747">
        <ele>13.8</ele>
        </trkpt>
      <trkpt lat="39.995652" lon="-75.195629">
        <ele>14.0</ele>
        </trkpt>
      <trkpt lat="39.995677" lon="-75.195612">
        <ele>14.0</ele>
        </trkpt>
      <trkpt lat="39.995789" lon="-75.195554">
        <ele>14.4</ele>
        </trkpt>
      <trkpt lat="39.995839" lon="-75.195518">
        <ele>14.4</ele>
        </trkpt>
      <trkpt lat="39.995880" lon="-75.195453">
        <ele>14.6</ele>
        </trkpt>
      <trkpt lat="39.995892" lon="-75.195435">
        <ele>14.6</ele>
        </trkpt>
      <trkpt lat="39.995978" lon="-75.195379">
        <ele>14.8</ele>
        </trkpt>
      <trkpt lat="39.996014" lon="-75.195357">
        <ele>15.0</ele>
        </trkpt>
      <trkpt lat="39.996091" lon="-75.195310">
        <ele>15.0</ele>
        </trkpt>
      <trkpt lat="39.996112" lon="-75.195306">
        <ele>15.0</ele>
        </trkpt>
      <trkpt lat="39.996251" lon="-75.195219">
        <ele>15.0</ele>
        </trkpt>
      <trkpt lat="39.996415" lon="-75.195104">
        <ele>14.8</ele>
        </trkpt>
      <trkpt lat="39.996461" lon="-75.195061">
        <ele>14.6</ele>
        </trkpt>
      <trkpt lat="39.996622" lon="-75.194937">
        <ele>14.6</ele>
        </trkpt>
      <trkpt lat="39.996663" lon="-75.194901">
        <ele>14.6</ele>
        </trkpt>
      <trkpt lat="39.996808" lon="-75.194809">
        <ele>14.4</ele>
        </trkpt>
      <trkpt lat="39.996973" lon="-75.194676">
        <ele>14.0</ele>
        </trkpt>
      <trkpt lat="39.996997" lon="-75.194649">
        <ele>14.0</ele>
        </trkpt>
      <trkpt lat="39.997155" lon="-75.194516">
        <ele>13.8</ele>
        </trkpt>
      <trkpt lat="39.997176" lon="-75.194496">
        <ele>13.8</ele>
        </trkpt>
      <trkpt lat="39.997311" lon="-75.194344">
        <ele>13.6</ele>
        </trkpt>
      <trkpt lat="39.997488" lon="-75.194174">
        <ele>13.2</ele>
        </trkpt>
      <trkpt lat="39.997488" lon="-75.194174">
        <ele>13.2</ele>
        </trkpt>
      <trkpt lat="39.997669" lon="-75.194025">
        <ele>13.0</ele>
        </trkpt>
      <trkpt lat="39.997753" lon="-75.193981">
        <ele>13.0</ele>
        </trkpt>
      <trkpt lat="39.997912" lon="-75.193875">
        <ele>12.8</ele>
        </trkpt>
      <trkpt lat="39.998088" lon="-75.193764">
        <ele>12.6</ele>
        </trkpt>
      <trkpt lat="39.998223" lon="-75.193706">
        <ele>12.6</ele>
        </trkpt>
      <trkpt lat="39.998360" lon="-75.193657">
        <ele>12.6</ele>
        </trkpt>
      <trkpt lat="39.998426" lon="-75.193621">
        <ele>12.6</ele>
        </trkpt>
      <trkpt lat="39.998514" lon="-75.193591">
        <ele>12.4</ele>
        </trkpt>
      <trkpt lat="39.998607" lon="-75.193557">
        <ele>12.4</ele>
        </trkpt>
      <trkpt lat="39.998722" lon="-75.193503">
        <ele>12.4</ele>
        </trkpt>
      <trkpt lat="39.998788" lon="-75.193466">
        <ele>12.4</ele>
        </trkpt>
      <trkpt lat="39.998920" lon="-75.193400">
        <ele>12.4</ele>
        </trkpt>
      <trkpt lat="39.999098" lon="-75.193351">
        <ele>12.6</ele>
        </trkpt>
      <trkpt lat="39.999165" lon="-75.193322">
        <ele>12.6</ele>
        </trkpt>
      <trkpt lat="39.999341" lon="-75.193241">
        <ele>12.8</ele>
        </trkpt>
      <trkpt lat="39.999370" lon="-75.193234">
        <ele>12.8</ele>
        </trkpt>
      <trkpt lat="39.999566" lon="-75.193180">
        <ele>13.0</ele>
        </trkpt>
      <trkpt lat="39.999756" lon="-75.193120">
        <ele>12.8</ele>
        </trkpt>
      <trkpt lat="39.999957" lon="-75.193085">
        <ele>13.0</ele>
        </trkpt>
      <trkpt lat="39.999979" lon="-75.193077">
        <ele>13.0</ele>
        </trkpt>
      <trkpt lat="40.000160" lon="-75.192987">
        <ele>13.0</ele>
        </trkpt>
      <trkpt lat="40.000184" lon="-75.192973">
        <ele>13.0</ele>
        </trkpt>
      <trkpt lat="40.000312" lon="-75.192872">
        <ele>12.8</ele>
        </trkpt>
      <trkpt lat="40.000463" lon="-75.192739">
        <ele>12.6</ele>
        </trkpt>
      <trkpt lat="40.000559" lon="-75.192696">
        <ele>12.8</ele>
        </trkpt>
      <trkpt lat="40.000702" lon="-75.192673">
        <ele>12.8</ele>
        </trkpt>
      <trkpt lat="40.000889" lon="-75.192596">
        <ele>12.4</ele>
        </trkpt>
      <trkpt lat="40.001083" lon="-75.192537">
        <ele>12.4</ele>
        </trkpt>
      <trkpt lat="40.001105" lon="-75.192530">
        <ele>12.4</ele>
        </trkpt>
      <trkpt lat="40.001272" lon="-75.192514">
        <ele>12.4</ele>
        </trkpt>
      <trkpt lat="40.001457" lon="-75.192512">
        <ele>12.2</ele>
        </trkpt>
      <trkpt lat="40.001478" lon="-75.192512">
        <ele>12.2</ele>
        </trkpt>
      <trkpt lat="40.001661" lon="-75.192522">
        <ele>12.2</ele>
        </trkpt>
      <trkpt lat="40.001728" lon="-75.192540">
        <ele>12.2</ele>
        </trkpt>
      <trkpt lat="40.001911" lon="-75.192532">
        <ele>12.4</ele>
        </trkpt>
      <trkpt lat="40.001935" lon="-75.192530">
        <ele>12.4</ele>
        </trkpt>
      <trkpt lat="40.002137" lon="-75.192512">
        <ele>12.8</ele>
        </trkpt>
      <trkpt lat="40.002161" lon="-75.192518">
        <ele>12.8</ele>
        </trkpt>
      <trkpt lat="40.002329" lon="-75.192538">
        <ele>13.0</ele>
        </trkpt>
      <trkpt lat="40.002492" lon="-75.192537">
        <ele>13.2</ele>
        </trkpt>
      <trkpt lat="40.002671" lon="-75.192491">
        <ele>13.0</ele>
        </trkpt>
      <trkpt lat="40.002694" lon="-75.192486">
        <ele>13.0</ele>
        </trkpt>
      <trkpt lat="40.002881" lon="-75.192491">
        <ele>13.2</ele>
        </trkpt>
      <trkpt lat="40.003032" lon="-75.192510">
        <ele>13.2</ele>
        </trkpt>
      <trkpt lat="40.003085" lon="-75.192518">
        <ele>13.2</ele>
        </trkpt>
      <trkpt lat="40.003292" lon="-75.192547">
        <ele>13.4</ele>
        </trkpt>
      <trkpt lat="40.003364" lon="-75.192536">
        <ele>13.6</ele>
        </trkpt>
      <trkpt lat="40.003471" lon="-75.192521">
        <ele>13.4</ele>
        </trkpt>
      <trkpt lat="40.003667" lon="-75.192508">
        <ele>13.2</ele>
        </trkpt>
      <trkpt lat="40.003736" lon="-75.192513">
        <ele>13.2</ele>
        </trkpt>
      <trkpt lat="40.003762" lon="-75.192513">
        <ele>13.2</ele>
        </trkpt>
      <trkpt lat="40.003916" lon="-75.192569">
        <ele>13.4</ele>
        </trkpt>
      <trkpt lat="40.003957" lon="-75.192572">
        <ele>13.4</ele>
        </trkpt>
      <trkpt lat="40.004121" lon="-75.192580">
        <ele>13.6</ele>
        </trkpt>
      <trkpt lat="40.004314" lon="-75.192610">
        <ele>13.4</ele>
        </trkpt>
      <trkpt lat="40.004337" lon="-75.192617">
        <ele>13.4</ele>
        </trkpt>
      <trkpt lat="40.004516" lon="-75.192680">
        <ele>13.4</ele>
        </trkpt>
      <trkpt lat="40.004537" lon="-75.192696">
        <ele>13.4</ele>
        </trkpt>
      <trkpt lat="40.004716" lon="-75.192785">
        <ele>13.4</ele>
        </trkpt>
      <trkpt lat="40.004915" lon="-75.192854">
        <ele>13.8</ele>
        </trkpt>
      <trkpt lat="40.004967" lon="-75.192870">
        <ele>13.8</ele>
        </trkpt>
      <trkpt lat="40.005113" lon="-75.192891">
        <ele>13.8</ele>
        </trkpt>
      <trkpt lat="40.005289" lon="-75.192987">
        <ele>14.0</ele>
        </trkpt>
      <trkpt lat="40.005467" lon="-75.193071">
        <ele>14.2</ele>
        </trkpt>
      <trkpt lat="40.005516" lon="-75.193082">
        <ele>14.2</ele>
        </trkpt>
      <trkpt lat="40.005698" lon="-75.193145">
        <ele>14.4</ele>
        </trkpt>
      <trkpt lat="40.005717" lon="-75.193156">
        <ele>14.4</ele>
        </trkpt>
      <trkpt lat="40.005786" lon="-75.193179">
        <ele>14.6</ele>
        </trkpt>
      <trkpt lat="40.005871" lon="-75.193233">
        <ele>15.0</ele>
        </trkpt>
      <trkpt lat="40.006041" lon="-75.193354">
        <ele>15.4</ele>
        </trkpt>
      <trkpt lat="40.006193" lon="-75.193464">
        <ele>15.6</ele>
        </trkpt>
      <trkpt lat="40.006241" lon="-75.193509">
        <ele>15.8</ele>
        </trkpt>
      <trkpt lat="40.006263" lon="-75.193524">
        <ele>15.8</ele>
        </trkpt>
      <trkpt lat="40.006392" lon="-75.193632">
        <ele>15.8</ele>
        </trkpt>
      <trkpt lat="40.006504" lon="-75.193783">
        <ele>15.4</ele>
        </trkpt>
      <trkpt lat="40.006640" lon="-75.193967">
        <ele>15.2</ele>
        </trkpt>
      <trkpt lat="40.006655" lon="-75.193991">
        <ele>15.2</ele>
        </trkpt>
      <trkpt lat="40.006687" lon="-75.194103">
        <ele>15.0</ele>
        </trkpt>
      <trkpt lat="40.006698" lon="-75.194158">
        <ele>15.0</ele>
        </trkpt>
      <trkpt lat="40.006758" lon="-75.194348">
        <ele>15.0</ele>
        </trkpt>
      <trkpt lat="40.006795" lon="-75.194550">
        <ele>15.2</ele>
        </trkpt>
      <trkpt lat="40.006859" lon="-75.194786">
        <ele>15.2</ele>
        </trkpt>
      <trkpt lat="40.006911" lon="-75.194977">
        <ele>15.2</ele>
        </trkpt>
      <trkpt lat="40.006965" lon="-75.195221">
        <ele>15.2</ele>
        </trkpt>
      <trkpt lat="40.006973" lon="-75.195250">
        <ele>15.2</ele>
        </trkpt>
      <trkpt lat="40.007023" lon="-75.195503">
        <ele>15.0</ele>
        </trkpt>
      <trkpt lat="40.007033" lon="-75.195531">
        <ele>15.0</ele>
        </trkpt>
      <trkpt lat="40.007078" lon="-75.195749">
        <ele>14.6</ele>
        </trkpt>
      <trkpt lat="40.007092" lon="-75.195809">
        <ele>14.6</ele>
        </trkpt>
      <trkpt lat="40.007130" lon="-75.196055">
        <ele>14.8</ele>
        </trkpt>
      <trkpt lat="40.007166" lon="-75.196231">
        <ele>15.0</ele>
        </trkpt>
      <trkpt lat="40.007207" lon="-75.196431">
        <ele>15.6</ele>
        </trkpt>
      <trkpt lat="40.007225" lon="-75.196681">
        <ele>16.6</ele>
        </trkpt>
      <trkpt lat="40.007258" lon="-75.196926">
        <ele>17.4</ele>
        </trkpt>
      <trkpt lat="40.007269" lon="-75.196985">
        <ele>17.8</ele>
        </trkpt>
      <trkpt lat="40.007309" lon="-75.197220">
        <ele>18.6</ele>
        </trkpt>
      <trkpt lat="40.007315" lon="-75.197249">
        <ele>18.8</ele>
        </trkpt>
      <trkpt lat="40.007350" lon="-75.197415">
        <ele>19.6</ele>
        </trkpt>
      <trkpt lat="40.007359" lon="-75.197471">
        <ele>19.8</ele>
        </trkpt>
      <trkpt lat="40.007366" lon="-75.197649">
        <ele>20.6</ele>
        </trkpt>
      <trkpt lat="40.007398" lon="-75.197768">
        <ele>21.0</ele>
        </trkpt>
      <trkpt lat="40.007468" lon="-75.197850">
        <ele>21.2</ele>
        </trkpt>
      <trkpt lat="40.007590" lon="-75.197866">
        <ele>21.0</ele>
        </trkpt>
      <trkpt lat="40.007602" lon="-75.197858">
        <ele>21.2</ele>
        </trkpt>
      <trkpt lat="40.007661" lon="-75.197841">
        <ele>21.8</ele>
        </trkpt>
      <trkpt lat="40.007726" lon="-75.197828">
        <ele>21.8</ele>
        </trkpt>
      <trkpt lat="40.007741" lon="-75.197821">
        <ele>21.8</ele>
        </trkpt>
      <trkpt lat="40.007764" lon="-75.197807">
        <ele>21.8</ele>
        </trkpt>
      <trkpt lat="40.007884" lon="-75.197713">
        <ele>21.6</ele>
        </trkpt>
      <trkpt lat="40.008048" lon="-75.197629">
        <ele>20.8</ele>
        </trkpt>
      <trkpt lat="40.008067" lon="-75.197618">
        <ele>20.8</ele>
        </trkpt>
      <trkpt lat="40.008248" lon="-75.197485">
        <ele>20.2</ele>
        </trkpt>
      <trkpt lat="40.008303" lon="-75.197451">
        <ele>20.4</ele>
        </trkpt>
      <trkpt lat="40.008375" lon="-75.197426">
        <ele>20.2</ele>
        </trkpt>
      <trkpt lat="40.008573" lon="-75.197339">
        <ele>20.0</ele>
        </trkpt>
      <trkpt lat="40.008592" lon="-75.197328">
        <ele>20.0</ele>
        </trkpt>
      <trkpt lat="40.008699" lon="-75.197258">
        <ele>19.6</ele>
        </trkpt>
      <trkpt lat="40.008818" lon="-75.197155">
        <ele>19.6</ele>
        </trkpt>
      <trkpt lat="40.008900" lon="-75.197090">
        <ele>19.4</ele>
        </trkpt>
      <trkpt lat="40.008937" lon="-75.197050">
        <ele>19.4</ele>
        </trkpt>
      <trkpt lat="40.008959" lon="-75.197033">
        <ele>19.4</ele>
        </trkpt>
      <trkpt lat="40.008983" lon="-75.196977">
        <ele>19.4</ele>
        </trkpt>
      <trkpt lat="40.008986" lon="-75.196908">
        <ele>19.2</ele>
        </trkpt>
      <trkpt lat="40.008977" lon="-75.196840">
        <ele>18.8</ele>
        </trkpt>
      <trkpt lat="40.008943" lon="-75.196681">
        <ele>18.0</ele>
        </trkpt>
      <trkpt lat="40.008929" lon="-75.196618">
        <ele>17.8</ele>
        </trkpt>
      <trkpt lat="40.008878" lon="-75.196360">
        <ele>17.4</ele>
        </trkpt>
      <trkpt lat="40.008872" lon="-75.196330">
        <ele>17.4</ele>
        </trkpt>
      <trkpt lat="40.008861" lon="-75.196249">
        <ele>16.8</ele>
        </trkpt>
      <trkpt lat="40.008827" lon="-75.196104">
        <ele>16.2</ele>
        </trkpt>
      <trkpt lat="40.008797" lon="-75.195968">
        <ele>15.8</ele>
        </trkpt>
      <trkpt lat="40.008769" lon="-75.195824">
        <ele>15.2</ele>
        </trkpt>
      <trkpt lat="40.008730" lon="-75.195683">
        <ele>14.8</ele>
        </trkpt>
      <trkpt lat="40.008686" lon="-75.195567">
        <ele>14.6</ele>
        </trkpt>
      <trkpt lat="40.008620" lon="-75.195363">
        <ele>14.4</ele>
        </trkpt>
      <trkpt lat="40.008530" lon="-75.195162">
        <ele>14.2</ele>
        </trkpt>
      <trkpt lat="40.008434" lon="-75.194929">
        <ele>14.0</ele>
        </trkpt>
      <trkpt lat="40.008422" lon="-75.194901">
        <ele>14.0</ele>
        </trkpt>
      <trkpt lat="40.008327" lon="-75.194694">
        <ele>14.0</ele>
        </trkpt>
      <trkpt lat="40.008302" lon="-75.194616">
        <ele>14.0</ele>
        </trkpt>
      <trkpt lat="40.008210" lon="-75.194391">
        <ele>14.0</ele>
        </trkpt>
      <trkpt lat="40.008198" lon="-75.194363">
        <ele>14.0</ele>
        </trkpt>
      <trkpt lat="40.008174" lon="-75.194306">
        <ele>13.8</ele>
        </trkpt>
      <trkpt lat="40.008121" lon="-75.194162">
        <ele>13.2</ele>
        </trkpt>
      <trkpt lat="40.008016" lon="-75.193941">
        <ele>13.0</ele>
        </trkpt>
      <trkpt lat="40.007977" lon="-75.193866">
        <ele>13.2</ele>
        </trkpt>
      <trkpt lat="40.007903" lon="-75.193651">
        <ele>13.4</ele>
        </trkpt>
      <trkpt lat="40.007890" lon="-75.193624">
        <ele>13.2</ele>
        </trkpt>
      <trkpt lat="40.007801" lon="-75.193414">
        <ele>13.2</ele>
        </trkpt>
      <trkpt lat="40.007703" lon="-75.193180">
        <ele>12.8</ele>
        </trkpt>
      <trkpt lat="40.007665" lon="-75.193097">
        <ele>12.6</ele>
        </trkpt>
      <trkpt lat="40.007624" lon="-75.193017">
        <ele>12.4</ele>
        </trkpt>
      <trkpt lat="40.007518" lon="-75.192840">
        <ele>12.2</ele>
        </trkpt>
      <trkpt lat="40.007396" lon="-75.192643">
        <ele>12.2</ele>
        </trkpt>
      <trkpt lat="40.007361" lon="-75.192584">
        <ele>12.2</ele>
        </trkpt>
      <trkpt lat="40.007250" lon="-75.192385">
        <ele>12.2</ele>
        </trkpt>
      <trkpt lat="40.007131" lon="-75.192232">
        <ele>11.6</ele>
        </trkpt>
      <trkpt lat="40.007068" lon="-75.192140">
        <ele>11.6</ele>
        </trkpt>
      <trkpt lat="40.006917" lon="-75.191976">
        <ele>12.0</ele>
        </trkpt>
      <trkpt lat="40.006759" lon="-75.191825">
        <ele>12.6</ele>
        </trkpt>
      <trkpt lat="40.006718" lon="-75.191774">
        <ele>12.6</ele>
        </trkpt>
      <trkpt lat="40.006595" lon="-75.191621">
        <ele>13.2</ele>
        </trkpt>
      <trkpt lat="40.006471" lon="-75.191535">
        <ele>13.2</ele>
        </trkpt>
      <trkpt lat="40.006366" lon="-75.191441">
        <ele>13.2</ele>
        </trkpt>
      <trkpt lat="40.006266" lon="-75.191368">
        <ele>13.2</ele>
        </trkpt>
      <trkpt lat="40.006243" lon="-75.191353">
        <ele>13.2</ele>
        </trkpt>
      <trkpt lat="40.006054" lon="-75.191259">
        <ele>13.2</ele>
        </trkpt>
      <trkpt lat="40.005999" lon="-75.191233">
        <ele>13.2</ele>
        </trkpt>
      <trkpt lat="40.005832" lon="-75.191142">
        <ele>13.0</ele>
        </trkpt>
      <trkpt lat="40.005733" lon="-75.191091">
        <ele>13.2</ele>
        </trkpt>
      <trkpt lat="40.005550" lon="-75.191027">
        <ele>13.0</ele>
        </trkpt>
      <trkpt lat="40.005375" lon="-75.190953">
        <ele>13.4</ele>
        </trkpt>
      <trkpt lat="40.005202" lon="-75.190848">
        <ele>13.6</ele>
        </trkpt>
      <trkpt lat="40.005179" lon="-75.190840">
        <ele>13.6</ele>
        </trkpt>
      <trkpt lat="40.005157" lon="-75.190831">
        <ele>13.8</ele>
        </trkpt>
      <trkpt lat="40.004964" lon="-75.190763">
        <ele>14.2</ele>
        </trkpt>
      <trkpt lat="40.004915" lon="-75.190745">
        <ele>14.2</ele>
        </trkpt>
      <trkpt lat="40.004772" lon="-75.190711">
        <ele>14.4</ele>
        </trkpt>
      <trkpt lat="40.004751" lon="-75.190711">
        <ele>14.6</ele>
        </trkpt>
      <trkpt lat="40.004551" lon="-75.190672">
        <ele>14.6</ele>
        </trkpt>
      <trkpt lat="40.004526" lon="-75.190669">
        <ele>14.6</ele>
        </trkpt>
      <trkpt lat="40.004333" lon="-75.190682">
        <ele>14.4</ele>
        </trkpt>
      <trkpt lat="40.004285" lon="-75.190680">
        <ele>14.4</ele>
        </trkpt>
      <trkpt lat="40.004103" lon="-75.190693">
        <ele>14.4</ele>
        </trkpt>
      <trkpt lat="40.004078" lon="-75.190690">
        <ele>14.6</ele>
        </trkpt>
      <trkpt lat="40.004002" lon="-75.190663">
        <ele>14.8</ele>
        </trkpt>
      <trkpt lat="40.003867" lon="-75.190640">
        <ele>14.6</ele>
        </trkpt>
      <trkpt lat="40.003678" lon="-75.190547">
        <ele>14.6</ele>
        </trkpt>
      <trkpt lat="40.003605" lon="-75.190513">
        <ele>14.6</ele>
        </trkpt>
      <trkpt lat="40.003403" lon="-75.190485">
        <ele>14.6</ele>
        </trkpt>
      <trkpt lat="40.003304" lon="-75.190475">
        <ele>14.6</ele>
        </trkpt>
      <trkpt lat="40.003209" lon="-75.190464">
        <ele>14.6</ele>
        </trkpt>
      <trkpt lat="40.003115" lon="-75.190463">
        <ele>14.6</ele>
        </trkpt>
      <trkpt lat="40.002918" lon="-75.190435">
        <ele>14.8</ele>
        </trkpt>
      <trkpt lat="40.002891" lon="-75.190427">
        <ele>14.8</ele>
        </trkpt>
      <trkpt lat="40.002700" lon="-75.190373">
        <ele>14.8</ele>
        </trkpt>
      <trkpt lat="40.002674" lon="-75.190367">
        <ele>14.8</ele>
        </trkpt>
      <trkpt lat="40.002488" lon="-75.190324">
        <ele>15.0</ele>
        </trkpt>
      <trkpt lat="40.002368" lon="-75.190302">
        <ele>15.0</ele>
        </trkpt>
      <trkpt lat="40.002184" lon="-75.190308">
        <ele>15.2</ele>
        </trkpt>
      <trkpt lat="40.002164" lon="-75.190308">
        <ele>15.2</ele>
        </trkpt>
      <trkpt lat="40.002011" lon="-75.190316">
        <ele>15.6</ele>
        </trkpt>
      <trkpt lat="40.001899" lon="-75.190329">
        <ele>15.8</ele>
        </trkpt>
      <trkpt lat="40.001862" lon="-75.190320">
        <ele>16.0</ele>
        </trkpt>
      <trkpt lat="40.001707" lon="-75.190335">
        <ele>15.8</ele>
        </trkpt>
      <trkpt lat="40.001660" lon="-75.190354">
        <ele>16.0</ele>
        </trkpt>
      <trkpt lat="40.001635" lon="-75.190367">
        <ele>16.0</ele>
        </trkpt>
      <trkpt lat="40.001480" lon="-75.190452">
        <ele>15.8</ele>
        </trkpt>
      <trkpt lat="40.001332" lon="-75.190508">
        <ele>16.2</ele>
        </trkpt>
      <trkpt lat="40.001170" lon="-75.190542">
        <ele>16.0</ele>
        </trkpt>
      <trkpt lat="40.001003" lon="-75.190587">
        <ele>16.0</ele>
        </trkpt>
      <trkpt lat="40.000817" lon="-75.190623">
        <ele>16.0</ele>
        </trkpt>
      <trkpt lat="40.000618" lon="-75.190639">
        <ele>16.0</ele>
        </trkpt>
      <trkpt lat="40.000568" lon="-75.190649">
        <ele>16.0</ele>
        </trkpt>
      <trkpt lat="40.000550" lon="-75.190649">
        <ele>16.0</ele>
        </trkpt>
      <trkpt lat="40.000361" lon="-75.190670">
        <ele>16.0</ele>
        </trkpt>
      <trkpt lat="40.000287" lon="-75.190679">
        <ele>16.0</ele>
        </trkpt>
      <trkpt lat="40.000101" lon="-75.190651">
        <ele>15.8</ele>
        </trkpt>
      <trkpt lat="39.999914" lon="-75.190640">
        <ele>16.0</ele>
        </trkpt>
      <trkpt lat="39.999729" lon="-75.190606">
        <ele>16.2</ele>
        </trkpt>
      <trkpt lat="39.999684" lon="-75.190599">
        <ele>16.2</ele>
        </trkpt>
      <trkpt lat="39.999479" lon="-75.190592">
        <ele>16.0</ele>
        </trkpt>
      <trkpt lat="39.999456" lon="-75.190591">
        <ele>16.0</ele>
        </trkpt>
      <trkpt lat="39.999293" lon="-75.190635">
        <ele>16.2</ele>
        </trkpt>
      <trkpt lat="39.999148" lon="-75.190664">
        <ele>16.2</ele>
        </trkpt>
      <trkpt lat="39.999123" lon="-75.190676">
        <ele>16.2</ele>
        </trkpt>
      <trkpt lat="39.998972" lon="-75.190733">
        <ele>16.2</ele>
        </trkpt>
      <trkpt lat="39.998802" lon="-75.190786">
        <ele>16.4</ele>
        </trkpt>
      <trkpt lat="39.998689" lon="-75.190805">
        <ele>16.8</ele>
        </trkpt>
      <trkpt lat="39.998577" lon="-75.190777">
        <ele>17.0</ele>
        </trkpt>
      <trkpt lat="39.998395" lon="-75.190813">
        <ele>17.2</ele>
        </trkpt>
      <trkpt lat="39.998369" lon="-75.190814">
        <ele>17.2</ele>
        </trkpt>
      <trkpt lat="39.998170" lon="-75.190842">
        <ele>17.4</ele>
        </trkpt>
      <trkpt lat="39.998124" lon="-75.190850">
        <ele>17.6</ele>
        </trkpt>
      <trkpt lat="39.998101" lon="-75.190859">
        <ele>17.6</ele>
        </trkpt>
      <trkpt lat="39.997999" lon="-75.190876">
        <ele>17.6</ele>
        </trkpt>
      <trkpt lat="39.997809" lon="-75.190923">
        <ele>17.0</ele>
        </trkpt>
      <trkpt lat="39.997765" lon="-75.190928">
        <ele>17.0</ele>
        </trkpt>
      <trkpt lat="39.997614" lon="-75.190965">
        <ele>17.0</ele>
        </trkpt>
      <trkpt lat="39.997410" lon="-75.190961">
        <ele>17.2</ele>
        </trkpt>
      <trkpt lat="39.997249" lon="-75.190988">
        <ele>17.2</ele>
        </trkpt>
      <trkpt lat="39.997066" lon="-75.191045">
        <ele>17.0</ele>
        </trkpt>
      <trkpt lat="39.997040" lon="-75.191055">
        <ele>17.0</ele>
        </trkpt>
      <trkpt lat="39.996917" lon="-75.191105">
        <ele>17.0</ele>
        </trkpt>
      <trkpt lat="39.996879" lon="-75.191121">
        <ele>16.8</ele>
        </trkpt>
      <trkpt lat="39.996687" lon="-75.191155">
        <ele>17.0</ele>
        </trkpt>
      <trkpt lat="39.996536" lon="-75.191161">
        <ele>16.8</ele>
        </trkpt>
      <trkpt lat="39.996373" lon="-75.191221">
        <ele>16.8</ele>
        </trkpt>
      <trkpt lat="39.996186" lon="-75.191238">
        <ele>17.0</ele>
        </trkpt>
      <trkpt lat="39.996162" lon="-75.191243">
        <ele>17.0</ele>
        </trkpt>
      <trkpt lat="39.996014" lon="-75.191327">
        <ele>17.2</ele>
        </trkpt>
      <trkpt lat="39.995830" lon="-75.191402">
        <ele>17.6</ele>
        </trkpt>
      <trkpt lat="39.995807" lon="-75.191422">
        <ele>17.6</ele>
        </trkpt>
      <trkpt lat="39.995641" lon="-75.191559">
        <ele>17.8</ele>
        </trkpt>
      <trkpt lat="39.995489" lon="-75.191691">
        <ele>18.0</ele>
        </trkpt>
      <trkpt lat="39.995430" lon="-75.191708">
        <ele>18.2</ele>
        </trkpt>
      <trkpt lat="39.995264" lon="-75.191816">
        <ele>18.4</ele>
        </trkpt>
      <trkpt lat="39.995243" lon="-75.191829">
        <ele>18.4</ele>
        </trkpt>
      <trkpt lat="39.995124" lon="-75.191944">
        <ele>18.4</ele>
        </trkpt>
      <trkpt lat="39.994947" lon="-75.192022">
        <ele>18.6</ele>
        </trkpt>
      <trkpt lat="39.994925" lon="-75.192035">
        <ele>18.6</ele>
        </trkpt>
      <trkpt lat="39.994777" lon="-75.192192">
        <ele>17.8</ele>
        </trkpt>
      <trkpt lat="39.994671" lon="-75.192239">
        <ele>17.2</ele>
        </trkpt>
      <trkpt lat="39.994507" lon="-75.192278">
        <ele>17.0</ele>
        </trkpt>
      <trkpt lat="39.994425" lon="-75.192306">
        <ele>16.8</ele>
        </trkpt>
      <trkpt lat="39.994349" lon="-75.192369">
        <ele>16.0</ele>
        </trkpt>
      <trkpt lat="39.994236" lon="-75.192453">
        <ele>16.0</ele>
        </trkpt>
      <trkpt lat="39.994185" lon="-75.192454">
        <ele>16.4</ele>
        </trkpt>
      <trkpt lat="39.993998" lon="-75.192512">
        <ele>17.4</ele>
        </trkpt>
      <trkpt lat="39.993825" lon="-75.192631">
        <ele>16.8</ele>
        </trkpt>
      <trkpt lat="39.993803" lon="-75.192652">
        <ele>16.8</ele>
        </trkpt>
      <trkpt lat="39.993679" lon="-75.192830">
        <ele>16.8</ele>
        </trkpt>
      <trkpt lat="39.993645" lon="-75.192866">
        <ele>16.6</ele>
        </trkpt>
      <trkpt lat="39.993527" lon="-75.192956">
        <ele>17.0</ele>
        </trkpt>
      <trkpt lat="39.993430" lon="-75.193101">
        <ele>17.2</ele>
        </trkpt>
      <trkpt lat="39.993287" lon="-75.193274">
        <ele>17.6</ele>
        </trkpt>
      <trkpt lat="39.993259" lon="-75.193310">
        <ele>17.4</ele>
        </trkpt>
      <trkpt lat="39.993151" lon="-75.193433">
        <ele>17.6</ele>
        </trkpt>
      <trkpt lat="39.993073" lon="-75.193489">
        <ele>17.8</ele>
        </trkpt>
      <trkpt lat="39.992975" lon="-75.193616">
        <ele>17.2</ele>
        </trkpt>
      <trkpt lat="39.992856" lon="-75.193761">
        <ele>16.8</ele>
        </trkpt>
      <trkpt lat="39.992821" lon="-75.193814">
        <ele>16.8</ele>
        </trkpt>
      <trkpt lat="39.992791" lon="-75.193865">
        <ele>16.8</ele>
        </trkpt>
      <trkpt lat="39.992699" lon="-75.194008">
        <ele>17.0</ele>
        </trkpt>
      <trkpt lat="39.992597" lon="-75.194206">
        <ele>17.0</ele>
        </trkpt>
      <trkpt lat="39.992479" lon="-75.194408">
        <ele>17.0</ele>
        </trkpt>
      <trkpt lat="39.992454" lon="-75.194459">
        <ele>17.0</ele>
        </trkpt>
      <trkpt lat="39.992339" lon="-75.194662">
        <ele>17.2</ele>
        </trkpt>
      <trkpt lat="39.992327" lon="-75.194679">
        <ele>17.2</ele>
        </trkpt>
      <trkpt lat="39.992238" lon="-75.194893">
        <ele>17.0</ele>
        </trkpt>
      <trkpt lat="39.992194" lon="-75.194976">
        <ele>17.0</ele>
        </trkpt>
      <trkpt lat="39.992130" lon="-75.195118">
        <ele>16.8</ele>
        </trkpt>
      <trkpt lat="39.992102" lon="-75.195208">
        <ele>16.6</ele>
        </trkpt>
      <trkpt lat="39.991995" lon="-75.195414">
        <ele>16.4</ele>
        </trkpt>
      <trkpt lat="39.991970" lon="-75.195465">
        <ele>16.4</ele>
        </trkpt>
      <trkpt lat="39.991892" lon="-75.195585">
        <ele>16.6</ele>
        </trkpt>
      <trkpt lat="39.991787" lon="-75.195779">
        <ele>16.6</ele>
        </trkpt>
      <trkpt lat="39.991696" lon="-75.195893">
        <ele>16.4</ele>
        </trkpt>
      <trkpt lat="39.991662" lon="-75.195927">
        <ele>16.4</ele>
        </trkpt>
      <trkpt lat="39.991529" lon="-75.196106">
        <ele>16.2</ele>
        </trkpt>
      <trkpt lat="39.991511" lon="-75.196127">
        <ele>16.0</ele>
        </trkpt>
      <trkpt lat="39.991475" lon="-75.196166">
        <ele>15.8</ele>
        </trkpt>
      <trkpt lat="39.991315" lon="-75.196280">
        <ele>15.8</ele>
        </trkpt>
      <trkpt lat="39.991153" lon="-75.196408">
        <ele>15.4</ele>
        </trkpt>
      <trkpt lat="39.991095" lon="-75.196463">
        <ele>15.4</ele>
        </trkpt>
      <trkpt lat="39.990953" lon="-75.196566">
        <ele>16.0</ele>
        </trkpt>
      <trkpt lat="39.990810" lon="-75.196676">
        <ele>15.8</ele>
        </trkpt>
      <trkpt lat="39.990647" lon="-75.196798">
        <ele>15.8</ele>
        </trkpt>
      <trkpt lat="39.990565" lon="-75.196842">
        <ele>16.0</ele>
        </trkpt>
      <trkpt lat="39.990522" lon="-75.196847">
        <ele>16.2</ele>
        </trkpt>
      <trkpt lat="39.990476" lon="-75.196909">
        <ele>16.4</ele>
        </trkpt>
      <trkpt lat="39.990438" lon="-75.196954">
        <ele>16.4</ele>
        </trkpt>
      <trkpt lat="39.990415" lon="-75.196971">
        <ele>16.4</ele>
        </trkpt>
      <trkpt lat="39.990297" lon="-75.197066">
        <ele>16.2</ele>
        </trkpt>
      <trkpt lat="39.990280" lon="-75.197080">
        <ele>16.0</ele>
        </trkpt>
      <trkpt lat="39.990224" lon="-75.197129">
        <ele>16.0</ele>
        </trkpt>
      <trkpt lat="39.990066" lon="-75.197242">
        <ele>16.2</ele>
        </trkpt>
      <trkpt lat="39.990047" lon="-75.197256">
        <ele>16.2</ele>
        </trkpt>
      <trkpt lat="39.989865" lon="-75.197375">
        <ele>16.0</ele>
        </trkpt>
      <trkpt lat="39.989841" lon="-75.197391">
        <ele>16.0</ele>
        </trkpt>
      <trkpt lat="39.989696" lon="-75.197544">
        <ele>16.4</ele>
        </trkpt>
      <trkpt lat="39.989549" lon="-75.197707">
        <ele>16.0</ele>
        </trkpt>
      <trkpt lat="39.989517" lon="-75.197750">
        <ele>16.0</ele>
        </trkpt>
      <trkpt lat="39.989378" lon="-75.197910">
        <ele>16.2</ele>
        </trkpt>
      <trkpt lat="39.989364" lon="-75.197923">
        <ele>16.0</ele>
        </trkpt>
      <trkpt lat="39.989211" lon="-75.198096">
        <ele>16.0</ele>
        </trkpt>
      <trkpt lat="39.989192" lon="-75.198116">
        <ele>16.0</ele>
        </trkpt>
      <trkpt lat="39.989040" lon="-75.198256">
        <ele>16.6</ele>
        </trkpt>
      <trkpt lat="39.989019" lon="-75.198269">
        <ele>16.6</ele>
        </trkpt>
      <trkpt lat="39.988991" lon="-75.198307">
        <ele>16.6</ele>
        </trkpt>
      <trkpt lat="39.988843" lon="-75.198463">
        <ele>16.4</ele>
        </trkpt>
      <trkpt lat="39.988712" lon="-75.198636">
        <ele>16.0</ele>
        </trkpt>
      <trkpt lat="39.988572" lon="-75.198804">
        <ele>16.0</ele>
        </trkpt>
      <trkpt lat="39.988535" lon="-75.198849">
        <ele>15.8</ele>
        </trkpt>
      <trkpt lat="39.988383" lon="-75.199017">
        <ele>16.2</ele>
        </trkpt>
      <trkpt lat="39.988370" lon="-75.199037">
        <ele>16.0</ele>
        </trkpt>
      <trkpt lat="39.988219" lon="-75.199199">
        <ele>15.4</ele>
        </trkpt>
      <trkpt lat="39.988054" lon="-75.199299">
        <ele>15.4</ele>
        </trkpt>
      <trkpt lat="39.988035" lon="-75.199313">
        <ele>15.4</ele>
        </trkpt>
      <trkpt lat="39.987862" lon="-75.199432">
        <ele>15.6</ele>
        </trkpt>
      <trkpt lat="39.987811" lon="-75.199465">
        <ele>16.0</ele>
        </trkpt>
      <trkpt lat="39.987646" lon="-75.199578">
        <ele>16.2</ele>
        </trkpt>
      <trkpt lat="39.987507" lon="-75.199744">
        <ele>15.0</ele>
        </trkpt>
      <trkpt lat="39.987437" lon="-75.199826">
        <ele>15.0</ele>
        </trkpt>
      <trkpt lat="39.987287" lon="-75.199989">
        <ele>15.6</ele>
        </trkpt>
      <trkpt lat="39.987268" lon="-75.200010">
        <ele>15.4</ele>
        </trkpt>
      <trkpt lat="39.987150" lon="-75.200143">
        <ele>15.4</ele>
        </trkpt>
      <trkpt lat="39.987035" lon="-75.200247">
        <ele>14.8</ele>
        </trkpt>
      <trkpt lat="39.987019" lon="-75.200261">
        <ele>14.6</ele>
        </trkpt>
      <trkpt lat="39.986879" lon="-75.200445">
        <ele>15.0</ele>
        </trkpt>
      <trkpt lat="39.986769" lon="-75.200571">
        <ele>15.0</ele>
        </trkpt>
      <trkpt lat="39.986633" lon="-75.200704">
        <ele>15.8</ele>
        </trkpt>
      <trkpt lat="39.986596" lon="-75.200731">
        <ele>16.2</ele>
        </trkpt>
      <trkpt lat="39.986497" lon="-75.200806">
        <ele>16.0</ele>
        </trkpt>
      <trkpt lat="39.986388" lon="-75.200960">
        <ele>16.0</ele>
        </trkpt>
      <trkpt lat="39.986294" lon="-75.201164">
        <ele>16.6</ele>
        </trkpt>
      <trkpt lat="39.986237" lon="-75.201271">
        <ele>16.4</ele>
        </trkpt>
      <trkpt lat="39.986128" lon="-75.201491">
        <ele>16.6</ele>
        </trkpt>
      <trkpt lat="39.986118" lon="-75.201526">
        <ele>16.6</ele>
        </trkpt>
      <trkpt lat="39.986020" lon="-75.201708">
        <ele>16.0</ele>
        </trkpt>
      <trkpt lat="39.985918" lon="-75.201921">
        <ele>16.4</ele>
        </trkpt>
      <trkpt lat="39.985906" lon="-75.201937">
        <ele>16.6</ele>
        </trkpt>
      <trkpt lat="39.985858" lon="-75.202033">
        <ele>16.8</ele>
        </trkpt>
      <trkpt lat="39.985807" lon="-75.202103">
        <ele>16.8</ele>
        </trkpt>
      <trkpt lat="39.985657" lon="-75.202239">
        <ele>16.8</ele>
        </trkpt>
      <trkpt lat="39.985641" lon="-75.202255">
        <ele>16.8</ele>
        </trkpt>
      <trkpt lat="39.985527" lon="-75.202372">
        <ele>16.8</ele>
        </trkpt>
      <trkpt lat="39.985517" lon="-75.202393">
        <ele>16.8</ele>
        </trkpt>
      <trkpt lat="39.985500" lon="-75.202435">
        <ele>17.0</ele>
        </trkpt>
      <trkpt lat="39.985389" lon="-75.202617">
        <ele>16.6</ele>
        </trkpt>
      <trkpt lat="39.985264" lon="-75.202788">
        <ele>15.8</ele>
        </trkpt>
      <trkpt lat="39.985222" lon="-75.202837">
        <ele>15.4</ele>
        </trkpt>
      <trkpt lat="39.985083" lon="-75.202986">
        <ele>14.8</ele>
        </trkpt>
      <trkpt lat="39.985020" lon="-75.203031">
        <ele>14.8</ele>
        </trkpt>
      <trkpt lat="39.984987" lon="-75.203055">
        <ele>14.8</ele>
        </trkpt>
      <trkpt lat="39.984956" lon="-75.203091">
        <ele>14.8</ele>
        </trkpt>
      <trkpt lat="39.984893" lon="-75.203174">
        <ele>14.8</ele>
        </trkpt>
      <trkpt lat="39.984834" lon="-75.203254">
        <ele>14.6</ele>
        </trkpt>
      <trkpt lat="39.984802" lon="-75.203276">
        <ele>14.6</ele>
        </trkpt>
      <trkpt lat="39.984742" lon="-75.203282">
        <ele>14.4</ele>
        </trkpt>
      <trkpt lat="39.984728" lon="-75.203271">
        <ele>14.4</ele>
        </trkpt>
      <trkpt lat="39.984681" lon="-75.203260">
        <ele>15.0</ele>
        </trkpt>
      <trkpt lat="39.984661" lon="-75.203311">
        <ele>14.8</ele>
        </trkpt>
      <trkpt lat="39.984631" lon="-75.203326">
        <ele>14.8</ele>
        </trkpt>
      <trkpt lat="39.984557" lon="-75.203329">
        <ele>14.8</ele>
        </trkpt>
      <trkpt lat="39.984364" lon="-75.203355">
        <ele>14.2</ele>
        </trkpt>
      <trkpt lat="39.984340" lon="-75.203357">
        <ele>14.2</ele>
        </trkpt>
      <trkpt lat="39.984138" lon="-75.203367">
        <ele>14.0</ele>
        </trkpt>
      <trkpt lat="39.984070" lon="-75.203354">
        <ele>14.0</ele>
        </trkpt>
      <trkpt lat="39.983882" lon="-75.203317">
        <ele>15.0</ele>
        </trkpt>
      <trkpt lat="39.983708" lon="-75.203252">
        <ele>15.6</ele>
        </trkpt>
      <trkpt lat="39.983689" lon="-75.203242">
        <ele>15.6</ele>
        </trkpt>
      <trkpt lat="39.983513" lon="-75.203144">
        <ele>16.0</ele>
        </trkpt>
      <trkpt lat="39.983495" lon="-75.203132">
        <ele>16.0</ele>
        </trkpt>
      <trkpt lat="39.983393" lon="-75.203026">
        <ele>16.0</ele>
        </trkpt>
      <trkpt lat="39.983371" lon="-75.203005">
        <ele>16.0</ele>
        </trkpt>
      <trkpt lat="39.983222" lon="-75.202848">
        <ele>16.0</ele>
        </trkpt>
      <trkpt lat="39.983087" lon="-75.202716">
        <ele>16.0</ele>
        </trkpt>
      <trkpt lat="39.982933" lon="-75.202576">
        <ele>16.2</ele>
        </trkpt>
      <trkpt lat="39.982831" lon="-75.202462">
        <ele>16.2</ele>
        </trkpt>
      <trkpt lat="39.982685" lon="-75.202296">
        <ele>16.4</ele>
        </trkpt>
      <trkpt lat="39.982671" lon="-75.202274">
        <ele>16.6</ele>
        </trkpt>
      <trkpt lat="39.982648" lon="-75.202232">
        <ele>16.6</ele>
        </trkpt>
      <trkpt lat="39.982496" lon="-75.202101">
        <ele>16.6</ele>
        </trkpt>
      <trkpt lat="39.982476" lon="-75.202075">
        <ele>16.6</ele>
        </trkpt>
      <trkpt lat="39.982338" lon="-75.201902">
        <ele>16.8</ele>
        </trkpt>
      <trkpt lat="39.982325" lon="-75.201879">
        <ele>16.8</ele>
        </trkpt>
      <trkpt lat="39.982245" lon="-75.201731">
        <ele>17.2</ele>
        </trkpt>
      <trkpt lat="39.982203" lon="-75.201673">
        <ele>17.2</ele>
        </trkpt>
      <trkpt lat="39.982084" lon="-75.201500">
        <ele>17.6</ele>
        </trkpt>
      <trkpt lat="39.981942" lon="-75.201327">
        <ele>17.6</ele>
        </trkpt>
      <trkpt lat="39.981925" lon="-75.201306">
        <ele>17.6</ele>
        </trkpt>
      <trkpt lat="39.981797" lon="-75.201134">
        <ele>17.4</ele>
        </trkpt>
      <trkpt lat="39.981777" lon="-75.201084">
        <ele>17.8</ele>
        </trkpt>
      <trkpt lat="39.981656" lon="-75.200896">
        <ele>18.0</ele>
        </trkpt>
      <trkpt lat="39.981639" lon="-75.200874">
        <ele>18.0</ele>
        </trkpt>
      <trkpt lat="39.981509" lon="-75.200695">
        <ele>18.2</ele>
        </trkpt>
      <trkpt lat="39.981466" lon="-75.200626">
        <ele>18.0</ele>
        </trkpt>
      <trkpt lat="39.981331" lon="-75.200432">
        <ele>18.0</ele>
        </trkpt>
      <trkpt lat="39.981319" lon="-75.200408">
        <ele>18.0</ele>
        </trkpt>
      <trkpt lat="39.981193" lon="-75.200211">
        <ele>17.8</ele>
        </trkpt>
      <trkpt lat="39.981142" lon="-75.200106">
        <ele>17.4</ele>
        </trkpt>
      <trkpt lat="39.981156" lon="-75.200084">
        <ele>17.4</ele>
        </trkpt>
      <trkpt lat="39.981172" lon="-75.200076">
        <ele>17.4</ele>
        </trkpt>
      <trkpt lat="39.981167" lon="-75.200065">
        <ele>17.2</ele>
        </trkpt>
      <trkpt lat="39.981104" lon="-75.200006">
        <ele>17.6</ele>
        </trkpt>
      <trkpt lat="39.981060" lon="-75.199908">
        <ele>17.6</ele>
        </trkpt>
      <trkpt lat="39.981025" lon="-75.199826">
        <ele>17.4</ele>
        </trkpt>
      <trkpt lat="39.980955" lon="-75.199623">
        <ele>17.2</ele>
        </trkpt>
      <trkpt lat="39.980897" lon="-75.199382">
        <ele>17.2</ele>
        </trkpt>
      <trkpt lat="39.980884" lon="-75.199328">
        <ele>17.2</ele>
        </trkpt>
      <trkpt lat="39.980825" lon="-75.199097">
        <ele>17.2</ele>
        </trkpt>
      <trkpt lat="39.980807" lon="-75.199036">
        <ele>17.2</ele>
        </trkpt>
      <trkpt lat="39.980737" lon="-75.198797">
        <ele>17.4</ele>
        </trkpt>
      <trkpt lat="39.980726" lon="-75.198772">
        <ele>17.4</ele>
        </trkpt>
      <trkpt lat="39.980663" lon="-75.198548">
        <ele>17.4</ele>
        </trkpt>
      <trkpt lat="39.980658" lon="-75.198523">
        <ele>17.2</ele>
        </trkpt>
      <trkpt lat="39.980600" lon="-75.198309">
        <ele>17.2</ele>
        </trkpt>
      <trkpt lat="39.980487" lon="-75.198092">
        <ele>16.8</ele>
        </trkpt>
      <trkpt lat="39.980470" lon="-75.198064">
        <ele>16.8</ele>
        </trkpt>
      <trkpt lat="39.980358" lon="-75.197891">
        <ele>16.4</ele>
        </trkpt>
      <trkpt lat="39.980225" lon="-75.197711">
        <ele>16.6</ele>
        </trkpt>
      <trkpt lat="39.980219" lon="-75.197691">
        <ele>16.6</ele>
        </trkpt>
      <trkpt lat="39.980082" lon="-75.197496">
        <ele>16.2</ele>
        </trkpt>
      <trkpt lat="39.980000" lon="-75.197385">
        <ele>16.0</ele>
        </trkpt>
      <trkpt lat="39.979901" lon="-75.197205">
        <ele>15.8</ele>
        </trkpt>
      <trkpt lat="39.979882" lon="-75.197178">
        <ele>15.8</ele>
        </trkpt>
      <trkpt lat="39.979756" lon="-75.197000">
        <ele>15.8</ele>
        </trkpt>
      <trkpt lat="39.979735" lon="-75.196968">
        <ele>15.8</ele>
        </trkpt>
      <trkpt lat="39.979637" lon="-75.196815">
        <ele>15.6</ele>
        </trkpt>
      <trkpt lat="39.979514" lon="-75.196639">
        <ele>15.2</ele>
        </trkpt>
      <trkpt lat="39.979497" lon="-75.196609">
        <ele>15.2</ele>
        </trkpt>
      <trkpt lat="39.979444" lon="-75.196534">
        <ele>15.0</ele>
        </trkpt>
      <trkpt lat="39.979366" lon="-75.196420">
        <ele>15.0</ele>
        </trkpt>
      <trkpt lat="39.979243" lon="-75.196249">
        <ele>14.8</ele>
        </trkpt>
      <trkpt lat="39.979200" lon="-75.196204">
        <ele>14.8</ele>
        </trkpt>
      <trkpt lat="39.979123" lon="-75.196108">
        <ele>14.8</ele>
        </trkpt>
      <trkpt lat="39.979104" lon="-75.196081">
        <ele>14.8</ele>
        </trkpt>
      <trkpt lat="39.979016" lon="-75.195962">
        <ele>14.8</ele>
        </trkpt>
      <trkpt lat="39.978881" lon="-75.195780">
        <ele>15.0</ele>
        </trkpt>
      <trkpt lat="39.978757" lon="-75.195598">
        <ele>15.4</ele>
        </trkpt>
      <trkpt lat="39.978715" lon="-75.195548">
        <ele>15.4</ele>
        </trkpt>
      <trkpt lat="39.978615" lon="-75.195368">
        <ele>15.8</ele>
        </trkpt>
      <trkpt lat="39.978617" lon="-75.195345">
        <ele>15.8</ele>
        </trkpt>
      <trkpt lat="39.978605" lon="-75.195327">
        <ele>16.0</ele>
        </trkpt>
      <trkpt lat="39.978468" lon="-75.195161">
        <ele>15.8</ele>
        </trkpt>
      <trkpt lat="39.978442" lon="-75.195093">
        <ele>15.6</ele>
        </trkpt>
      <trkpt lat="39.978368" lon="-75.194970">
        <ele>15.8</ele>
        </trkpt>
      <trkpt lat="39.978355" lon="-75.194952">
        <ele>15.8</ele>
        </trkpt>
      <trkpt lat="39.978309" lon="-75.194891">
        <ele>16.2</ele>
        </trkpt>
      <trkpt lat="39.978249" lon="-75.194792">
        <ele>16.4</ele>
        </trkpt>
      <trkpt lat="39.978166" lon="-75.194657">
        <ele>16.6</ele>
        </trkpt>
      <trkpt lat="39.978083" lon="-75.194571">
        <ele>16.6</ele>
        </trkpt>
      <trkpt lat="39.977988" lon="-75.194506">
        <ele>16.6</ele>
        </trkpt>
      <trkpt lat="39.977948" lon="-75.194455">
        <ele>17.0</ele>
        </trkpt>
      <trkpt lat="39.977870" lon="-75.194340">
        <ele>17.4</ele>
        </trkpt>
      <trkpt lat="39.977836" lon="-75.194298">
        <ele>17.4</ele>
        </trkpt>
      <trkpt lat="39.977724" lon="-75.194182">
        <ele>17.4</ele>
        </trkpt>
      <trkpt lat="39.977553" lon="-75.194047">
        <ele>17.2</ele>
        </trkpt>
      <trkpt lat="39.977402" lon="-75.193906">
        <ele>17.0</ele>
        </trkpt>
      <trkpt lat="39.977374" lon="-75.193894">
        <ele>17.2</ele>
        </trkpt>
      <trkpt lat="39.977208" lon="-75.193760">
        <ele>17.2</ele>
        </trkpt>
      <trkpt lat="39.977162" lon="-75.193726">
        <ele>17.2</ele>
        </trkpt>
      <trkpt lat="39.977002" lon="-75.193572">
        <ele>17.0</ele>
        </trkpt>
      <trkpt lat="39.976950" lon="-75.193520">
        <ele>17.0</ele>
        </trkpt>
      <trkpt lat="39.976849" lon="-75.193363">
        <ele>17.2</ele>
        </trkpt>
      <trkpt lat="39.976730" lon="-75.193197">
        <ele>17.6</ele>
        </trkpt>
      <trkpt lat="39.976643" lon="-75.193036">
        <ele>17.4</ele>
        </trkpt>
      <trkpt lat="39.976503" lon="-75.192920">
        <ele>17.4</ele>
        </trkpt>
      <trkpt lat="39.976312" lon="-75.192849">
        <ele>17.2</ele>
        </trkpt>
      <trkpt lat="39.976194" lon="-75.192742">
        <ele>17.2</ele>
        </trkpt>
      <trkpt lat="39.976036" lon="-75.192602">
        <ele>15.8</ele>
        </trkpt>
      <trkpt lat="39.976016" lon="-75.192574">
        <ele>15.8</ele>
        </trkpt>
      <trkpt lat="39.975856" lon="-75.192443">
        <ele>15.6</ele>
        </trkpt>
      <trkpt lat="39.975765" lon="-75.192389">
        <ele>15.4</ele>
        </trkpt>
      <trkpt lat="39.975616" lon="-75.192251">
        <ele>15.4</ele>
        </trkpt>
      <trkpt lat="39.975589" lon="-75.192220">
        <ele>15.6</ele>
        </trkpt>
      <trkpt lat="39.975525" lon="-75.192173">
        <ele>15.6</ele>
        </trkpt>
      <trkpt lat="39.975479" lon="-75.192122">
        <ele>15.2</ele>
        </trkpt>
      <trkpt lat="39.975419" lon="-75.192054">
        <ele>15.2</ele>
        </trkpt>
      <trkpt lat="39.975415" lon="-75.192042">
        <ele>15.2</ele>
        </trkpt>
      <trkpt lat="39.975378" lon="-75.192005">
        <ele>15.4</ele>
        </trkpt>
      <trkpt lat="39.975353" lon="-75.191984">
        <ele>15.4</ele>
        </trkpt>
      <trkpt lat="39.975183" lon="-75.191885">
        <ele>15.0</ele>
        </trkpt>
      <trkpt lat="39.975084" lon="-75.191798">
        <ele>14.8</ele>
        </trkpt>
      <trkpt lat="39.975045" lon="-75.191711">
        <ele>15.0</ele>
        </trkpt>
      <trkpt lat="39.974936" lon="-75.191500">
        <ele>14.8</ele>
        </trkpt>
      <trkpt lat="39.974894" lon="-75.191456">
        <ele>14.8</ele>
        </trkpt>
      <trkpt lat="39.974699" lon="-75.191329">
        <ele>14.8</ele>
        </trkpt>
      <trkpt lat="39.974676" lon="-75.191315">
        <ele>14.8</ele>
        </trkpt>
      <trkpt lat="39.974521" lon="-75.191206">
        <ele>14.8</ele>
        </trkpt>
      <trkpt lat="39.974333" lon="-75.191108">
        <ele>14.8</ele>
        </trkpt>
      <trkpt lat="39.974168" lon="-75.191000">
        <ele>15.0</ele>
        </trkpt>
      <trkpt lat="39.974126" lon="-75.190976">
        <ele>15.2</ele>
        </trkpt>
      <trkpt lat="39.973946" lon="-75.190859">
        <ele>15.2</ele>
        </trkpt>
      <trkpt lat="39.973924" lon="-75.190848">
        <ele>15.2</ele>
        </trkpt>
      <trkpt lat="39.973759" lon="-75.190750">
        <ele>15.0</ele>
        </trkpt>
      <trkpt lat="39.973737" lon="-75.190733">
        <ele>15.0</ele>
        </trkpt>
      <trkpt lat="39.973558" lon="-75.190623">
        <ele>14.8</ele>
        </trkpt>
      <trkpt lat="39.973498" lon="-75.190577">
        <ele>15.2</ele>
        </trkpt>
      <trkpt lat="39.973348" lon="-75.190487">
        <ele>15.2</ele>
        </trkpt>
      <trkpt lat="39.973179" lon="-75.190382">
        <ele>15.4</ele>
        </trkpt>
      <trkpt lat="39.973111" lon="-75.190365">
        <ele>15.6</ele>
        </trkpt>
      <trkpt lat="39.972961" lon="-75.190316">
        <ele>15.8</ele>
        </trkpt>
      <trkpt lat="39.972871" lon="-75.190268">
        <ele>15.8</ele>
        </trkpt>
      <trkpt lat="39.972706" lon="-75.190195">
        <ele>16.0</ele>
        </trkpt>
      <trkpt lat="39.972509" lon="-75.190127">
        <ele>16.0</ele>
        </trkpt>
      <trkpt lat="39.972484" lon="-75.190114">
        <ele>16.0</ele>
        </trkpt>
      <trkpt lat="39.972360" lon="-75.190079">
        <ele>16.4</ele>
        </trkpt>
      <trkpt lat="39.972161" lon="-75.190016">
        <ele>16.6</ele>
        </trkpt>
      <trkpt lat="39.971967" lon="-75.189987">
        <ele>16.4</ele>
        </trkpt>
      <trkpt lat="39.971912" lon="-75.190004">
        <ele>16.4</ele>
        </trkpt>
      <trkpt lat="39.971720" lon="-75.190037">
        <ele>16.4</ele>
        </trkpt>
      <trkpt lat="39.971595" lon="-75.190070">
        <ele>16.6</ele>
        </trkpt>
      <trkpt lat="39.971407" lon="-75.190108">
        <ele>16.8</ele>
        </trkpt>
      <trkpt lat="39.971387" lon="-75.190110">
        <ele>16.8</ele>
        </trkpt>
      <trkpt lat="39.971189" lon="-75.190118">
        <ele>16.0</ele>
        </trkpt>
      <trkpt lat="39.971108" lon="-75.190099">
        <ele>16.0</ele>
        </trkpt>
      <trkpt lat="39.971014" lon="-75.190090">
        <ele>16.0</ele>
        </trkpt>
      <trkpt lat="39.970947" lon="-75.190078">
        <ele>16.4</ele>
        </trkpt>
      <trkpt lat="39.970748" lon="-75.190088">
        <ele>16.4</ele>
        </trkpt>
      <trkpt lat="39.970657" lon="-75.190084">
        <ele>16.0</ele>
        </trkpt>
      <trkpt lat="39.970633" lon="-75.190081">
        <ele>16.0</ele>
        </trkpt>
      <trkpt lat="39.970474" lon="-75.190035">
        <ele>16.6</ele>
        </trkpt>
      <trkpt lat="39.970308" lon="-75.189967">
        <ele>16.6</ele>
        </trkpt>
      <trkpt lat="39.970178" lon="-75.189873">
        <ele>16.8</ele>
        </trkpt>
      <trkpt lat="39.970143" lon="-75.189819">
        <ele>16.8</ele>
        </trkpt>
      <trkpt lat="39.970070" lon="-75.189650">
        <ele>16.4</ele>
        </trkpt>
      <trkpt lat="39.970055" lon="-75.189610">
        <ele>16.6</ele>
        </trkpt>
      <trkpt lat="39.970016" lon="-75.189502">
        <ele>16.8</ele>
        </trkpt>
      <trkpt lat="39.969997" lon="-75.189388">
        <ele>16.8</ele>
        </trkpt>
      <trkpt lat="39.969987" lon="-75.189330">
        <ele>16.6</ele>
        </trkpt>
      <trkpt lat="39.969964" lon="-75.189250">
        <ele>16.4</ele>
        </trkpt>
      <trkpt lat="39.969934" lon="-75.188996">
        <ele>16.4</ele>
        </trkpt>
      <trkpt lat="39.969910" lon="-75.188861">
        <ele>15.8</ele>
        </trkpt>
      <trkpt lat="39.969895" lon="-75.188743">
        <ele>15.6</ele>
        </trkpt>
      <trkpt lat="39.969886" lon="-75.188511">
        <ele>15.8</ele>
        </trkpt>
      <trkpt lat="39.969874" lon="-75.188319">
        <ele>15.8</ele>
        </trkpt>
      <trkpt lat="39.969849" lon="-75.188104">
        <ele>15.6</ele>
        </trkpt>
      <trkpt lat="39.969825" lon="-75.187875">
        <ele>16.0</ele>
        </trkpt>
      <trkpt lat="39.969790" lon="-75.187638">
        <ele>15.6</ele>
        </trkpt>
      <trkpt lat="39.969738" lon="-75.187413">
        <ele>15.6</ele>
        </trkpt>
      <trkpt lat="39.969730" lon="-75.187318">
        <ele>15.6</ele>
        </trkpt>
      <trkpt lat="39.969710" lon="-75.187085">
        <ele>15.6</ele>
        </trkpt>
      <trkpt lat="39.969705" lon="-75.187023">
        <ele>15.4</ele>
        </trkpt>
      <trkpt lat="39.969696" lon="-75.186767">
        <ele>15.4</ele>
        </trkpt>
      <trkpt lat="39.969643" lon="-75.186519">
        <ele>15.4</ele>
        </trkpt>
      <trkpt lat="39.969629" lon="-75.186446">
        <ele>15.4</ele>
        </trkpt>
      <trkpt lat="39.969612" lon="-75.186219">
        <ele>15.2</ele>
        </trkpt>
      <trkpt lat="39.969565" lon="-75.186031">
        <ele>15.4</ele>
        </trkpt>
      <trkpt lat="39.969517" lon="-75.185781">
        <ele>15.6</ele>
        </trkpt>
      <trkpt lat="39.969506" lon="-75.185717">
        <ele>15.6</ele>
        </trkpt>
      <trkpt lat="39.969460" lon="-75.185473">
        <ele>15.6</ele>
        </trkpt>
      <trkpt lat="39.969424" lon="-75.185219">
        <ele>15.8</ele>
        </trkpt>
      <trkpt lat="39.969375" lon="-75.184991">
        <ele>15.8</ele>
        </trkpt>
      <trkpt lat="39.969362" lon="-75.184963">
        <ele>15.8</ele>
        </trkpt>
      <trkpt lat="39.969272" lon="-75.184729">
        <ele>16.0</ele>
        </trkpt>
      <trkpt lat="39.969243" lon="-75.184662">
        <ele>15.8</ele>
        </trkpt>
      <trkpt lat="39.969141" lon="-75.184441">
        <ele>15.8</ele>
        </trkpt>
      <trkpt lat="39.969061" lon="-75.184242">
        <ele>16.2</ele>
        </trkpt>
      <trkpt lat="39.968971" lon="-75.184011">
        <ele>16.2</ele>
        </trkpt>
      <trkpt lat="39.968955" lon="-75.183982">
        <ele>16.2</ele>
        </trkpt>
      <trkpt lat="39.968873" lon="-75.183795">
        <ele>16.2</ele>
        </trkpt>
      <trkpt lat="39.968786" lon="-75.183572">
        <ele>16.4</ele>
        </trkpt>
      <trkpt lat="39.968777" lon="-75.183549">
        <ele>16.4</ele>
        </trkpt>
      <trkpt lat="39.968680" lon="-75.183358">
        <ele>16.6</ele>
        </trkpt>
      <trkpt lat="39.968648" lon="-75.183303">
        <ele>16.8</ele>
        </trkpt>
      <trkpt lat="39.968591" lon="-75.183199">
        <ele>17.0</ele>
        </trkpt>
      <trkpt lat="39.968531" lon="-75.183072">
        <ele>17.4</ele>
        </trkpt>
      <trkpt lat="39.968446" lon="-75.182914">
        <ele>17.4</ele>
        </trkpt>
      <trkpt lat="39.968324" lon="-75.182750">
        <ele>17.8</ele>
        </trkpt>
      <trkpt lat="39.968308" lon="-75.182726">
        <ele>17.8</ele>
        </trkpt>
      <trkpt lat="39.968195" lon="-75.182536">
        <ele>18.6</ele>
        </trkpt>
      <trkpt lat="39.968175" lon="-75.182503">
        <ele>18.6</ele>
        </trkpt>
      <trkpt lat="39.968121" lon="-75.182415">
        <ele>18.8</ele>
        </trkpt>
      <trkpt lat="39.968076" lon="-75.182315">
        <ele>19.0</ele>
        </trkpt>
      <trkpt lat="39.967942" lon="-75.182129">
        <ele>19.0</ele>
        </trkpt>
      <trkpt lat="39.967908" lon="-75.182068">
        <ele>19.2</ele>
        </trkpt>
      <trkpt lat="39.967788" lon="-75.181924">
        <ele>19.4</ele>
        </trkpt>
      <trkpt lat="39.967640" lon="-75.181758">
        <ele>19.8</ele>
        </trkpt>
      <trkpt lat="39.967599" lon="-75.181702">
        <ele>19.8</ele>
        </trkpt>
      <trkpt lat="39.967528" lon="-75.181512">
        <ele>20.4</ele>
        </trkpt>
      <trkpt lat="39.967416" lon="-75.181299">
        <ele>20.6</ele>
        </trkpt>
      <trkpt lat="39.967418" lon="-75.181232">
        <ele>21.0</ele>
        </trkpt>
      <trkpt lat="39.967406" lon="-75.181152">
        <ele>21.2</ele>
        </trkpt>
      <trkpt lat="39.967374" lon="-75.180902">
        <ele>22.0</ele>
        </trkpt>
      <trkpt lat="39.967258" lon="-75.180685">
        <ele>22.8</ele>
        </trkpt>
      <trkpt lat="39.967239" lon="-75.180650">
        <ele>23.0</ele>
        </trkpt>
      <trkpt lat="39.967224" lon="-75.180613">
        <ele>23.0</ele>
        </trkpt>
      <trkpt lat="39.967120" lon="-75.180398">
        <ele>23.6</ele>
        </trkpt>
      <trkpt lat="39.967096" lon="-75.180355">
        <ele>23.8</ele>
        </trkpt>
      <trkpt lat="39.966985" lon="-75.180171">
        <ele>24.0</ele>
        </trkpt>
      <trkpt lat="39.966967" lon="-75.180145">
        <ele>24.0</ele>
        </trkpt>
      <trkpt lat="39.966949" lon="-75.180115">
        <ele>24.2</ele>
        </trkpt>
      <trkpt lat="39.966854" lon="-75.179900">
        <ele>24.4</ele>
        </trkpt>
      <trkpt lat="39.966802" lon="-75.179841">
        <ele>24.6</ele>
        </trkpt>
      <trkpt lat="39.966640" lon="-75.179684">
        <ele>25.0</ele>
        </trkpt>
      <trkpt lat="39.966472" lon="-75.179543">
        <ele>25.0</ele>
        </trkpt>
      <trkpt lat="39.966441" lon="-75.179526">
        <ele>25.0</ele>
        </trkpt>
      <trkpt lat="39.966370" lon="-75.179490">
        <ele>25.2</ele>
        </trkpt>
      <trkpt lat="39.966326" lon="-75.179471">
        <ele>25.2</ele>
        </trkpt>
      <trkpt lat="39.966215" lon="-75.179384">
        <ele>25.2</ele>
        </trkpt>
      <trkpt lat="39.966039" lon="-75.179283">
        <ele>25.4</ele>
        </trkpt>
      <trkpt lat="39.966016" lon="-75.179276">
        <ele>25.4</ele>
        </trkpt>
      <trkpt lat="39.965851" lon="-75.179237">
        <ele>25.6</ele>
        </trkpt>
      <trkpt lat="39.965661" lon="-75.179173">
        <ele>25.6</ele>
        </trkpt>
      <trkpt lat="39.965640" lon="-75.179160">
        <ele>25.6</ele>
        </trkpt>
      <trkpt lat="39.965454" lon="-75.179086">
        <ele>25.4</ele>
        </trkpt>
      <trkpt lat="39.965264" lon="-75.179044">
        <ele>25.0</ele>
        </trkpt>
      <trkpt lat="39.965085" lon="-75.179024">
        <ele>24.8</ele>
        </trkpt>
      <trkpt lat="39.964976" lon="-75.179151">
        <ele>24.8</ele>
        </trkpt>
      <trkpt lat="39.964812" lon="-75.179313">
        <ele>24.4</ele>
        </trkpt>
      <trkpt lat="39.964777" lon="-75.179358">
        <ele>24.2</ele>
        </trkpt>
      <trkpt lat="39.964713" lon="-75.179474">
        <ele>24.4</ele>
        </trkpt>
      <trkpt lat="39.964729" lon="-75.179602">
        <ele>24.4</ele>
        </trkpt>
      <trkpt lat="39.964738" lon="-75.179635">
        <ele>24.6</ele>
        </trkpt>
    </trkseg>
  </trk>
</gpx>